<?xml version="1.0" encoding="UTF-8"?>
<gpx xmlns:gpxdata="http://www.cluetrust.com/XML/GPXDATA/1/0" xmlns:xsi="http://www.w3.org/2001/XMLSchema-instance" xmlns="http://www.topografix.com/GPX/1/1" version="1.1" creator="http://ridewithgps.com/" xsi:schemaLocation="http://www.topografix.com/GPX/1/1 http://www.topografix.com/GPX/1/1/gpx.xsd http://www.cluetrust.com/XML/GPXDATA/1/0 http://www.cluetrust.com/Schemas/gpxdata10.xsd">
  <metadata>
    <name>08 CICLOVIA DELL'ACQUEDOTTO - MANDURIA-NARDO' NEW 2022</name>
    <link href="https://ridewithgps.com/routes/38548121">
      <text>08 CICLOVIA DELL'ACQUEDOTTO - MANDURIA-NARDO' NEW 2022</text>
    </link>
    <time>2022-02-12T13:16:46Z</time>
  </metadata>
  <trk>
    <name>08 CICLOVIA DELL'ACQUEDOTTO - MANDURIA-NARDO' NEW 2022</name>
    <trkseg>
      <trkpt lat="40.39918" lon="17.635459">
        <ele>84.5</ele>
      </trkpt>
      <trkpt lat="40.39893" lon="17.63583">
        <ele>84.7</ele>
      </trkpt>
      <trkpt lat="40.39884" lon="17.63606">
        <ele>84.2</ele>
      </trkpt>
      <trkpt lat="40.39881" lon="17.63609">
        <ele>84.1</ele>
      </trkpt>
      <trkpt lat="40.398449" lon="17.636489">
        <ele>82.7</ele>
      </trkpt>
      <trkpt lat="40.39834" lon="17.63666">
        <ele>82.0</ele>
      </trkpt>
      <trkpt lat="40.39829" lon="17.63675">
        <ele>81.9</ele>
      </trkpt>
      <trkpt lat="40.39824" lon="17.63688">
        <ele>81.8</ele>
      </trkpt>
      <trkpt lat="40.3982" lon="17.63698">
        <ele>81.7</ele>
      </trkpt>
      <trkpt lat="40.39811" lon="17.63722">
        <ele>81.6</ele>
      </trkpt>
      <trkpt lat="40.39807" lon="17.63736">
        <ele>81.6</ele>
      </trkpt>
      <trkpt lat="40.39803" lon="17.63751">
        <ele>81.6</ele>
      </trkpt>
      <trkpt lat="40.398" lon="17.63767">
        <ele>81.7</ele>
      </trkpt>
      <trkpt lat="40.39799" lon="17.63778">
        <ele>81.7</ele>
      </trkpt>
      <trkpt lat="40.39793" lon="17.63845">
        <ele>81.7</ele>
      </trkpt>
      <trkpt lat="40.39787" lon="17.63869">
        <ele>81.1</ele>
      </trkpt>
      <trkpt lat="40.39785" lon="17.63881">
        <ele>80.9</ele>
      </trkpt>
      <trkpt lat="40.39782" lon="17.63897">
        <ele>80.5</ele>
      </trkpt>
      <trkpt lat="40.39781" lon="17.63905">
        <ele>80.3</ele>
      </trkpt>
      <trkpt lat="40.39779" lon="17.6391">
        <ele>80.2</ele>
      </trkpt>
      <trkpt lat="40.39776" lon="17.63917">
        <ele>80.0</ele>
      </trkpt>
      <trkpt lat="40.3977" lon="17.63929">
        <ele>80.0</ele>
      </trkpt>
      <trkpt lat="40.39757" lon="17.63951">
        <ele>80.0</ele>
      </trkpt>
      <trkpt lat="40.39732" lon="17.63991">
        <ele>79.6</ele>
      </trkpt>
      <trkpt lat="40.39703" lon="17.64035">
        <ele>78.7</ele>
      </trkpt>
      <trkpt lat="40.396769" lon="17.64073">
        <ele>78.8</ele>
      </trkpt>
      <trkpt lat="40.39668" lon="17.64086">
        <ele>79.0</ele>
      </trkpt>
      <trkpt lat="40.39644" lon="17.6412">
        <ele>79.0</ele>
      </trkpt>
      <trkpt lat="40.39612" lon="17.64169">
        <ele>78.3</ele>
      </trkpt>
      <trkpt lat="40.39582" lon="17.64219">
        <ele>77.4</ele>
      </trkpt>
      <trkpt lat="40.39582" lon="17.64219">
        <ele>77.4</ele>
      </trkpt>
      <trkpt lat="40.39571" lon="17.64202">
        <ele>77.6</ele>
      </trkpt>
      <trkpt lat="40.39584" lon="17.64159">
        <ele>78.2</ele>
      </trkpt>
      <trkpt lat="40.39584" lon="17.64159">
        <ele>78.2</ele>
      </trkpt>
      <trkpt lat="40.39548" lon="17.64143">
        <ele>78.3</ele>
      </trkpt>
      <trkpt lat="40.39517" lon="17.64133">
        <ele>78.2</ele>
      </trkpt>
      <trkpt lat="40.39488" lon="17.64123">
        <ele>78.1</ele>
      </trkpt>
      <trkpt lat="40.39444" lon="17.641089">
        <ele>78.5</ele>
      </trkpt>
      <trkpt lat="40.39409" lon="17.64097">
        <ele>78.8</ele>
      </trkpt>
      <trkpt lat="40.393859" lon="17.64091">
        <ele>78.9</ele>
      </trkpt>
      <trkpt lat="40.39354" lon="17.6408">
        <ele>79.0</ele>
      </trkpt>
      <trkpt lat="40.3934" lon="17.64075">
        <ele>79.0</ele>
      </trkpt>
      <trkpt lat="40.3929" lon="17.64056">
        <ele>78.3</ele>
      </trkpt>
      <trkpt lat="40.392756" lon="17.640517">
        <ele>78.1</ele>
      </trkpt>
      <trkpt lat="40.39276" lon="17.64052">
        <ele>78.1</ele>
      </trkpt>
      <trkpt lat="40.39274" lon="17.64052">
        <ele>78.1</ele>
      </trkpt>
      <trkpt lat="40.39271" lon="17.640529">
        <ele>78.0</ele>
      </trkpt>
      <trkpt lat="40.39267" lon="17.64056">
        <ele>77.9</ele>
      </trkpt>
      <trkpt lat="40.39253" lon="17.64071">
        <ele>77.4</ele>
      </trkpt>
      <trkpt lat="40.39235" lon="17.64091">
        <ele>77.1</ele>
      </trkpt>
      <trkpt lat="40.39235" lon="17.64091">
        <ele>77.1</ele>
      </trkpt>
      <trkpt lat="40.39228" lon="17.64104">
        <ele>77.0</ele>
      </trkpt>
      <trkpt lat="40.39192" lon="17.64185">
        <ele>76.8</ele>
      </trkpt>
      <trkpt lat="40.39192" lon="17.64185">
        <ele>76.8</ele>
      </trkpt>
      <trkpt lat="40.39144" lon="17.64198">
        <ele>77.1</ele>
      </trkpt>
      <trkpt lat="40.39141" lon="17.64199">
        <ele>77.1</ele>
      </trkpt>
      <trkpt lat="40.39082" lon="17.64215">
        <ele>76.8</ele>
      </trkpt>
      <trkpt lat="40.39061" lon="17.64221">
        <ele>76.6</ele>
      </trkpt>
      <trkpt lat="40.3904" lon="17.64226">
        <ele>76.4</ele>
      </trkpt>
      <trkpt lat="40.39012" lon="17.64233">
        <ele>76.2</ele>
      </trkpt>
      <trkpt lat="40.38999" lon="17.64235">
        <ele>76.2</ele>
      </trkpt>
      <trkpt lat="40.38989" lon="17.64239">
        <ele>76.2</ele>
      </trkpt>
      <trkpt lat="40.38979" lon="17.64243">
        <ele>76.3</ele>
      </trkpt>
      <trkpt lat="40.3897" lon="17.64248">
        <ele>76.4</ele>
      </trkpt>
      <trkpt lat="40.38957" lon="17.64261">
        <ele>76.4</ele>
      </trkpt>
      <trkpt lat="40.38942" lon="17.64276">
        <ele>76.3</ele>
      </trkpt>
      <trkpt lat="40.38931" lon="17.64289">
        <ele>76.1</ele>
      </trkpt>
      <trkpt lat="40.38922" lon="17.643">
        <ele>75.8</ele>
      </trkpt>
      <trkpt lat="40.38914" lon="17.64311">
        <ele>75.6</ele>
      </trkpt>
      <trkpt lat="40.38909" lon="17.64315">
        <ele>75.6</ele>
      </trkpt>
      <trkpt lat="40.38905" lon="17.64318">
        <ele>75.6</ele>
      </trkpt>
      <trkpt lat="40.38902" lon="17.6432">
        <ele>75.6</ele>
      </trkpt>
      <trkpt lat="40.38887" lon="17.643249">
        <ele>75.9</ele>
      </trkpt>
      <trkpt lat="40.388779" lon="17.64328">
        <ele>76.0</ele>
      </trkpt>
      <trkpt lat="40.388599" lon="17.64333">
        <ele>76.4</ele>
      </trkpt>
      <trkpt lat="40.38834" lon="17.64339">
        <ele>77.0</ele>
      </trkpt>
      <trkpt lat="40.3882" lon="17.64339">
        <ele>77.3</ele>
      </trkpt>
      <trkpt lat="40.388039" lon="17.64335">
        <ele>77.7</ele>
      </trkpt>
      <trkpt lat="40.38781" lon="17.64328">
        <ele>78.2</ele>
      </trkpt>
      <trkpt lat="40.38759" lon="17.64322">
        <ele>78.7</ele>
      </trkpt>
      <trkpt lat="40.38754" lon="17.6432">
        <ele>78.8</ele>
      </trkpt>
      <trkpt lat="40.38746" lon="17.64318">
        <ele>78.9</ele>
      </trkpt>
      <trkpt lat="40.38732" lon="17.64316">
        <ele>79.1</ele>
      </trkpt>
      <trkpt lat="40.38716" lon="17.64315">
        <ele>79.3</ele>
      </trkpt>
      <trkpt lat="40.387" lon="17.64317">
        <ele>79.5</ele>
      </trkpt>
      <trkpt lat="40.38635" lon="17.64335">
        <ele>80.0</ele>
      </trkpt>
      <trkpt lat="40.38614" lon="17.64342">
        <ele>80.2</ele>
      </trkpt>
      <trkpt lat="40.38595" lon="17.64347">
        <ele>80.3</ele>
      </trkpt>
      <trkpt lat="40.38591" lon="17.64348">
        <ele>80.3</ele>
      </trkpt>
      <trkpt lat="40.38567" lon="17.64355">
        <ele>80.4</ele>
      </trkpt>
      <trkpt lat="40.38558" lon="17.64358">
        <ele>80.4</ele>
      </trkpt>
      <trkpt lat="40.38549" lon="17.64361">
        <ele>80.4</ele>
      </trkpt>
      <trkpt lat="40.38524" lon="17.64364">
        <ele>80.2</ele>
      </trkpt>
      <trkpt lat="40.385039" lon="17.64363">
        <ele>80.0</ele>
      </trkpt>
      <trkpt lat="40.38488" lon="17.64359">
        <ele>80.0</ele>
      </trkpt>
      <trkpt lat="40.38471" lon="17.64354">
        <ele>80.0</ele>
      </trkpt>
      <trkpt lat="40.38442" lon="17.64345">
        <ele>80.0</ele>
      </trkpt>
      <trkpt lat="40.38438" lon="17.643439">
        <ele>80.0</ele>
      </trkpt>
      <trkpt lat="40.3842" lon="17.6434">
        <ele>80.0</ele>
      </trkpt>
      <trkpt lat="40.38403" lon="17.64338">
        <ele>80.2</ele>
      </trkpt>
      <trkpt lat="40.38389" lon="17.64337">
        <ele>80.3</ele>
      </trkpt>
      <trkpt lat="40.38373" lon="17.6434">
        <ele>80.6</ele>
      </trkpt>
      <trkpt lat="40.3834" lon="17.64355">
        <ele>81.2</ele>
      </trkpt>
      <trkpt lat="40.38309" lon="17.6437">
        <ele>81.6</ele>
      </trkpt>
      <trkpt lat="40.38277" lon="17.64386">
        <ele>81.9</ele>
      </trkpt>
      <trkpt lat="40.38254" lon="17.64396">
        <ele>82.0</ele>
      </trkpt>
      <trkpt lat="40.38229" lon="17.64401">
        <ele>81.7</ele>
      </trkpt>
      <trkpt lat="40.3821" lon="17.64403">
        <ele>81.5</ele>
      </trkpt>
      <trkpt lat="40.38189" lon="17.64405">
        <ele>81.3</ele>
      </trkpt>
      <trkpt lat="40.3817" lon="17.64408">
        <ele>81.0</ele>
      </trkpt>
      <trkpt lat="40.38154" lon="17.64411">
        <ele>81.3</ele>
      </trkpt>
      <trkpt lat="40.38138" lon="17.64418">
        <ele>81.7</ele>
      </trkpt>
      <trkpt lat="40.38124" lon="17.64429">
        <ele>81.9</ele>
      </trkpt>
      <trkpt lat="40.38117" lon="17.64436">
        <ele>81.9</ele>
      </trkpt>
      <trkpt lat="40.38111" lon="17.64445">
        <ele>81.9</ele>
      </trkpt>
      <trkpt lat="40.38105" lon="17.64457">
        <ele>81.8</ele>
      </trkpt>
      <trkpt lat="40.38101" lon="17.64472">
        <ele>81.5</ele>
      </trkpt>
      <trkpt lat="40.38095" lon="17.64493">
        <ele>81.1</ele>
      </trkpt>
      <trkpt lat="40.38089" lon="17.6451">
        <ele>80.9</ele>
      </trkpt>
      <trkpt lat="40.38084" lon="17.6452">
        <ele>80.8</ele>
      </trkpt>
      <trkpt lat="40.38077" lon="17.64527">
        <ele>80.9</ele>
      </trkpt>
      <trkpt lat="40.38076" lon="17.64528">
        <ele>80.9</ele>
      </trkpt>
      <trkpt lat="40.38066" lon="17.64536">
        <ele>81.1</ele>
      </trkpt>
      <trkpt lat="40.38029" lon="17.64554">
        <ele>82.1</ele>
      </trkpt>
      <trkpt lat="40.379959" lon="17.64571">
        <ele>83.0</ele>
      </trkpt>
      <trkpt lat="40.37933" lon="17.64611">
        <ele>83.8</ele>
      </trkpt>
      <trkpt lat="40.37929" lon="17.64613">
        <ele>83.9</ele>
      </trkpt>
      <trkpt lat="40.37906" lon="17.64631">
        <ele>83.8</ele>
      </trkpt>
      <trkpt lat="40.3786" lon="17.64661">
        <ele>83.3</ele>
      </trkpt>
      <trkpt lat="40.37823" lon="17.64679">
        <ele>83.1</ele>
      </trkpt>
      <trkpt lat="40.37782" lon="17.64697">
        <ele>83.6</ele>
      </trkpt>
      <trkpt lat="40.37749" lon="17.64709">
        <ele>84.0</ele>
      </trkpt>
      <trkpt lat="40.377049" lon="17.64722">
        <ele>84.0</ele>
      </trkpt>
      <trkpt lat="40.37664" lon="17.64736">
        <ele>84.0</ele>
      </trkpt>
      <trkpt lat="40.37623" lon="17.64749">
        <ele>83.5</ele>
      </trkpt>
      <trkpt lat="40.3759" lon="17.64763">
        <ele>83.1</ele>
      </trkpt>
      <trkpt lat="40.37573" lon="17.64771">
        <ele>82.9</ele>
      </trkpt>
      <trkpt lat="40.3755" lon="17.64784">
        <ele>82.8</ele>
      </trkpt>
      <trkpt lat="40.37482" lon="17.648219">
        <ele>83.1</ele>
      </trkpt>
      <trkpt lat="40.37442" lon="17.64843">
        <ele>83.7</ele>
      </trkpt>
      <trkpt lat="40.37407" lon="17.64861">
        <ele>84.0</ele>
      </trkpt>
      <trkpt lat="40.373779" lon="17.64879">
        <ele>84.0</ele>
      </trkpt>
      <trkpt lat="40.37363" lon="17.64889">
        <ele>84.0</ele>
      </trkpt>
      <trkpt lat="40.37344" lon="17.64906">
        <ele>84.0</ele>
      </trkpt>
      <trkpt lat="40.37328" lon="17.64922">
        <ele>83.9</ele>
      </trkpt>
      <trkpt lat="40.37276" lon="17.6497">
        <ele>83.8</ele>
      </trkpt>
      <trkpt lat="40.3726" lon="17.64987">
        <ele>83.9</ele>
      </trkpt>
      <trkpt lat="40.37257" lon="17.64989">
        <ele>83.9</ele>
      </trkpt>
      <trkpt lat="40.37239" lon="17.65005">
        <ele>84.0</ele>
      </trkpt>
      <trkpt lat="40.3721" lon="17.65027">
        <ele>83.8</ele>
      </trkpt>
      <trkpt lat="40.37202" lon="17.65032">
        <ele>83.8</ele>
      </trkpt>
      <trkpt lat="40.37193" lon="17.650379">
        <ele>83.7</ele>
      </trkpt>
      <trkpt lat="40.37171" lon="17.65049">
        <ele>83.4</ele>
      </trkpt>
      <trkpt lat="40.37162" lon="17.65054">
        <ele>83.4</ele>
      </trkpt>
      <trkpt lat="40.371519" lon="17.650569">
        <ele>83.4</ele>
      </trkpt>
      <trkpt lat="40.37122" lon="17.65063">
        <ele>83.6</ele>
      </trkpt>
      <trkpt lat="40.37074" lon="17.6507">
        <ele>83.9</ele>
      </trkpt>
      <trkpt lat="40.37024" lon="17.65078">
        <ele>83.3</ele>
      </trkpt>
      <trkpt lat="40.37021" lon="17.65079">
        <ele>83.3</ele>
      </trkpt>
      <trkpt lat="40.37005" lon="17.65081">
        <ele>83.1</ele>
      </trkpt>
      <trkpt lat="40.37003" lon="17.65081">
        <ele>83.1</ele>
      </trkpt>
      <trkpt lat="40.36976" lon="17.65083">
        <ele>83.3</ele>
      </trkpt>
      <trkpt lat="40.36965" lon="17.65083">
        <ele>83.4</ele>
      </trkpt>
      <trkpt lat="40.36936" lon="17.65083">
        <ele>83.8</ele>
      </trkpt>
      <trkpt lat="40.36887" lon="17.65084">
        <ele>84.4</ele>
      </trkpt>
      <trkpt lat="40.3683" lon="17.65089">
        <ele>85.1</ele>
      </trkpt>
      <trkpt lat="40.36793" lon="17.65095">
        <ele>85.1</ele>
      </trkpt>
      <trkpt lat="40.36751" lon="17.65102">
        <ele>85.0</ele>
      </trkpt>
      <trkpt lat="40.36719" lon="17.65106">
        <ele>85.4</ele>
      </trkpt>
      <trkpt lat="40.36714" lon="17.65107">
        <ele>85.4</ele>
      </trkpt>
      <trkpt lat="40.367" lon="17.65107">
        <ele>85.6</ele>
      </trkpt>
      <trkpt lat="40.36674" lon="17.6511">
        <ele>85.9</ele>
      </trkpt>
      <trkpt lat="40.36638" lon="17.65114">
        <ele>86.6</ele>
      </trkpt>
      <trkpt lat="40.366259" lon="17.65117">
        <ele>86.8</ele>
      </trkpt>
      <trkpt lat="40.36618" lon="17.65119">
        <ele>86.9</ele>
      </trkpt>
      <trkpt lat="40.36604" lon="17.65125">
        <ele>87.1</ele>
      </trkpt>
      <trkpt lat="40.36582" lon="17.65135">
        <ele>87.4</ele>
      </trkpt>
      <trkpt lat="40.36567" lon="17.65142">
        <ele>87.5</ele>
      </trkpt>
      <trkpt lat="40.3655" lon="17.65148">
        <ele>87.6</ele>
      </trkpt>
      <trkpt lat="40.36538" lon="17.6515">
        <ele>87.7</ele>
      </trkpt>
      <trkpt lat="40.36535" lon="17.651509">
        <ele>87.8</ele>
      </trkpt>
      <trkpt lat="40.36526" lon="17.65152">
        <ele>87.9</ele>
      </trkpt>
      <trkpt lat="40.36516" lon="17.65154">
        <ele>88.0</ele>
      </trkpt>
      <trkpt lat="40.36474" lon="17.65159">
        <ele>87.8</ele>
      </trkpt>
      <trkpt lat="40.36436" lon="17.65159">
        <ele>87.3</ele>
      </trkpt>
      <trkpt lat="40.36397" lon="17.65158">
        <ele>87.3</ele>
      </trkpt>
      <trkpt lat="40.36366" lon="17.65158">
        <ele>87.7</ele>
      </trkpt>
      <trkpt lat="40.36358" lon="17.65159">
        <ele>87.8</ele>
      </trkpt>
      <trkpt lat="40.36346" lon="17.651599">
        <ele>87.9</ele>
      </trkpt>
      <trkpt lat="40.36346" lon="17.651599">
        <ele>87.9</ele>
      </trkpt>
      <trkpt lat="40.36346" lon="17.65175">
        <ele>87.8</ele>
      </trkpt>
      <trkpt lat="40.36346" lon="17.65187">
        <ele>87.8</ele>
      </trkpt>
      <trkpt lat="40.36345" lon="17.652069">
        <ele>87.9</ele>
      </trkpt>
      <trkpt lat="40.36345" lon="17.65219">
        <ele>87.9</ele>
      </trkpt>
      <trkpt lat="40.36345" lon="17.65225">
        <ele>87.9</ele>
      </trkpt>
      <trkpt lat="40.36344" lon="17.6523">
        <ele>87.9</ele>
      </trkpt>
      <trkpt lat="40.36344" lon="17.65232">
        <ele>87.9</ele>
      </trkpt>
      <trkpt lat="40.36344" lon="17.65233">
        <ele>87.9</ele>
      </trkpt>
      <trkpt lat="40.36342" lon="17.65237">
        <ele>87.9</ele>
      </trkpt>
      <trkpt lat="40.36341" lon="17.65241">
        <ele>87.9</ele>
      </trkpt>
      <trkpt lat="40.36339" lon="17.65246">
        <ele>87.9</ele>
      </trkpt>
      <trkpt lat="40.36337" lon="17.6525">
        <ele>88.0</ele>
      </trkpt>
      <trkpt lat="40.36319" lon="17.65275">
        <ele>88.0</ele>
      </trkpt>
      <trkpt lat="40.36312" lon="17.65284">
        <ele>88.0</ele>
      </trkpt>
      <trkpt lat="40.36303" lon="17.65297">
        <ele>88.0</ele>
      </trkpt>
      <trkpt lat="40.3629" lon="17.65317">
        <ele>87.8</ele>
      </trkpt>
      <trkpt lat="40.36269" lon="17.653479">
        <ele>87.6</ele>
      </trkpt>
      <trkpt lat="40.36263" lon="17.65356">
        <ele>87.5</ele>
      </trkpt>
      <trkpt lat="40.36234" lon="17.65397">
        <ele>87.5</ele>
      </trkpt>
      <trkpt lat="40.36199" lon="17.65448">
        <ele>87.2</ele>
      </trkpt>
      <trkpt lat="40.36177" lon="17.6548">
        <ele>87.1</ele>
      </trkpt>
      <trkpt lat="40.3616" lon="17.65504">
        <ele>87.3</ele>
      </trkpt>
      <trkpt lat="40.36131" lon="17.65546">
        <ele>88.4</ele>
      </trkpt>
      <trkpt lat="40.361109" lon="17.655729">
        <ele>88.7</ele>
      </trkpt>
      <trkpt lat="40.36057" lon="17.65652">
        <ele>88.5</ele>
      </trkpt>
      <trkpt lat="40.36046" lon="17.65668">
        <ele>88.4</ele>
      </trkpt>
      <trkpt lat="40.36011" lon="17.65718">
        <ele>87.2</ele>
      </trkpt>
      <trkpt lat="40.35973" lon="17.65773">
        <ele>86.2</ele>
      </trkpt>
      <trkpt lat="40.35964" lon="17.65786">
        <ele>86.2</ele>
      </trkpt>
      <trkpt lat="40.35958" lon="17.65795">
        <ele>86.2</ele>
      </trkpt>
      <trkpt lat="40.35953" lon="17.65804">
        <ele>86.2</ele>
      </trkpt>
      <trkpt lat="40.35952" lon="17.65807">
        <ele>86.2</ele>
      </trkpt>
      <trkpt lat="40.35951" lon="17.65809">
        <ele>86.2</ele>
      </trkpt>
      <trkpt lat="40.3595" lon="17.65814">
        <ele>86.1</ele>
      </trkpt>
      <trkpt lat="40.3595" lon="17.65819">
        <ele>86.0</ele>
      </trkpt>
      <trkpt lat="40.3595" lon="17.65829">
        <ele>85.9</ele>
      </trkpt>
      <trkpt lat="40.3595" lon="17.65831">
        <ele>85.8</ele>
      </trkpt>
      <trkpt lat="40.35956" lon="17.6589">
        <ele>85.9</ele>
      </trkpt>
      <trkpt lat="40.35966" lon="17.65965">
        <ele>85.8</ele>
      </trkpt>
      <trkpt lat="40.35978" lon="17.66054">
        <ele>86.0</ele>
      </trkpt>
      <trkpt lat="40.35992" lon="17.661639">
        <ele>85.1</ele>
      </trkpt>
      <trkpt lat="40.36001" lon="17.66236">
        <ele>85.0</ele>
      </trkpt>
      <trkpt lat="40.3601" lon="17.66308">
        <ele>86.1</ele>
      </trkpt>
      <trkpt lat="40.36019" lon="17.66373">
        <ele>86.4</ele>
      </trkpt>
      <trkpt lat="40.36023" lon="17.66406">
        <ele>86.4</ele>
      </trkpt>
      <trkpt lat="40.36036" lon="17.66509">
        <ele>86.2</ele>
      </trkpt>
      <trkpt lat="40.36053" lon="17.66639">
        <ele>88.5</ele>
      </trkpt>
      <trkpt lat="40.36062" lon="17.66708">
        <ele>88.2</ele>
      </trkpt>
      <trkpt lat="40.36066" lon="17.66743">
        <ele>87.9</ele>
      </trkpt>
      <trkpt lat="40.36072" lon="17.66786">
        <ele>87.9</ele>
      </trkpt>
      <trkpt lat="40.36079" lon="17.66843">
        <ele>88.2</ele>
      </trkpt>
      <trkpt lat="40.3609" lon="17.66926">
        <ele>89.6</ele>
      </trkpt>
      <trkpt lat="40.36095" lon="17.66972">
        <ele>89.1</ele>
      </trkpt>
      <trkpt lat="40.36096" lon="17.669809">
        <ele>89.0</ele>
      </trkpt>
      <trkpt lat="40.36098" lon="17.66995">
        <ele>88.9</ele>
      </trkpt>
      <trkpt lat="40.361" lon="17.670089">
        <ele>88.9</ele>
      </trkpt>
      <trkpt lat="40.36104" lon="17.67042">
        <ele>89.1</ele>
      </trkpt>
      <trkpt lat="40.36104" lon="17.67043">
        <ele>89.1</ele>
      </trkpt>
      <trkpt lat="40.36105" lon="17.67057">
        <ele>89.2</ele>
      </trkpt>
      <trkpt lat="40.36104" lon="17.670649">
        <ele>89.3</ele>
      </trkpt>
      <trkpt lat="40.36104" lon="17.67074">
        <ele>89.4</ele>
      </trkpt>
      <trkpt lat="40.36103" lon="17.67094">
        <ele>89.6</ele>
      </trkpt>
      <trkpt lat="40.36101" lon="17.6716">
        <ele>89.8</ele>
      </trkpt>
      <trkpt lat="40.361" lon="17.67183">
        <ele>89.9</ele>
      </trkpt>
      <trkpt lat="40.36098" lon="17.67259">
        <ele>90.3</ele>
      </trkpt>
      <trkpt lat="40.36097" lon="17.67278">
        <ele>90.0</ele>
      </trkpt>
      <trkpt lat="40.3609" lon="17.67466">
        <ele>89.6</ele>
      </trkpt>
      <trkpt lat="40.36085" lon="17.67584">
        <ele>91.0</ele>
      </trkpt>
      <trkpt lat="40.36083" lon="17.6764">
        <ele>91.0</ele>
      </trkpt>
      <trkpt lat="40.3608" lon="17.6777">
        <ele>89.0</ele>
      </trkpt>
      <trkpt lat="40.3608" lon="17.67793">
        <ele>89.0</ele>
      </trkpt>
      <trkpt lat="40.36078" lon="17.67859">
        <ele>88.8</ele>
      </trkpt>
      <trkpt lat="40.36076" lon="17.67935">
        <ele>88.5</ele>
      </trkpt>
      <trkpt lat="40.360729" lon="17.68029">
        <ele>88.9</ele>
      </trkpt>
      <trkpt lat="40.360639" lon="17.68319">
        <ele>86.9</ele>
      </trkpt>
      <trkpt lat="40.36062" lon="17.68383">
        <ele>85.7</ele>
      </trkpt>
      <trkpt lat="40.36058" lon="17.68486">
        <ele>84.7</ele>
      </trkpt>
      <trkpt lat="40.36056" lon="17.68572">
        <ele>84.7</ele>
      </trkpt>
      <trkpt lat="40.36055" lon="17.68587">
        <ele>84.6</ele>
      </trkpt>
      <trkpt lat="40.36046" lon="17.68855">
        <ele>82.2</ele>
      </trkpt>
      <trkpt lat="40.36045" lon="17.6889">
        <ele>81.5</ele>
      </trkpt>
      <trkpt lat="40.360439" lon="17.68943">
        <ele>81.5</ele>
      </trkpt>
      <trkpt lat="40.360439" lon="17.68949">
        <ele>81.6</ele>
      </trkpt>
      <trkpt lat="40.36043" lon="17.68997">
        <ele>82.5</ele>
      </trkpt>
      <trkpt lat="40.36042" lon="17.6902">
        <ele>82.4</ele>
      </trkpt>
      <trkpt lat="40.36041" lon="17.69055">
        <ele>82.2</ele>
      </trkpt>
      <trkpt lat="40.3604" lon="17.69067">
        <ele>82.1</ele>
      </trkpt>
      <trkpt lat="40.3604" lon="17.69073">
        <ele>82.0</ele>
      </trkpt>
      <trkpt lat="40.36037" lon="17.69081">
        <ele>81.9</ele>
      </trkpt>
      <trkpt lat="40.36032" lon="17.69088">
        <ele>81.9</ele>
      </trkpt>
      <trkpt lat="40.36025" lon="17.69093">
        <ele>81.8</ele>
      </trkpt>
      <trkpt lat="40.360169" lon="17.69097">
        <ele>81.7</ele>
      </trkpt>
      <trkpt lat="40.36006" lon="17.69101">
        <ele>81.4</ele>
      </trkpt>
      <trkpt lat="40.36002" lon="17.69104">
        <ele>81.3</ele>
      </trkpt>
      <trkpt lat="40.36001" lon="17.69107">
        <ele>81.3</ele>
      </trkpt>
      <trkpt lat="40.35999" lon="17.691109">
        <ele>81.3</ele>
      </trkpt>
      <trkpt lat="40.35998" lon="17.69117">
        <ele>81.4</ele>
      </trkpt>
      <trkpt lat="40.35998" lon="17.69133">
        <ele>81.5</ele>
      </trkpt>
      <trkpt lat="40.359969" lon="17.69157">
        <ele>81.8</ele>
      </trkpt>
      <trkpt lat="40.35995" lon="17.69163">
        <ele>81.8</ele>
      </trkpt>
      <trkpt lat="40.35992" lon="17.69176">
        <ele>81.6</ele>
      </trkpt>
      <trkpt lat="40.35991" lon="17.69182">
        <ele>81.5</ele>
      </trkpt>
      <trkpt lat="40.3599" lon="17.69191">
        <ele>81.3</ele>
      </trkpt>
      <trkpt lat="40.35991" lon="17.69197">
        <ele>81.3</ele>
      </trkpt>
      <trkpt lat="40.35991" lon="17.692">
        <ele>81.2</ele>
      </trkpt>
      <trkpt lat="40.35991" lon="17.69203">
        <ele>81.2</ele>
      </trkpt>
      <trkpt lat="40.35992" lon="17.692049">
        <ele>81.2</ele>
      </trkpt>
      <trkpt lat="40.35993" lon="17.69206">
        <ele>81.2</ele>
      </trkpt>
      <trkpt lat="40.35994" lon="17.69207">
        <ele>81.3</ele>
      </trkpt>
      <trkpt lat="40.35994" lon="17.69208">
        <ele>81.3</ele>
      </trkpt>
      <trkpt lat="40.35999" lon="17.69211">
        <ele>81.4</ele>
      </trkpt>
      <trkpt lat="40.36021" lon="17.692139">
        <ele>82.3</ele>
      </trkpt>
      <trkpt lat="40.360259" lon="17.69216">
        <ele>82.4</ele>
      </trkpt>
      <trkpt lat="40.3603" lon="17.69219">
        <ele>82.5</ele>
      </trkpt>
      <trkpt lat="40.36032" lon="17.69222">
        <ele>82.5</ele>
      </trkpt>
      <trkpt lat="40.36033" lon="17.69225">
        <ele>82.4</ele>
      </trkpt>
      <trkpt lat="40.36033" lon="17.69228">
        <ele>82.4</ele>
      </trkpt>
      <trkpt lat="40.36033" lon="17.69229">
        <ele>82.3</ele>
      </trkpt>
      <trkpt lat="40.36033" lon="17.69236">
        <ele>82.2</ele>
      </trkpt>
      <trkpt lat="40.36033" lon="17.69271">
        <ele>80.9</ele>
      </trkpt>
      <trkpt lat="40.36032" lon="17.69283">
        <ele>80.4</ele>
      </trkpt>
      <trkpt lat="40.36031" lon="17.69331">
        <ele>78.5</ele>
      </trkpt>
      <trkpt lat="40.36028" lon="17.69416">
        <ele>76.7</ele>
      </trkpt>
      <trkpt lat="40.360259" lon="17.69485">
        <ele>77.2</ele>
      </trkpt>
      <trkpt lat="40.36024" lon="17.69542">
        <ele>76.3</ele>
      </trkpt>
      <trkpt lat="40.36021" lon="17.6963">
        <ele>75.1</ele>
      </trkpt>
      <trkpt lat="40.360169" lon="17.69746">
        <ele>74.0</ele>
      </trkpt>
      <trkpt lat="40.36015" lon="17.69816">
        <ele>73.1</ele>
      </trkpt>
      <trkpt lat="40.3601" lon="17.69977">
        <ele>71.2</ele>
      </trkpt>
      <trkpt lat="40.36009" lon="17.70006">
        <ele>70.9</ele>
      </trkpt>
      <trkpt lat="40.36009" lon="17.70009">
        <ele>70.9</ele>
      </trkpt>
      <trkpt lat="40.36007" lon="17.70033">
        <ele>70.6</ele>
      </trkpt>
      <trkpt lat="40.36005" lon="17.7008">
        <ele>70.1</ele>
      </trkpt>
      <trkpt lat="40.35992" lon="17.70386">
        <ele>69.6</ele>
      </trkpt>
      <trkpt lat="40.35992" lon="17.7039">
        <ele>69.7</ele>
      </trkpt>
      <trkpt lat="40.35989" lon="17.70446">
        <ele>69.6</ele>
      </trkpt>
      <trkpt lat="40.35981" lon="17.70708">
        <ele>66.8</ele>
      </trkpt>
      <trkpt lat="40.35981" lon="17.707249">
        <ele>66.5</ele>
      </trkpt>
      <trkpt lat="40.35982" lon="17.70732">
        <ele>66.3</ele>
      </trkpt>
      <trkpt lat="40.35982" lon="17.70739">
        <ele>66.2</ele>
      </trkpt>
      <trkpt lat="40.35982" lon="17.70739">
        <ele>66.2</ele>
      </trkpt>
      <trkpt lat="40.35974" lon="17.70765">
        <ele>65.9</ele>
      </trkpt>
      <trkpt lat="40.35974" lon="17.70765">
        <ele>65.9</ele>
      </trkpt>
      <trkpt lat="40.35977" lon="17.70796">
        <ele>65.8</ele>
      </trkpt>
      <trkpt lat="40.3598" lon="17.70822">
        <ele>65.8</ele>
      </trkpt>
      <trkpt lat="40.35992" lon="17.70929">
        <ele>64.5</ele>
      </trkpt>
      <trkpt lat="40.36" lon="17.71">
        <ele>63.0</ele>
      </trkpt>
      <trkpt lat="40.36019" lon="17.71163">
        <ele>64.2</ele>
      </trkpt>
      <trkpt lat="40.36022" lon="17.7119">
        <ele>64.0</ele>
      </trkpt>
      <trkpt lat="40.36031" lon="17.71276">
        <ele>63.6</ele>
      </trkpt>
      <trkpt lat="40.36042" lon="17.71394">
        <ele>65.1</ele>
      </trkpt>
      <trkpt lat="40.36054" lon="17.71512">
        <ele>64.6</ele>
      </trkpt>
      <trkpt lat="40.36065" lon="17.71618">
        <ele>65.1</ele>
      </trkpt>
      <trkpt lat="40.36074" lon="17.71708">
        <ele>65.8</ele>
      </trkpt>
      <trkpt lat="40.36081" lon="17.71778">
        <ele>65.3</ele>
      </trkpt>
      <trkpt lat="40.36093" lon="17.71895">
        <ele>63.3</ele>
      </trkpt>
      <trkpt lat="40.361" lon="17.71966">
        <ele>63.6</ele>
      </trkpt>
      <trkpt lat="40.36104" lon="17.72009">
        <ele>63.8</ele>
      </trkpt>
      <trkpt lat="40.36105" lon="17.72012">
        <ele>63.8</ele>
      </trkpt>
      <trkpt lat="40.36119" lon="17.72151">
        <ele>62.0</ele>
      </trkpt>
      <trkpt lat="40.36123" lon="17.72191">
        <ele>61.8</ele>
      </trkpt>
      <trkpt lat="40.36128" lon="17.72251">
        <ele>61.6</ele>
      </trkpt>
      <trkpt lat="40.36143" lon="17.724139">
        <ele>60.7</ele>
      </trkpt>
      <trkpt lat="40.36143" lon="17.72415">
        <ele>60.7</ele>
      </trkpt>
      <trkpt lat="40.36175" lon="17.7272">
        <ele>59.4</ele>
      </trkpt>
      <trkpt lat="40.36175" lon="17.7272">
        <ele>59.4</ele>
      </trkpt>
      <trkpt lat="40.36192" lon="17.72719">
        <ele>59.4</ele>
      </trkpt>
      <trkpt lat="40.36192" lon="17.72719">
        <ele>59.4</ele>
      </trkpt>
      <trkpt lat="40.36188" lon="17.72727">
        <ele>59.3</ele>
      </trkpt>
      <trkpt lat="40.36187" lon="17.72729">
        <ele>59.3</ele>
      </trkpt>
      <trkpt lat="40.36186" lon="17.72732">
        <ele>59.2</ele>
      </trkpt>
      <trkpt lat="40.361849" lon="17.72735">
        <ele>59.2</ele>
      </trkpt>
      <trkpt lat="40.36184" lon="17.72738">
        <ele>59.1</ele>
      </trkpt>
      <trkpt lat="40.36184" lon="17.72745">
        <ele>59.1</ele>
      </trkpt>
      <trkpt lat="40.36184" lon="17.72754">
        <ele>59.0</ele>
      </trkpt>
      <trkpt lat="40.36186" lon="17.72784">
        <ele>59.0</ele>
      </trkpt>
      <trkpt lat="40.36187" lon="17.72813">
        <ele>59.0</ele>
      </trkpt>
      <trkpt lat="40.36187" lon="17.72839">
        <ele>59.1</ele>
      </trkpt>
      <trkpt lat="40.36189" lon="17.72867">
        <ele>59.4</ele>
      </trkpt>
      <trkpt lat="40.36192" lon="17.729">
        <ele>59.8</ele>
      </trkpt>
      <trkpt lat="40.36195" lon="17.72925">
        <ele>60.1</ele>
      </trkpt>
      <trkpt lat="40.36196" lon="17.72934">
        <ele>60.1</ele>
      </trkpt>
      <trkpt lat="40.36198" lon="17.72943">
        <ele>60.2</ele>
      </trkpt>
      <trkpt lat="40.362" lon="17.72951">
        <ele>60.2</ele>
      </trkpt>
      <trkpt lat="40.36201" lon="17.72954">
        <ele>60.3</ele>
      </trkpt>
      <trkpt lat="40.36209" lon="17.729769">
        <ele>60.4</ele>
      </trkpt>
      <trkpt lat="40.36215" lon="17.72994">
        <ele>60.4</ele>
      </trkpt>
      <trkpt lat="40.36233" lon="17.73048">
        <ele>60.9</ele>
      </trkpt>
      <trkpt lat="40.36237" lon="17.73057">
        <ele>60.9</ele>
      </trkpt>
      <trkpt lat="40.36255" lon="17.731089">
        <ele>61.9</ele>
      </trkpt>
      <trkpt lat="40.36256" lon="17.73114">
        <ele>62.1</ele>
      </trkpt>
      <trkpt lat="40.36256" lon="17.73117">
        <ele>62.2</ele>
      </trkpt>
      <trkpt lat="40.36256" lon="17.731179">
        <ele>62.3</ele>
      </trkpt>
      <trkpt lat="40.36256" lon="17.7312">
        <ele>62.3</ele>
      </trkpt>
      <trkpt lat="40.36256" lon="17.73123">
        <ele>62.4</ele>
      </trkpt>
      <trkpt lat="40.36255" lon="17.73126">
        <ele>62.5</ele>
      </trkpt>
      <trkpt lat="40.36253" lon="17.7313">
        <ele>62.7</ele>
      </trkpt>
      <trkpt lat="40.36249" lon="17.73143">
        <ele>63.2</ele>
      </trkpt>
      <trkpt lat="40.36237" lon="17.73171">
        <ele>64.0</ele>
      </trkpt>
      <trkpt lat="40.36226" lon="17.73203">
        <ele>63.7</ele>
      </trkpt>
      <trkpt lat="40.36215" lon="17.73234">
        <ele>63.3</ele>
      </trkpt>
      <trkpt lat="40.36198" lon="17.7328">
        <ele>62.1</ele>
      </trkpt>
      <trkpt lat="40.36188" lon="17.73308">
        <ele>61.5</ele>
      </trkpt>
      <trkpt lat="40.36168" lon="17.73365">
        <ele>61.0</ele>
      </trkpt>
      <trkpt lat="40.36161" lon="17.73384">
        <ele>61.1</ele>
      </trkpt>
      <trkpt lat="40.36128" lon="17.73482">
        <ele>61.2</ele>
      </trkpt>
      <trkpt lat="40.36103" lon="17.73555">
        <ele>59.8</ele>
      </trkpt>
      <trkpt lat="40.36092" lon="17.735869">
        <ele>59.1</ele>
      </trkpt>
      <trkpt lat="40.36071" lon="17.73648">
        <ele>59.8</ele>
      </trkpt>
      <trkpt lat="40.36041" lon="17.7373">
        <ele>60.8</ele>
      </trkpt>
      <trkpt lat="40.36032" lon="17.73759">
        <ele>60.9</ele>
      </trkpt>
      <trkpt lat="40.36013" lon="17.73813">
        <ele>60.4</ele>
      </trkpt>
      <trkpt lat="40.35964" lon="17.73952">
        <ele>59.2</ele>
      </trkpt>
      <trkpt lat="40.359229" lon="17.74072">
        <ele>59.0</ele>
      </trkpt>
      <trkpt lat="40.35911" lon="17.74106">
        <ele>59.3</ele>
      </trkpt>
      <trkpt lat="40.35883" lon="17.74183">
        <ele>60.2</ele>
      </trkpt>
      <trkpt lat="40.358669" lon="17.74231">
        <ele>59.8</ele>
      </trkpt>
      <trkpt lat="40.3586" lon="17.74253">
        <ele>59.7</ele>
      </trkpt>
      <trkpt lat="40.35845" lon="17.74296">
        <ele>59.9</ele>
      </trkpt>
      <trkpt lat="40.35837" lon="17.743189">
        <ele>60.0</ele>
      </trkpt>
      <trkpt lat="40.35803" lon="17.74417">
        <ele>59.3</ele>
      </trkpt>
      <trkpt lat="40.35797" lon="17.74433">
        <ele>59.1</ele>
      </trkpt>
      <trkpt lat="40.35792" lon="17.74443">
        <ele>59.0</ele>
      </trkpt>
      <trkpt lat="40.35792" lon="17.74443">
        <ele>59.0</ele>
      </trkpt>
      <trkpt lat="40.35737" lon="17.74453">
        <ele>58.6</ele>
      </trkpt>
      <trkpt lat="40.35696" lon="17.744599">
        <ele>59.1</ele>
      </trkpt>
      <trkpt lat="40.35618" lon="17.74483">
        <ele>59.5</ele>
      </trkpt>
      <trkpt lat="40.35602" lon="17.74486">
        <ele>59.7</ele>
      </trkpt>
      <trkpt lat="40.35501" lon="17.74508">
        <ele>60.0</ele>
      </trkpt>
      <trkpt lat="40.35501" lon="17.74508">
        <ele>60.0</ele>
      </trkpt>
      <trkpt lat="40.3552" lon="17.74575">
        <ele>59.8</ele>
      </trkpt>
      <trkpt lat="40.35537" lon="17.74646">
        <ele>58.7</ele>
      </trkpt>
      <trkpt lat="40.35622" lon="17.749669">
        <ele>59.9</ele>
      </trkpt>
      <trkpt lat="40.35622" lon="17.749669">
        <ele>59.9</ele>
      </trkpt>
      <trkpt lat="40.35516" lon="17.75021">
        <ele>60.4</ele>
      </trkpt>
      <trkpt lat="40.35513" lon="17.75022">
        <ele>60.4</ele>
      </trkpt>
      <trkpt lat="40.35513" lon="17.75022">
        <ele>60.4</ele>
      </trkpt>
      <trkpt lat="40.35539" lon="17.75135">
        <ele>63.1</ele>
      </trkpt>
      <trkpt lat="40.35554" lon="17.75205">
        <ele>65.7</ele>
      </trkpt>
      <trkpt lat="40.35554" lon="17.75205">
        <ele>65.7</ele>
      </trkpt>
      <trkpt lat="40.35544" lon="17.75235">
        <ele>66.2</ele>
      </trkpt>
      <trkpt lat="40.35507" lon="17.75356">
        <ele>66.2</ele>
      </trkpt>
      <trkpt lat="40.35481" lon="17.75442">
        <ele>66.4</ele>
      </trkpt>
      <trkpt lat="40.35442" lon="17.75574">
        <ele>66.8</ele>
      </trkpt>
      <trkpt lat="40.353969" lon="17.7572">
        <ele>67.9</ele>
      </trkpt>
      <trkpt lat="40.35394" lon="17.75728">
        <ele>67.9</ele>
      </trkpt>
      <trkpt lat="40.35342" lon="17.75899">
        <ele>69.2</ele>
      </trkpt>
      <trkpt lat="40.35316" lon="17.75983">
        <ele>70.1</ele>
      </trkpt>
      <trkpt lat="40.35293" lon="17.76063">
        <ele>70.7</ele>
      </trkpt>
      <trkpt lat="40.35273" lon="17.76122">
        <ele>69.9</ele>
      </trkpt>
      <trkpt lat="40.35264" lon="17.76155">
        <ele>68.9</ele>
      </trkpt>
      <trkpt lat="40.35263" lon="17.76159">
        <ele>68.8</ele>
      </trkpt>
      <trkpt lat="40.35262" lon="17.76166">
        <ele>68.6</ele>
      </trkpt>
      <trkpt lat="40.35258" lon="17.76201">
        <ele>68.7</ele>
      </trkpt>
      <trkpt lat="40.35246" lon="17.76323">
        <ele>70.6</ele>
      </trkpt>
      <trkpt lat="40.35243" lon="17.763559">
        <ele>70.2</ele>
      </trkpt>
      <trkpt lat="40.35241" lon="17.7637">
        <ele>69.8</ele>
      </trkpt>
      <trkpt lat="40.35233" lon="17.7646">
        <ele>68.0</ele>
      </trkpt>
      <trkpt lat="40.3523" lon="17.764869">
        <ele>67.5</ele>
      </trkpt>
      <trkpt lat="40.35221" lon="17.7658">
        <ele>66.1</ele>
      </trkpt>
      <trkpt lat="40.35207" lon="17.76726">
        <ele>64.7</ele>
      </trkpt>
      <trkpt lat="40.3519" lon="17.76887">
        <ele>64.1</ele>
      </trkpt>
      <trkpt lat="40.35185" lon="17.76939">
        <ele>63.7</ele>
      </trkpt>
      <trkpt lat="40.35171" lon="17.77068">
        <ele>62.3</ele>
      </trkpt>
      <trkpt lat="40.3516" lon="17.77185">
        <ele>61.9</ele>
      </trkpt>
      <trkpt lat="40.3515" lon="17.7728">
        <ele>62.0</ele>
      </trkpt>
      <trkpt lat="40.35145" lon="17.77326">
        <ele>62.2</ele>
      </trkpt>
      <trkpt lat="40.3514" lon="17.77383">
        <ele>61.4</ele>
      </trkpt>
      <trkpt lat="40.35126" lon="17.77524">
        <ele>59.2</ele>
      </trkpt>
      <trkpt lat="40.35124" lon="17.77548">
        <ele>58.9</ele>
      </trkpt>
      <trkpt lat="40.35122" lon="17.77568">
        <ele>58.6</ele>
      </trkpt>
      <trkpt lat="40.35101" lon="17.777819">
        <ele>57.4</ele>
      </trkpt>
      <trkpt lat="40.35094" lon="17.77852">
        <ele>57.3</ele>
      </trkpt>
      <trkpt lat="40.35089" lon="17.77902">
        <ele>57.1</ele>
      </trkpt>
      <trkpt lat="40.35075" lon="17.78034">
        <ele>57.0</ele>
      </trkpt>
      <trkpt lat="40.35057" lon="17.782139">
        <ele>55.4</ele>
      </trkpt>
      <trkpt lat="40.35056" lon="17.78226">
        <ele>55.2</ele>
      </trkpt>
      <trkpt lat="40.35053" lon="17.78269">
        <ele>54.6</ele>
      </trkpt>
      <trkpt lat="40.35042" lon="17.78371">
        <ele>54.5</ele>
      </trkpt>
      <trkpt lat="40.35028" lon="17.78517">
        <ele>53.6</ele>
      </trkpt>
      <trkpt lat="40.35022" lon="17.78577">
        <ele>54.4</ele>
      </trkpt>
      <trkpt lat="40.3501" lon="17.787">
        <ele>54.4</ele>
      </trkpt>
      <trkpt lat="40.34998" lon="17.78811">
        <ele>55.4</ele>
      </trkpt>
      <trkpt lat="40.34991" lon="17.788799">
        <ele>56.8</ele>
      </trkpt>
      <trkpt lat="40.3499" lon="17.7889">
        <ele>57.0</ele>
      </trkpt>
      <trkpt lat="40.34977" lon="17.79023">
        <ele>56.7</ele>
      </trkpt>
      <trkpt lat="40.34964" lon="17.79156">
        <ele>55.8</ele>
      </trkpt>
      <trkpt lat="40.34941" lon="17.79383">
        <ele>55.8</ele>
      </trkpt>
      <trkpt lat="40.34922" lon="17.79578">
        <ele>55.9</ele>
      </trkpt>
      <trkpt lat="40.3492" lon="17.795929">
        <ele>55.9</ele>
      </trkpt>
      <trkpt lat="40.34901" lon="17.79783">
        <ele>53.9</ele>
      </trkpt>
      <trkpt lat="40.34895" lon="17.79842">
        <ele>53.9</ele>
      </trkpt>
      <trkpt lat="40.34883" lon="17.79957">
        <ele>56.2</ele>
      </trkpt>
      <trkpt lat="40.34883" lon="17.799589">
        <ele>56.2</ele>
      </trkpt>
      <trkpt lat="40.34873" lon="17.800529">
        <ele>57.5</ele>
      </trkpt>
      <trkpt lat="40.34847" lon="17.8031">
        <ele>57.0</ele>
      </trkpt>
      <trkpt lat="40.34846" lon="17.803159">
        <ele>57.1</ele>
      </trkpt>
      <trkpt lat="40.34842" lon="17.80357">
        <ele>57.8</ele>
      </trkpt>
      <trkpt lat="40.34832" lon="17.80461">
        <ele>60.0</ele>
      </trkpt>
      <trkpt lat="40.34831" lon="17.80474">
        <ele>60.3</ele>
      </trkpt>
      <trkpt lat="40.34823" lon="17.80545">
        <ele>60.7</ele>
      </trkpt>
      <trkpt lat="40.34811" lon="17.80661">
        <ele>62.1</ele>
      </trkpt>
      <trkpt lat="40.34805" lon="17.80719">
        <ele>62.0</ele>
      </trkpt>
      <trkpt lat="40.34803" lon="17.80735">
        <ele>62.0</ele>
      </trkpt>
      <trkpt lat="40.34751" lon="17.81243">
        <ele>65.9</ele>
      </trkpt>
      <trkpt lat="40.34705" lon="17.81743">
        <ele>74.3</ele>
      </trkpt>
      <trkpt lat="40.34687" lon="17.81979">
        <ele>77.4</ele>
      </trkpt>
      <trkpt lat="40.3469" lon="17.81979">
        <ele>77.5</ele>
      </trkpt>
      <trkpt lat="40.34688" lon="17.82011">
        <ele>77.9</ele>
      </trkpt>
      <trkpt lat="40.34672" lon="17.82204">
        <ele>77.6</ele>
      </trkpt>
      <trkpt lat="40.346649" lon="17.82298">
        <ele>78.5</ele>
      </trkpt>
      <trkpt lat="40.34661" lon="17.82344">
        <ele>78.7</ele>
      </trkpt>
      <trkpt lat="40.34652" lon="17.82462">
        <ele>77.0</ele>
      </trkpt>
      <trkpt lat="40.34648" lon="17.82509">
        <ele>76.9</ele>
      </trkpt>
      <trkpt lat="40.3464" lon="17.8261">
        <ele>80.1</ele>
      </trkpt>
      <trkpt lat="40.34639" lon="17.82626">
        <ele>80.5</ele>
      </trkpt>
      <trkpt lat="40.34635" lon="17.826809">
        <ele>81.6</ele>
      </trkpt>
      <trkpt lat="40.34633" lon="17.82705">
        <ele>81.7</ele>
      </trkpt>
      <trkpt lat="40.34632" lon="17.8273">
        <ele>81.8</ele>
      </trkpt>
      <trkpt lat="40.34629" lon="17.82771">
        <ele>82.2</ele>
      </trkpt>
      <trkpt lat="40.3463" lon="17.82804">
        <ele>83.0</ele>
      </trkpt>
      <trkpt lat="40.34632" lon="17.82828">
        <ele>83.6</ele>
      </trkpt>
      <trkpt lat="40.34632" lon="17.82833">
        <ele>83.7</ele>
      </trkpt>
      <trkpt lat="40.34634" lon="17.82843">
        <ele>83.6</ele>
      </trkpt>
      <trkpt lat="40.34635" lon="17.82847">
        <ele>83.5</ele>
      </trkpt>
      <trkpt lat="40.34631" lon="17.82893">
        <ele>82.2</ele>
      </trkpt>
      <trkpt lat="40.34628" lon="17.82922">
        <ele>81.2</ele>
      </trkpt>
      <trkpt lat="40.34626" lon="17.82948">
        <ele>79.4</ele>
      </trkpt>
      <trkpt lat="40.34626" lon="17.8296">
        <ele>78.6</ele>
      </trkpt>
      <trkpt lat="40.34625" lon="17.82964">
        <ele>78.4</ele>
      </trkpt>
      <trkpt lat="40.34624" lon="17.82968">
        <ele>78.1</ele>
      </trkpt>
      <trkpt lat="40.34622" lon="17.82971">
        <ele>77.9</ele>
      </trkpt>
      <trkpt lat="40.34619" lon="17.82977">
        <ele>77.5</ele>
      </trkpt>
      <trkpt lat="40.34614" lon="17.82985">
        <ele>77.0</ele>
      </trkpt>
      <trkpt lat="40.34611" lon="17.82991">
        <ele>76.6</ele>
      </trkpt>
      <trkpt lat="40.34608" lon="17.82996">
        <ele>76.3</ele>
      </trkpt>
      <trkpt lat="40.34606" lon="17.83002">
        <ele>75.9</ele>
      </trkpt>
      <trkpt lat="40.34606" lon="17.83006">
        <ele>75.8</ele>
      </trkpt>
      <trkpt lat="40.34605" lon="17.8301">
        <ele>75.6</ele>
      </trkpt>
      <trkpt lat="40.34604" lon="17.83027">
        <ele>74.9</ele>
      </trkpt>
      <trkpt lat="40.34603" lon="17.83034">
        <ele>74.7</ele>
      </trkpt>
      <trkpt lat="40.345999" lon="17.83074">
        <ele>73.2</ele>
      </trkpt>
      <trkpt lat="40.34593" lon="17.83158">
        <ele>71.3</ele>
      </trkpt>
      <trkpt lat="40.34593" lon="17.83162">
        <ele>71.2</ele>
      </trkpt>
      <trkpt lat="40.345799" lon="17.832909">
        <ele>72.0</ele>
      </trkpt>
      <trkpt lat="40.3457" lon="17.83392">
        <ele>72.0</ele>
      </trkpt>
      <trkpt lat="40.345619" lon="17.834599">
        <ele>71.6</ele>
      </trkpt>
      <trkpt lat="40.34554" lon="17.83526">
        <ele>71.8</ele>
      </trkpt>
      <trkpt lat="40.34545" lon="17.83624">
        <ele>71.8</ele>
      </trkpt>
      <trkpt lat="40.34534" lon="17.837409">
        <ele>70.1</ele>
      </trkpt>
      <trkpt lat="40.34532" lon="17.83764">
        <ele>69.8</ele>
      </trkpt>
      <trkpt lat="40.34527" lon="17.83824">
        <ele>68.8</ele>
      </trkpt>
      <trkpt lat="40.34522" lon="17.83881">
        <ele>68.5</ele>
      </trkpt>
      <trkpt lat="40.34521" lon="17.83883">
        <ele>68.5</ele>
      </trkpt>
      <trkpt lat="40.3452" lon="17.83906">
        <ele>68.3</ele>
      </trkpt>
      <trkpt lat="40.34521" lon="17.83928">
        <ele>68.1</ele>
      </trkpt>
      <trkpt lat="40.345239" lon="17.83975">
        <ele>67.6</ele>
      </trkpt>
      <trkpt lat="40.34534" lon="17.8414">
        <ele>67.0</ele>
      </trkpt>
      <trkpt lat="40.34535" lon="17.8416">
        <ele>67.0</ele>
      </trkpt>
      <trkpt lat="40.34556" lon="17.84515">
        <ele>62.8</ele>
      </trkpt>
      <trkpt lat="40.34556" lon="17.84517">
        <ele>62.8</ele>
      </trkpt>
      <trkpt lat="40.34558" lon="17.8454">
        <ele>63.0</ele>
      </trkpt>
      <trkpt lat="40.34559" lon="17.845669">
        <ele>63.3</ele>
      </trkpt>
      <trkpt lat="40.34559" lon="17.845669">
        <ele>63.3</ele>
      </trkpt>
      <trkpt lat="40.345666" lon="17.846948">
        <ele>63.3</ele>
      </trkpt>
      <trkpt lat="40.34567" lon="17.84695">
        <ele>63.3</ele>
      </trkpt>
      <trkpt lat="40.34569" lon="17.84728">
        <ele>63.0</ele>
      </trkpt>
      <trkpt lat="40.34578" lon="17.84895">
        <ele>62.9</ele>
      </trkpt>
      <trkpt lat="40.345799" lon="17.84932">
        <ele>62.6</ele>
      </trkpt>
      <trkpt lat="40.34582" lon="17.84966">
        <ele>61.8</ele>
      </trkpt>
      <trkpt lat="40.34584" lon="17.849889">
        <ele>61.3</ele>
      </trkpt>
      <trkpt lat="40.34587" lon="17.850359">
        <ele>60.2</ele>
      </trkpt>
      <trkpt lat="40.34589" lon="17.8506">
        <ele>59.6</ele>
      </trkpt>
      <trkpt lat="40.3459" lon="17.850829">
        <ele>59.0</ele>
      </trkpt>
      <trkpt lat="40.3459" lon="17.851">
        <ele>59.0</ele>
      </trkpt>
      <trkpt lat="40.3459" lon="17.8511">
        <ele>59.0</ele>
      </trkpt>
      <trkpt lat="40.34588" lon="17.85116">
        <ele>59.0</ele>
      </trkpt>
      <trkpt lat="40.34588" lon="17.85118">
        <ele>59.0</ele>
      </trkpt>
      <trkpt lat="40.34581" lon="17.85137">
        <ele>59.1</ele>
      </trkpt>
      <trkpt lat="40.34581" lon="17.85138">
        <ele>59.1</ele>
      </trkpt>
      <trkpt lat="40.34565" lon="17.85173">
        <ele>59.3</ele>
      </trkpt>
      <trkpt lat="40.34531" lon="17.85242">
        <ele>58.4</ele>
      </trkpt>
      <trkpt lat="40.345239" lon="17.85258">
        <ele>58.4</ele>
      </trkpt>
      <trkpt lat="40.34484" lon="17.853459">
        <ele>58.9</ele>
      </trkpt>
      <trkpt lat="40.34469" lon="17.8538">
        <ele>58.3</ele>
      </trkpt>
      <trkpt lat="40.344499" lon="17.8542">
        <ele>57.6</ele>
      </trkpt>
      <trkpt lat="40.34435" lon="17.85451">
        <ele>57.8</ele>
      </trkpt>
      <trkpt lat="40.34422" lon="17.8548">
        <ele>57.9</ele>
      </trkpt>
      <trkpt lat="40.344029" lon="17.85521">
        <ele>57.7</ele>
      </trkpt>
      <trkpt lat="40.34387" lon="17.85556">
        <ele>57.3</ele>
      </trkpt>
      <trkpt lat="40.34366" lon="17.85602">
        <ele>56.7</ele>
      </trkpt>
      <trkpt lat="40.34323" lon="17.85697">
        <ele>55.5</ele>
      </trkpt>
      <trkpt lat="40.34308" lon="17.85725">
        <ele>55.0</ele>
      </trkpt>
      <trkpt lat="40.34291" lon="17.85763">
        <ele>54.6</ele>
      </trkpt>
      <trkpt lat="40.34282" lon="17.85783">
        <ele>54.5</ele>
      </trkpt>
      <trkpt lat="40.34162" lon="17.86046">
        <ele>54.4</ele>
      </trkpt>
      <trkpt lat="40.34152" lon="17.86066">
        <ele>54.1</ele>
      </trkpt>
      <trkpt lat="40.34106" lon="17.86168">
        <ele>53.0</ele>
      </trkpt>
      <trkpt lat="40.34097" lon="17.86188">
        <ele>52.8</ele>
      </trkpt>
      <trkpt lat="40.3407" lon="17.86246">
        <ele>52.0</ele>
      </trkpt>
      <trkpt lat="40.3407" lon="17.86246">
        <ele>52.0</ele>
      </trkpt>
      <trkpt lat="40.34017" lon="17.86359">
        <ele>52.2</ele>
      </trkpt>
      <trkpt lat="40.33993" lon="17.86407">
        <ele>52.0</ele>
      </trkpt>
      <trkpt lat="40.33393" lon="17.87547">
        <ele>53.4</ele>
      </trkpt>
      <trkpt lat="40.327599" lon="17.88749">
        <ele>57.4</ele>
      </trkpt>
      <trkpt lat="40.32612" lon="17.89031">
        <ele>62.6</ele>
      </trkpt>
      <trkpt lat="40.32008" lon="17.89943">
        <ele>46.4</ele>
      </trkpt>
      <trkpt lat="40.3134" lon="17.90316">
        <ele>43.9</ele>
      </trkpt>
      <trkpt lat="40.31159" lon="17.90485">
        <ele>43.3</ele>
      </trkpt>
      <trkpt lat="40.31159" lon="17.90486">
        <ele>43.3</ele>
      </trkpt>
      <trkpt lat="40.30969" lon="17.90664">
        <ele>42.8</ele>
      </trkpt>
      <trkpt lat="40.30836" lon="17.90792">
        <ele>43.6</ele>
      </trkpt>
      <trkpt lat="40.30545" lon="17.91066">
        <ele>46.7</ele>
      </trkpt>
      <trkpt lat="40.30449" lon="17.91158">
        <ele>46.5</ele>
      </trkpt>
      <trkpt lat="40.30384" lon="17.91222">
        <ele>49.3</ele>
      </trkpt>
      <trkpt lat="40.30556" lon="17.91276">
        <ele>47.4</ele>
      </trkpt>
      <trkpt lat="40.30551" lon="17.91284">
        <ele>47.5</ele>
      </trkpt>
      <trkpt lat="40.30556" lon="17.91276">
        <ele>47.4</ele>
      </trkpt>
      <trkpt lat="40.30556" lon="17.91275">
        <ele>47.5</ele>
      </trkpt>
      <trkpt lat="40.30556" lon="17.91276">
        <ele>47.4</ele>
      </trkpt>
      <trkpt lat="40.30504" lon="17.91365">
        <ele>48.1</ele>
      </trkpt>
      <trkpt lat="40.30467" lon="17.91425">
        <ele>48.3</ele>
      </trkpt>
      <trkpt lat="40.304609" lon="17.91437">
        <ele>48.6</ele>
      </trkpt>
      <trkpt lat="40.30455" lon="17.9145">
        <ele>49.0</ele>
      </trkpt>
      <trkpt lat="40.30447" lon="17.91478">
        <ele>49.6</ele>
      </trkpt>
      <trkpt lat="40.305639" lon="17.91623">
        <ele>47.0</ele>
      </trkpt>
      <trkpt lat="40.30551" lon="17.91721">
        <ele>47.4</ele>
      </trkpt>
      <trkpt lat="40.305639" lon="17.91623">
        <ele>47.0</ele>
      </trkpt>
      <trkpt lat="40.305639" lon="17.91622">
        <ele>46.9</ele>
      </trkpt>
      <trkpt lat="40.305639" lon="17.91623">
        <ele>47.0</ele>
      </trkpt>
      <trkpt lat="40.30534" lon="17.91854">
        <ele>49.2</ele>
      </trkpt>
      <trkpt lat="40.30386" lon="17.91805">
        <ele>51.9</ele>
      </trkpt>
      <trkpt lat="40.30323" lon="17.91783">
        <ele>52.4</ele>
      </trkpt>
      <trkpt lat="40.30322" lon="17.91784">
        <ele>52.4</ele>
      </trkpt>
      <trkpt lat="40.30261" lon="17.91764">
        <ele>54.3</ele>
      </trkpt>
      <trkpt lat="40.30262" lon="17.91764">
        <ele>54.2</ele>
      </trkpt>
      <trkpt lat="40.30261" lon="17.91764">
        <ele>54.3</ele>
      </trkpt>
      <trkpt lat="40.30225" lon="17.91759">
        <ele>55.8</ele>
      </trkpt>
      <trkpt lat="40.30211" lon="17.9176">
        <ele>56.4</ele>
      </trkpt>
      <trkpt lat="40.30176" lon="17.917649">
        <ele>57.7</ele>
      </trkpt>
      <trkpt lat="40.301765" lon="17.91767">
        <ele>57.6</ele>
      </trkpt>
      <trkpt lat="40.30176" lon="17.917649">
        <ele>57.7</ele>
      </trkpt>
      <trkpt lat="40.30147" lon="17.91773">
        <ele>57.9</ele>
      </trkpt>
      <trkpt lat="40.301049" lon="17.91795">
        <ele>57.4</ele>
      </trkpt>
      <trkpt lat="40.301057" lon="17.91796">
        <ele>57.4</ele>
      </trkpt>
      <trkpt lat="40.301049" lon="17.91795">
        <ele>57.4</ele>
      </trkpt>
      <trkpt lat="40.30074" lon="17.91813">
        <ele>57.1</ele>
      </trkpt>
      <trkpt lat="40.30033" lon="17.91835">
        <ele>56.0</ele>
      </trkpt>
      <trkpt lat="40.30032" lon="17.91835">
        <ele>56.0</ele>
      </trkpt>
      <trkpt lat="40.30033" lon="17.91835">
        <ele>56.0</ele>
      </trkpt>
      <trkpt lat="40.29976" lon="17.91865">
        <ele>55.7</ele>
      </trkpt>
      <trkpt lat="40.29955" lon="17.91874">
        <ele>55.5</ele>
      </trkpt>
      <trkpt lat="40.299259" lon="17.91883">
        <ele>55.2</ele>
      </trkpt>
      <trkpt lat="40.29902" lon="17.918869">
        <ele>54.9</ele>
      </trkpt>
      <trkpt lat="40.2988" lon="17.918869">
        <ele>54.8</ele>
      </trkpt>
      <trkpt lat="40.2985" lon="17.91884">
        <ele>54.5</ele>
      </trkpt>
      <trkpt lat="40.29819" lon="17.91877">
        <ele>54.6</ele>
      </trkpt>
      <trkpt lat="40.29787" lon="17.91864">
        <ele>55.0</ele>
      </trkpt>
      <trkpt lat="40.29765" lon="17.91852">
        <ele>55.4</ele>
      </trkpt>
      <trkpt lat="40.297199" lon="17.91818">
        <ele>55.8</ele>
      </trkpt>
      <trkpt lat="40.29721" lon="17.91818">
        <ele>55.8</ele>
      </trkpt>
      <trkpt lat="40.297199" lon="17.91818">
        <ele>55.8</ele>
      </trkpt>
      <trkpt lat="40.29686" lon="17.91792">
        <ele>55.7</ele>
      </trkpt>
      <trkpt lat="40.29526" lon="17.91914">
        <ele>49.7</ele>
      </trkpt>
      <trkpt lat="40.29286" lon="17.92096">
        <ele>44.0</ele>
      </trkpt>
      <trkpt lat="40.29046" lon="17.92279">
        <ele>41.7</ele>
      </trkpt>
      <trkpt lat="40.28879" lon="17.92405">
        <ele>40.6</ele>
      </trkpt>
      <trkpt lat="40.28806" lon="17.92464">
        <ele>40.2</ele>
      </trkpt>
      <trkpt lat="40.28806" lon="17.92464">
        <ele>40.2</ele>
      </trkpt>
      <trkpt lat="40.287246" lon="17.925204">
        <ele>40.3</ele>
      </trkpt>
      <trkpt lat="40.286432" lon="17.925769">
        <ele>40.2</ele>
      </trkpt>
      <trkpt lat="40.285617" lon="17.926333">
        <ele>39.7</ele>
      </trkpt>
      <trkpt lat="40.28561" lon="17.92632">
        <ele>39.8</ele>
      </trkpt>
      <trkpt lat="40.2815" lon="17.92944">
        <ele>43.2</ele>
      </trkpt>
      <trkpt lat="40.27742" lon="17.93254">
        <ele>39.9</ele>
      </trkpt>
      <trkpt lat="40.27732" lon="17.93248">
        <ele>39.6</ele>
      </trkpt>
      <trkpt lat="40.277299" lon="17.93244">
        <ele>39.5</ele>
      </trkpt>
      <trkpt lat="40.277299" lon="17.93243">
        <ele>39.5</ele>
      </trkpt>
      <trkpt lat="40.27697" lon="17.93183">
        <ele>38.2</ele>
      </trkpt>
      <trkpt lat="40.276919" lon="17.93177">
        <ele>38.0</ele>
      </trkpt>
      <trkpt lat="40.27684" lon="17.93176">
        <ele>37.7</ele>
      </trkpt>
      <trkpt lat="40.27675" lon="17.931819">
        <ele>37.5</ele>
      </trkpt>
      <trkpt lat="40.27442" lon="17.93329">
        <ele>40.8</ele>
      </trkpt>
      <trkpt lat="40.27466" lon="17.93396">
        <ele>41.6</ele>
      </trkpt>
      <trkpt lat="40.27466" lon="17.93395">
        <ele>41.6</ele>
      </trkpt>
      <trkpt lat="40.27516" lon="17.93537">
        <ele>39.6</ele>
      </trkpt>
      <trkpt lat="40.27516" lon="17.93536">
        <ele>39.7</ele>
      </trkpt>
      <trkpt lat="40.27567" lon="17.936789">
        <ele>40.6</ele>
      </trkpt>
      <trkpt lat="40.27567" lon="17.93678">
        <ele>40.6</ele>
      </trkpt>
      <trkpt lat="40.27581" lon="17.93718">
        <ele>41.0</ele>
      </trkpt>
      <trkpt lat="40.27586" lon="17.93727">
        <ele>41.0</ele>
      </trkpt>
      <trkpt lat="40.2761" lon="17.9375">
        <ele>41.0</ele>
      </trkpt>
      <trkpt lat="40.276179" lon="17.93755">
        <ele>40.9</ele>
      </trkpt>
      <trkpt lat="40.27671" lon="17.93743">
        <ele>40.9</ele>
      </trkpt>
      <trkpt lat="40.27675" lon="17.93747">
        <ele>40.8</ele>
      </trkpt>
      <trkpt lat="40.27677" lon="17.93757">
        <ele>40.6</ele>
      </trkpt>
      <trkpt lat="40.27664" lon="17.93762">
        <ele>40.7</ele>
      </trkpt>
      <trkpt lat="40.2763" lon="17.93772">
        <ele>40.6</ele>
      </trkpt>
      <trkpt lat="40.27617" lon="17.9377">
        <ele>40.7</ele>
      </trkpt>
      <trkpt lat="40.27606" lon="17.93765">
        <ele>40.8</ele>
      </trkpt>
      <trkpt lat="40.27596" lon="17.93759">
        <ele>40.9</ele>
      </trkpt>
      <trkpt lat="40.275889" lon="17.93759">
        <ele>40.9</ele>
      </trkpt>
      <trkpt lat="40.27583" lon="17.93763">
        <ele>40.8</ele>
      </trkpt>
      <trkpt lat="40.27577" lon="17.93769">
        <ele>40.7</ele>
      </trkpt>
      <trkpt lat="40.27573" lon="17.93783">
        <ele>40.5</ele>
      </trkpt>
      <trkpt lat="40.27566" lon="17.93793">
        <ele>40.3</ele>
      </trkpt>
      <trkpt lat="40.27546" lon="17.938009">
        <ele>39.9</ele>
      </trkpt>
      <trkpt lat="40.27532" lon="17.9381">
        <ele>39.7</ele>
      </trkpt>
      <trkpt lat="40.27472" lon="17.93846">
        <ele>39.3</ele>
      </trkpt>
      <trkpt lat="40.27431" lon="17.93874">
        <ele>39.8</ele>
      </trkpt>
      <trkpt lat="40.2733" lon="17.93951">
        <ele>38.2</ele>
      </trkpt>
      <trkpt lat="40.27364" lon="17.93925">
        <ele>39.1</ele>
      </trkpt>
      <trkpt lat="40.27364" lon="17.93924">
        <ele>39.2</ele>
      </trkpt>
      <trkpt lat="40.27364" lon="17.93925">
        <ele>39.1</ele>
      </trkpt>
      <trkpt lat="40.27335" lon="17.93947">
        <ele>38.3</ele>
      </trkpt>
      <trkpt lat="40.26918" lon="17.94265">
        <ele>42.5</ele>
      </trkpt>
      <trkpt lat="40.26876" lon="17.9429">
        <ele>42.7</ele>
      </trkpt>
      <trkpt lat="40.26537" lon="17.94314">
        <ele>40.9</ele>
      </trkpt>
      <trkpt lat="40.26521" lon="17.94312">
        <ele>40.6</ele>
      </trkpt>
      <trkpt lat="40.26428" lon="17.94276">
        <ele>40.7</ele>
      </trkpt>
      <trkpt lat="40.26417" lon="17.94276">
        <ele>40.7</ele>
      </trkpt>
      <trkpt lat="40.26395" lon="17.94293">
        <ele>40.2</ele>
      </trkpt>
      <trkpt lat="40.26417" lon="17.94276">
        <ele>40.7</ele>
      </trkpt>
      <trkpt lat="40.26417" lon="17.94276">
        <ele>40.7</ele>
      </trkpt>
      <trkpt lat="40.263137" lon="17.943542">
        <ele>39.0</ele>
      </trkpt>
      <trkpt lat="40.262104" lon="17.944326">
        <ele>39.1</ele>
      </trkpt>
      <trkpt lat="40.261071" lon="17.945108">
        <ele>41.8</ele>
      </trkpt>
      <trkpt lat="40.26108" lon="17.94513">
        <ele>41.8</ele>
      </trkpt>
      <trkpt lat="40.26048" lon="17.94558">
        <ele>41.3</ele>
      </trkpt>
      <trkpt lat="40.25989" lon="17.94604">
        <ele>40.0</ele>
      </trkpt>
      <trkpt lat="40.25989" lon="17.94603">
        <ele>40.0</ele>
      </trkpt>
      <trkpt lat="40.25921" lon="17.946549">
        <ele>40.8</ele>
      </trkpt>
      <trkpt lat="40.25854" lon="17.94707">
        <ele>41.5</ele>
      </trkpt>
      <trkpt lat="40.25786" lon="17.94758">
        <ele>40.9</ele>
      </trkpt>
      <trkpt lat="40.25718" lon="17.9481">
        <ele>40.8</ele>
      </trkpt>
      <trkpt lat="40.25651" lon="17.948619">
        <ele>41.0</ele>
      </trkpt>
      <trkpt lat="40.25583" lon="17.94913">
        <ele>41.0</ele>
      </trkpt>
      <trkpt lat="40.255159" lon="17.949649">
        <ele>41.9</ele>
      </trkpt>
      <trkpt lat="40.25506" lon="17.94968">
        <ele>42.0</ele>
      </trkpt>
      <trkpt lat="40.25505" lon="17.94964">
        <ele>42.0</ele>
      </trkpt>
      <trkpt lat="40.25497" lon="17.94972">
        <ele>42.0</ele>
      </trkpt>
      <trkpt lat="40.25497" lon="17.94972">
        <ele>42.0</ele>
      </trkpt>
      <trkpt lat="40.25483" lon="17.94987">
        <ele>41.8</ele>
      </trkpt>
      <trkpt lat="40.2541" lon="17.95043">
        <ele>41.4</ele>
      </trkpt>
      <trkpt lat="40.25336" lon="17.95099">
        <ele>40.4</ele>
      </trkpt>
      <trkpt lat="40.25263" lon="17.95155">
        <ele>40.8</ele>
      </trkpt>
      <trkpt lat="40.2519" lon="17.95211">
        <ele>40.6</ele>
      </trkpt>
      <trkpt lat="40.25116" lon="17.95267">
        <ele>40.5</ele>
      </trkpt>
      <trkpt lat="40.25043" lon="17.95324">
        <ele>40.9</ele>
      </trkpt>
      <trkpt lat="40.2497" lon="17.9538">
        <ele>40.6</ele>
      </trkpt>
      <trkpt lat="40.248959" lon="17.95436">
        <ele>40.8</ele>
      </trkpt>
      <trkpt lat="40.24823" lon="17.95492">
        <ele>40.0</ele>
      </trkpt>
      <trkpt lat="40.24749" lon="17.95548">
        <ele>40.6</ele>
      </trkpt>
      <trkpt lat="40.24711" lon="17.95577">
        <ele>40.0</ele>
      </trkpt>
      <trkpt lat="40.24655" lon="17.95621">
        <ele>39.4</ele>
      </trkpt>
      <trkpt lat="40.24598" lon="17.95664">
        <ele>39.2</ele>
      </trkpt>
      <trkpt lat="40.24542" lon="17.95707">
        <ele>39.0</ele>
      </trkpt>
      <trkpt lat="40.24481" lon="17.95754">
        <ele>39.2</ele>
      </trkpt>
      <trkpt lat="40.24421" lon="17.95801">
        <ele>39.3</ele>
      </trkpt>
      <trkpt lat="40.24393" lon="17.9583">
        <ele>38.8</ele>
      </trkpt>
      <trkpt lat="40.24373" lon="17.95845">
        <ele>38.7</ele>
      </trkpt>
      <trkpt lat="40.24373" lon="17.95845">
        <ele>38.7</ele>
      </trkpt>
      <trkpt lat="40.24317" lon="17.95889">
        <ele>38.6</ele>
      </trkpt>
      <trkpt lat="40.24261" lon="17.95933">
        <ele>39.4</ele>
      </trkpt>
      <trkpt lat="40.24205" lon="17.95977">
        <ele>40.2</ele>
      </trkpt>
      <trkpt lat="40.24199" lon="17.959689">
        <ele>40.1</ele>
      </trkpt>
      <trkpt lat="40.24176" lon="17.95985">
        <ele>40.1</ele>
      </trkpt>
      <trkpt lat="40.24129" lon="17.96021">
        <ele>40.1</ele>
      </trkpt>
      <trkpt lat="40.24082" lon="17.96057">
        <ele>40.0</ele>
      </trkpt>
      <trkpt lat="40.24082" lon="17.96057">
        <ele>40.0</ele>
      </trkpt>
      <trkpt lat="40.23998" lon="17.96122">
        <ele>39.5</ele>
      </trkpt>
      <trkpt lat="40.237699" lon="17.96293">
        <ele>43.4</ele>
      </trkpt>
      <trkpt lat="40.237699" lon="17.96293">
        <ele>43.4</ele>
      </trkpt>
      <trkpt lat="40.236994" lon="17.961677">
        <ele>43.6</ele>
      </trkpt>
      <trkpt lat="40.236288" lon="17.960423">
        <ele>42.6</ele>
      </trkpt>
      <trkpt lat="40.235582" lon="17.95917">
        <ele>43.0</ele>
      </trkpt>
      <trkpt lat="40.23534" lon="17.96008">
        <ele>42.1</ele>
      </trkpt>
      <trkpt lat="40.23523" lon="17.96048">
        <ele>42.4</ele>
      </trkpt>
      <trkpt lat="40.23518" lon="17.96071">
        <ele>42.7</ele>
      </trkpt>
      <trkpt lat="40.23512" lon="17.96092">
        <ele>42.9</ele>
      </trkpt>
      <trkpt lat="40.23506" lon="17.961099">
        <ele>43.0</ele>
      </trkpt>
      <trkpt lat="40.23501" lon="17.96121">
        <ele>43.0</ele>
      </trkpt>
      <trkpt lat="40.23462" lon="17.96208">
        <ele>44.2</ele>
      </trkpt>
      <trkpt lat="40.23457" lon="17.96219">
        <ele>44.3</ele>
      </trkpt>
      <trkpt lat="40.23411" lon="17.96321">
        <ele>44.0</ele>
      </trkpt>
      <trkpt lat="40.23371" lon="17.96411">
        <ele>43.9</ele>
      </trkpt>
      <trkpt lat="40.23366" lon="17.96421">
        <ele>43.7</ele>
      </trkpt>
      <trkpt lat="40.23327" lon="17.96508">
        <ele>42.1</ele>
      </trkpt>
      <trkpt lat="40.23325" lon="17.96512">
        <ele>42.2</ele>
      </trkpt>
      <trkpt lat="40.233199" lon="17.965229">
        <ele>42.2</ele>
      </trkpt>
      <trkpt lat="40.23313" lon="17.96537">
        <ele>42.3</ele>
      </trkpt>
      <trkpt lat="40.2331" lon="17.96542">
        <ele>42.3</ele>
      </trkpt>
      <trkpt lat="40.23306" lon="17.9655">
        <ele>42.3</ele>
      </trkpt>
      <trkpt lat="40.23298" lon="17.96564">
        <ele>42.2</ele>
      </trkpt>
      <trkpt lat="40.23283" lon="17.96586">
        <ele>42.0</ele>
      </trkpt>
      <trkpt lat="40.23251" lon="17.96631">
        <ele>42.6</ele>
      </trkpt>
      <trkpt lat="40.23203" lon="17.967009">
        <ele>42.5</ele>
      </trkpt>
      <trkpt lat="40.23203" lon="17.967">
        <ele>42.5</ele>
      </trkpt>
      <trkpt lat="40.23203" lon="17.967009">
        <ele>42.5</ele>
      </trkpt>
      <trkpt lat="40.2319" lon="17.96718">
        <ele>42.6</ele>
      </trkpt>
      <trkpt lat="40.23126" lon="17.9681">
        <ele>43.9</ele>
      </trkpt>
      <trkpt lat="40.23118" lon="17.968003">
        <ele>43.8</ele>
      </trkpt>
      <trkpt lat="40.23118" lon="17.968003">
        <ele>43.8</ele>
      </trkpt>
      <trkpt lat="40.23012" lon="17.967728">
        <ele>43.1</ele>
      </trkpt>
      <trkpt lat="40.23012" lon="17.967728">
        <ele>43.1</ele>
      </trkpt>
      <trkpt lat="40.229084" lon="17.968319">
        <ele>43.9</ele>
      </trkpt>
      <trkpt lat="40.22908" lon="17.96831">
        <ele>43.8</ele>
      </trkpt>
      <trkpt lat="40.22737" lon="17.96963">
        <ele>42.4</ele>
      </trkpt>
      <trkpt lat="40.22714" lon="17.9669">
        <ele>43.7</ele>
      </trkpt>
      <trkpt lat="40.227089" lon="17.96644">
        <ele>43.9</ele>
      </trkpt>
      <trkpt lat="40.22661" lon="17.96707">
        <ele>43.5</ele>
      </trkpt>
      <trkpt lat="40.227089" lon="17.96644">
        <ele>43.9</ele>
      </trkpt>
      <trkpt lat="40.22506" lon="17.96913">
        <ele>42.9</ele>
      </trkpt>
      <trkpt lat="40.22378" lon="17.9708">
        <ele>43.0</ele>
      </trkpt>
      <trkpt lat="40.22282" lon="17.97207">
        <ele>43.8</ele>
      </trkpt>
      <trkpt lat="40.22284" lon="17.972093">
        <ele>43.8</ele>
      </trkpt>
      <trkpt lat="40.22284" lon="17.97209">
        <ele>43.8</ele>
      </trkpt>
      <trkpt lat="40.22228" lon="17.97284">
        <ele>43.7</ele>
      </trkpt>
      <trkpt lat="40.22104" lon="17.97448">
        <ele>43.4</ele>
      </trkpt>
      <trkpt lat="40.22096" lon="17.97459">
        <ele>43.1</ele>
      </trkpt>
      <trkpt lat="40.220299" lon="17.975056">
        <ele>42.6</ele>
      </trkpt>
      <trkpt lat="40.219614" lon="17.975617">
        <ele>41.9</ele>
      </trkpt>
      <trkpt lat="40.219167" lon="17.97592">
        <ele>40.9</ele>
      </trkpt>
      <trkpt lat="40.219167" lon="17.97592">
        <ele>40.9</ele>
      </trkpt>
      <trkpt lat="40.218367" lon="17.976521">
        <ele>41.1</ele>
      </trkpt>
      <trkpt lat="40.217567" lon="17.977122">
        <ele>42.5</ele>
      </trkpt>
      <trkpt lat="40.216767" lon="17.977723">
        <ele>41.5</ele>
      </trkpt>
      <trkpt lat="40.215967" lon="17.978325">
        <ele>41.2</ele>
      </trkpt>
      <trkpt lat="40.215167" lon="17.978926">
        <ele>41.4</ele>
      </trkpt>
      <trkpt lat="40.214367" lon="17.979527">
        <ele>43.1</ele>
      </trkpt>
      <trkpt lat="40.213567" lon="17.980129">
        <ele>42.9</ele>
      </trkpt>
      <trkpt lat="40.212767" lon="17.98073">
        <ele>42.1</ele>
      </trkpt>
      <trkpt lat="40.211967" lon="17.981331">
        <ele>41.7</ele>
      </trkpt>
      <trkpt lat="40.211167" lon="17.981932">
        <ele>41.7</ele>
      </trkpt>
      <trkpt lat="40.210366" lon="17.982534">
        <ele>42.5</ele>
      </trkpt>
      <trkpt lat="40.209566" lon="17.983135">
        <ele>42.6</ele>
      </trkpt>
      <trkpt lat="40.208766" lon="17.983736">
        <ele>43.7</ele>
      </trkpt>
      <trkpt lat="40.207966" lon="17.984337">
        <ele>43.7</ele>
      </trkpt>
      <trkpt lat="40.207166" lon="17.984938">
        <ele>44.9</ele>
      </trkpt>
      <trkpt lat="40.207166" lon="17.984938">
        <ele>44.9</ele>
      </trkpt>
      <trkpt lat="40.206383" lon="17.98557">
        <ele>45.2</ele>
      </trkpt>
      <trkpt lat="40.205599" lon="17.986202">
        <ele>45.6</ele>
      </trkpt>
      <trkpt lat="40.204817" lon="17.986834">
        <ele>46.4</ele>
      </trkpt>
      <trkpt lat="40.204817" lon="17.986834">
        <ele>46.4</ele>
      </trkpt>
      <trkpt lat="40.203949" lon="17.987517">
        <ele>48.0</ele>
      </trkpt>
      <trkpt lat="40.203081" lon="17.9882">
        <ele>48.0</ele>
      </trkpt>
      <trkpt lat="40.202214" lon="17.988883">
        <ele>49.8</ele>
      </trkpt>
      <trkpt lat="40.201346" lon="17.989566">
        <ele>51.0</ele>
      </trkpt>
      <trkpt lat="40.201346" lon="17.989566">
        <ele>51.0</ele>
      </trkpt>
      <trkpt lat="40.200507" lon="17.990236">
        <ele>52.9</ele>
      </trkpt>
      <trkpt lat="40.199668" lon="17.990906">
        <ele>53.5</ele>
      </trkpt>
      <trkpt lat="40.198828" lon="17.991575">
        <ele>53.3</ele>
      </trkpt>
      <trkpt lat="40.198448" lon="17.991886">
        <ele>54.1</ele>
      </trkpt>
      <trkpt lat="40.198448" lon="17.991886">
        <ele>54.1</ele>
      </trkpt>
      <trkpt lat="40.197676" lon="17.992987">
        <ele>50.6</ele>
      </trkpt>
      <trkpt lat="40.196904" lon="17.994087">
        <ele>45.9</ele>
      </trkpt>
      <trkpt lat="40.196904" lon="17.994087">
        <ele>45.9</ele>
      </trkpt>
      <trkpt lat="40.196105" lon="17.995156">
        <ele>45.3</ele>
      </trkpt>
      <trkpt lat="40.195307" lon="17.996225">
        <ele>42.9</ele>
      </trkpt>
      <trkpt lat="40.194508" lon="17.997294">
        <ele>41.7</ele>
      </trkpt>
      <trkpt lat="40.194508" lon="17.997294">
        <ele>41.7</ele>
      </trkpt>
      <trkpt lat="40.193715" lon="17.998378">
        <ele>41.5</ele>
      </trkpt>
      <trkpt lat="40.192921" lon="17.999462">
        <ele>41.3</ele>
      </trkpt>
      <trkpt lat="40.192127" lon="18.000545">
        <ele>40.5</ele>
      </trkpt>
      <trkpt lat="40.192127" lon="18.000545">
        <ele>40.5</ele>
      </trkpt>
      <trkpt lat="40.191429" lon="18.001494">
        <ele>40.2</ele>
      </trkpt>
      <trkpt lat="40.190731" lon="18.002444">
        <ele>38.1</ele>
      </trkpt>
      <trkpt lat="40.190731" lon="18.002444">
        <ele>38.1</ele>
      </trkpt>
      <trkpt lat="40.189901" lon="18.003158">
        <ele>37.3</ele>
      </trkpt>
      <trkpt lat="40.189072" lon="18.003871">
        <ele>37.2</ele>
      </trkpt>
      <trkpt lat="40.188741" lon="18.004418">
        <ele>36.6</ele>
      </trkpt>
      <trkpt lat="40.188443" lon="18.004428">
        <ele>36.2</ele>
      </trkpt>
      <trkpt lat="40.188259" lon="18.004805">
        <ele>36.1</ele>
      </trkpt>
      <trkpt lat="40.18801" lon="18.005458">
        <ele>35.5</ele>
      </trkpt>
      <trkpt lat="40.18801" lon="18.005458">
        <ele>35.5</ele>
      </trkpt>
      <trkpt lat="40.187278" lon="18.006505">
        <ele>35.2</ele>
      </trkpt>
      <trkpt lat="40.186548" lon="18.007551">
        <ele>35.1</ele>
      </trkpt>
      <trkpt lat="40.186548" lon="18.007551">
        <ele>35.1</ele>
      </trkpt>
      <trkpt lat="40.18582" lon="18.008506">
        <ele>35.8</ele>
      </trkpt>
      <trkpt lat="40.185092" lon="18.009461">
        <ele>35.0</ele>
      </trkpt>
      <trkpt lat="40.184364" lon="18.010416">
        <ele>34.7</ele>
      </trkpt>
      <trkpt lat="40.184364" lon="18.010416">
        <ele>34.7</ele>
      </trkpt>
      <trkpt lat="40.183603" lon="18.011435">
        <ele>34.5</ele>
      </trkpt>
      <trkpt lat="40.182843" lon="18.012454">
        <ele>34.6</ele>
      </trkpt>
      <trkpt lat="40.182082" lon="18.013474">
        <ele>35.0</ele>
      </trkpt>
      <trkpt lat="40.182082" lon="18.013474">
        <ele>35.0</ele>
      </trkpt>
      <trkpt lat="40.180775" lon="18.013323">
        <ele>35.9</ele>
      </trkpt>
      <trkpt lat="40.1807" lon="18.01329">
        <ele>35.7</ele>
      </trkpt>
      <trkpt lat="40.18045" lon="18.01426">
        <ele>36.3</ele>
      </trkpt>
      <trkpt lat="40.1804" lon="18.01447">
        <ele>36.0</ele>
      </trkpt>
      <trkpt lat="40.18015" lon="18.01467">
        <ele>35.7</ele>
      </trkpt>
      <trkpt lat="40.18015" lon="18.014679">
        <ele>35.7</ele>
      </trkpt>
      <trkpt lat="40.18015" lon="18.014679">
        <ele>35.7</ele>
      </trkpt>
      <trkpt lat="40.18012" lon="18.01467">
        <ele>35.7</ele>
      </trkpt>
      <trkpt lat="40.1801" lon="18.01465">
        <ele>35.8</ele>
      </trkpt>
      <trkpt lat="40.180079" lon="18.01465">
        <ele>35.8</ele>
      </trkpt>
      <trkpt lat="40.18006" lon="18.01464">
        <ele>35.8</ele>
      </trkpt>
      <trkpt lat="40.18003" lon="18.01464">
        <ele>35.8</ele>
      </trkpt>
      <trkpt lat="40.18001" lon="18.01464">
        <ele>35.9</ele>
      </trkpt>
      <trkpt lat="40.17998" lon="18.01464">
        <ele>35.8</ele>
      </trkpt>
      <trkpt lat="40.17996" lon="18.01465">
        <ele>35.7</ele>
      </trkpt>
      <trkpt lat="40.17994" lon="18.01466">
        <ele>35.6</ele>
      </trkpt>
      <trkpt lat="40.17992" lon="18.01467">
        <ele>35.5</ele>
      </trkpt>
      <trkpt lat="40.17989" lon="18.01469">
        <ele>35.3</ele>
      </trkpt>
      <trkpt lat="40.17988" lon="18.01471">
        <ele>35.2</ele>
      </trkpt>
      <trkpt lat="40.17986" lon="18.01473">
        <ele>35.1</ele>
      </trkpt>
      <trkpt lat="40.17984" lon="18.01475">
        <ele>35.0</ele>
      </trkpt>
      <trkpt lat="40.17983" lon="18.014779">
        <ele>34.9</ele>
      </trkpt>
      <trkpt lat="40.17982" lon="18.01481">
        <ele>34.8</ele>
      </trkpt>
      <trkpt lat="40.17981" lon="18.01483">
        <ele>34.7</ele>
      </trkpt>
      <trkpt lat="40.1798" lon="18.01486">
        <ele>34.6</ele>
      </trkpt>
      <trkpt lat="40.179789" lon="18.0149">
        <ele>34.5</ele>
      </trkpt>
      <trkpt lat="40.179789" lon="18.01493">
        <ele>34.4</ele>
      </trkpt>
      <trkpt lat="40.179789" lon="18.01496">
        <ele>34.3</ele>
      </trkpt>
      <trkpt lat="40.1798" lon="18.01501">
        <ele>34.3</ele>
      </trkpt>
      <trkpt lat="40.1798" lon="18.01504">
        <ele>34.2</ele>
      </trkpt>
      <trkpt lat="40.17981" lon="18.01507">
        <ele>34.2</ele>
      </trkpt>
      <trkpt lat="40.17982" lon="18.0151">
        <ele>34.2</ele>
      </trkpt>
      <trkpt lat="40.17984" lon="18.01512">
        <ele>34.2</ele>
      </trkpt>
      <trkpt lat="40.17985" lon="18.015149">
        <ele>34.2</ele>
      </trkpt>
      <trkpt lat="40.17987" lon="18.01517">
        <ele>34.2</ele>
      </trkpt>
      <trkpt lat="40.17989" lon="18.01519">
        <ele>34.2</ele>
      </trkpt>
      <trkpt lat="40.17991" lon="18.01521">
        <ele>34.3</ele>
      </trkpt>
      <trkpt lat="40.17993" lon="18.01522">
        <ele>34.3</ele>
      </trkpt>
      <trkpt lat="40.17995" lon="18.01523">
        <ele>34.3</ele>
      </trkpt>
      <trkpt lat="40.179989" lon="18.01524">
        <ele>34.4</ele>
      </trkpt>
      <trkpt lat="40.179989" lon="18.01524">
        <ele>34.4</ele>
      </trkpt>
      <trkpt lat="40.18005" lon="18.01547">
        <ele>33.9</ele>
      </trkpt>
      <trkpt lat="40.18006" lon="18.015529">
        <ele>33.8</ele>
      </trkpt>
      <trkpt lat="40.18007" lon="18.01565">
        <ele>33.6</ele>
      </trkpt>
      <trkpt lat="40.18007" lon="18.01574">
        <ele>33.4</ele>
      </trkpt>
      <trkpt lat="40.18007" lon="18.0158">
        <ele>33.2</ele>
      </trkpt>
      <trkpt lat="40.18006" lon="18.01588">
        <ele>33.2</ele>
      </trkpt>
      <trkpt lat="40.17969" lon="18.01709">
        <ele>34.6</ele>
      </trkpt>
      <trkpt lat="40.17968" lon="18.01708">
        <ele>34.6</ele>
      </trkpt>
      <trkpt lat="40.17967" lon="18.01707">
        <ele>34.6</ele>
      </trkpt>
      <trkpt lat="40.17966" lon="18.01706">
        <ele>34.6</ele>
      </trkpt>
      <trkpt lat="40.17965" lon="18.01706">
        <ele>34.6</ele>
      </trkpt>
      <trkpt lat="40.17965" lon="18.01705">
        <ele>34.5</ele>
      </trkpt>
      <trkpt lat="40.17964" lon="18.01705">
        <ele>34.5</ele>
      </trkpt>
      <trkpt lat="40.17963" lon="18.01705">
        <ele>34.5</ele>
      </trkpt>
      <trkpt lat="40.17963" lon="18.01704">
        <ele>34.5</ele>
      </trkpt>
      <trkpt lat="40.17962" lon="18.01704">
        <ele>34.5</ele>
      </trkpt>
      <trkpt lat="40.179609" lon="18.01704">
        <ele>34.5</ele>
      </trkpt>
      <trkpt lat="40.1796" lon="18.01704">
        <ele>34.5</ele>
      </trkpt>
      <trkpt lat="40.17959" lon="18.01704">
        <ele>34.5</ele>
      </trkpt>
      <trkpt lat="40.17958" lon="18.01704">
        <ele>34.4</ele>
      </trkpt>
      <trkpt lat="40.17958" lon="18.01705">
        <ele>34.5</ele>
      </trkpt>
      <trkpt lat="40.17957" lon="18.01705">
        <ele>34.4</ele>
      </trkpt>
      <trkpt lat="40.17956" lon="18.01705">
        <ele>34.4</ele>
      </trkpt>
      <trkpt lat="40.17956" lon="18.01706">
        <ele>34.4</ele>
      </trkpt>
      <trkpt lat="40.17955" lon="18.01706">
        <ele>34.4</ele>
      </trkpt>
      <trkpt lat="40.17954" lon="18.01707">
        <ele>34.4</ele>
      </trkpt>
      <trkpt lat="40.17953" lon="18.01708">
        <ele>34.4</ele>
      </trkpt>
      <trkpt lat="40.179519" lon="18.01709">
        <ele>34.4</ele>
      </trkpt>
      <trkpt lat="40.179519" lon="18.0171">
        <ele>34.4</ele>
      </trkpt>
      <trkpt lat="40.17951" lon="18.0171">
        <ele>34.4</ele>
      </trkpt>
      <trkpt lat="40.17951" lon="18.01711">
        <ele>34.4</ele>
      </trkpt>
      <trkpt lat="40.17951" lon="18.017119">
        <ele>34.5</ele>
      </trkpt>
      <trkpt lat="40.1795" lon="18.01713">
        <ele>34.5</ele>
      </trkpt>
      <trkpt lat="40.1795" lon="18.01714">
        <ele>34.5</ele>
      </trkpt>
      <trkpt lat="40.1795" lon="18.01715">
        <ele>34.5</ele>
      </trkpt>
      <trkpt lat="40.1795" lon="18.01716">
        <ele>34.5</ele>
      </trkpt>
      <trkpt lat="40.17949" lon="18.01716">
        <ele>34.5</ele>
      </trkpt>
      <trkpt lat="40.17949" lon="18.01717">
        <ele>34.5</ele>
      </trkpt>
      <trkpt lat="40.17949" lon="18.01718">
        <ele>34.5</ele>
      </trkpt>
      <trkpt lat="40.17949" lon="18.01719">
        <ele>34.5</ele>
      </trkpt>
      <trkpt lat="40.17949" lon="18.0172">
        <ele>34.6</ele>
      </trkpt>
      <trkpt lat="40.17949" lon="18.01721">
        <ele>34.6</ele>
      </trkpt>
      <trkpt lat="40.1795" lon="18.017219">
        <ele>34.6</ele>
      </trkpt>
      <trkpt lat="40.1795" lon="18.01723">
        <ele>34.6</ele>
      </trkpt>
      <trkpt lat="40.1795" lon="18.01724">
        <ele>34.6</ele>
      </trkpt>
      <trkpt lat="40.1795" lon="18.01725">
        <ele>34.6</ele>
      </trkpt>
      <trkpt lat="40.17951" lon="18.01726">
        <ele>34.7</ele>
      </trkpt>
      <trkpt lat="40.17951" lon="18.01727">
        <ele>34.7</ele>
      </trkpt>
      <trkpt lat="40.179519" lon="18.01728">
        <ele>34.7</ele>
      </trkpt>
      <trkpt lat="40.179519" lon="18.01729">
        <ele>34.7</ele>
      </trkpt>
      <trkpt lat="40.17953" lon="18.0173">
        <ele>34.7</ele>
      </trkpt>
      <trkpt lat="40.17954" lon="18.017309">
        <ele>34.7</ele>
      </trkpt>
      <trkpt lat="40.17955" lon="18.017309">
        <ele>34.8</ele>
      </trkpt>
      <trkpt lat="40.17955" lon="18.01732">
        <ele>34.8</ele>
      </trkpt>
      <trkpt lat="40.17956" lon="18.01732">
        <ele>34.8</ele>
      </trkpt>
      <trkpt lat="40.17957" lon="18.01733">
        <ele>34.8</ele>
      </trkpt>
      <trkpt lat="40.17958" lon="18.01733">
        <ele>34.8</ele>
      </trkpt>
      <trkpt lat="40.17959" lon="18.01734">
        <ele>34.8</ele>
      </trkpt>
      <trkpt lat="40.17962" lon="18.01776">
        <ele>34.7</ele>
      </trkpt>
      <trkpt lat="40.17962" lon="18.01802">
        <ele>34.4</ele>
      </trkpt>
      <trkpt lat="40.17962" lon="18.0185">
        <ele>34.3</ele>
      </trkpt>
      <trkpt lat="40.17971" lon="18.01943">
        <ele>36.0</ele>
      </trkpt>
      <trkpt lat="40.17981" lon="18.02006">
        <ele>37.1</ele>
      </trkpt>
      <trkpt lat="40.17982" lon="18.02016">
        <ele>36.9</ele>
      </trkpt>
      <trkpt lat="40.18003" lon="18.02146">
        <ele>35.6</ele>
      </trkpt>
      <trkpt lat="40.18003" lon="18.02158">
        <ele>35.7</ele>
      </trkpt>
      <trkpt lat="40.17996" lon="18.02246">
        <ele>33.2</ele>
      </trkpt>
      <trkpt lat="40.17994" lon="18.02272">
        <ele>33.3</ele>
      </trkpt>
      <trkpt lat="40.17992" lon="18.022849">
        <ele>33.4</ele>
      </trkpt>
      <trkpt lat="40.17989" lon="18.02328">
        <ele>33.8</ele>
      </trkpt>
      <trkpt lat="40.17988" lon="18.02384">
        <ele>34.7</ele>
      </trkpt>
      <trkpt lat="40.17988" lon="18.02391">
        <ele>34.8</ele>
      </trkpt>
      <trkpt lat="40.17988" lon="18.02393">
        <ele>34.9</ele>
      </trkpt>
      <trkpt lat="40.17988" lon="18.02425">
        <ele>35.6</ele>
      </trkpt>
      <trkpt lat="40.17987" lon="18.02448">
        <ele>36.4</ele>
      </trkpt>
      <trkpt lat="40.17988" lon="18.02487">
        <ele>37.8</ele>
      </trkpt>
      <trkpt lat="40.17988" lon="18.02508">
        <ele>38.3</ele>
      </trkpt>
      <trkpt lat="40.17988" lon="18.02565">
        <ele>38.3</ele>
      </trkpt>
      <trkpt lat="40.17988" lon="18.02581">
        <ele>38.3</ele>
      </trkpt>
      <trkpt lat="40.17988" lon="18.02582">
        <ele>38.3</ele>
      </trkpt>
      <trkpt lat="40.17988" lon="18.02583">
        <ele>38.3</ele>
      </trkpt>
      <trkpt lat="40.17988" lon="18.02584">
        <ele>38.3</ele>
      </trkpt>
      <trkpt lat="40.17988" lon="18.025849">
        <ele>38.3</ele>
      </trkpt>
      <trkpt lat="40.17984" lon="18.02596">
        <ele>38.8</ele>
      </trkpt>
      <trkpt lat="40.17981" lon="18.02603">
        <ele>39.1</ele>
      </trkpt>
      <trkpt lat="40.179699" lon="18.0261">
        <ele>39.4</ele>
      </trkpt>
      <trkpt lat="40.179699" lon="18.0261">
        <ele>39.4</ele>
      </trkpt>
      <trkpt lat="40.1798" lon="18.02621">
        <ele>39.6</ele>
      </trkpt>
      <trkpt lat="40.18" lon="18.026509">
        <ele>40.4</ele>
      </trkpt>
      <trkpt lat="40.18031" lon="18.02686">
        <ele>41.5</ele>
      </trkpt>
      <trkpt lat="40.18043" lon="18.027">
        <ele>41.7</ele>
      </trkpt>
      <trkpt lat="40.18067" lon="18.02733">
        <ele>42.0</ele>
      </trkpt>
      <trkpt lat="40.1809" lon="18.02762">
        <ele>42.1</ele>
      </trkpt>
      <trkpt lat="40.1809" lon="18.02762">
        <ele>42.1</ele>
      </trkpt>
      <trkpt lat="40.18066" lon="18.0279">
        <ele>43.0</ele>
      </trkpt>
      <trkpt lat="40.18066" lon="18.0279">
        <ele>43.0</ele>
      </trkpt>
      <trkpt lat="40.180459" lon="18.02815">
        <ele>43.6</ele>
      </trkpt>
      <trkpt lat="40.18033" lon="18.02833">
        <ele>44.0</ele>
      </trkpt>
      <trkpt lat="40.1803" lon="18.02843">
        <ele>44.0</ele>
      </trkpt>
      <trkpt lat="40.18015" lon="18.02881">
        <ele>44.0</ele>
      </trkpt>
      <trkpt lat="40.18011" lon="18.02899">
        <ele>44.0</ele>
      </trkpt>
      <trkpt lat="40.18021" lon="18.02935">
        <ele>44.2</ele>
      </trkpt>
      <trkpt lat="40.18022" lon="18.02941">
        <ele>44.2</ele>
      </trkpt>
      <trkpt lat="40.18027" lon="18.02969">
        <ele>44.4</ele>
      </trkpt>
      <trkpt lat="40.180295" lon="18.029806">
        <ele>44.5</ele>
      </trkpt>
      <trkpt lat="40.180135" lon="18.029961">
        <ele>44.8</ele>
      </trkpt>
      <trkpt lat="40.18013" lon="18.02995">
        <ele>44.8</ele>
      </trkpt>
      <trkpt lat="40.18004" lon="18.029979">
        <ele>44.9</ele>
      </trkpt>
      <trkpt lat="40.17998" lon="18.03">
        <ele>45.0</ele>
      </trkpt>
      <trkpt lat="40.17995" lon="18.03002">
        <ele>45.1</ele>
      </trkpt>
      <trkpt lat="40.17989" lon="18.030069">
        <ele>45.3</ele>
      </trkpt>
      <trkpt lat="40.17985" lon="18.03015">
        <ele>45.5</ele>
      </trkpt>
      <trkpt lat="40.17983" lon="18.03018">
        <ele>45.5</ele>
      </trkpt>
      <trkpt lat="40.17982" lon="18.030259">
        <ele>45.6</ele>
      </trkpt>
      <trkpt lat="40.179761" lon="18.030427">
        <ele>45.8</ele>
      </trkpt>
      <trkpt lat="40.179626" lon="18.030568">
        <ele>46.0</ele>
      </trkpt>
      <trkpt lat="40.179449" lon="18.030819">
        <ele>46.0</ele>
      </trkpt>
      <trkpt lat="40.179293" lon="18.031075">
        <ele>46.2</ele>
      </trkpt>
    </trkseg>
  </trk>
</gpx>
