<?xml version="1.0" encoding="UTF-8"?><gpx creator="Wikiloc - http://www.wikiloc.com" version="1.1" xmlns="http://www.topografix.com/GPX/1/1" xmlns:xsi="http://www.w3.org/2001/XMLSchema-instance" xsi:schemaLocation="http://www.topografix.com/GPX/1/1 http://www.topografix.com/GPX/1/1/gpx.xsd"><wpt lat="40.940461" lon="17.31366"><ele>14.06</ele><name><![CDATA[Partenza]]></name><cmt><![CDATA[Partenza]]></cmt></wpt><wpt lat="40.895796" lon="17.288417"><ele>124.696</ele><name><![CDATA[Casa Zen , foto]]></name><cmt><![CDATA[Casa Zen , foto]]></cmt></wpt><wpt lat="40.885817" lon="17.283399"><ele>154.499</ele><name><![CDATA[Attenzione]]></name><cmt><![CDATA[Attenzione]]></cmt></wpt><wpt lat="40.896199" lon="17.339838"><ele>34.684</ele><name><![CDATA[San Procopio]]></name><cmt><![CDATA[San Procopio]]></cmt></wpt><wpt lat="40.896801" lon="17.340267"><ele>31.574</ele><name><![CDATA[Frantoio ipogeo]]></name><cmt><![CDATA[Frantoio ipogeo]]></cmt></wpt><wpt lat="40.896772" lon="17.340213"><ele>31.942</ele><name><![CDATA[Grotte]]></name><cmt><![CDATA[Grotte]]></cmt></wpt><wpt lat="40.921023" lon="17.337378"><ele>4.952</ele><name><![CDATA[Prestare attenzione , scendere a piedi]]></name><cmt><![CDATA[Prestare attenzione , scendere a piedi]]></cmt></wpt><wpt lat="40.928486" lon="17.328291"><ele>7.168</ele><name><![CDATA[Ciclabile]]></name><cmt><![CDATA[Ciclabile]]></cmt></wpt><wpt lat="40.929592" lon="17.328237"><ele>8.184</ele><name><![CDATA[Porto ghiacciolo]]></name><cmt><![CDATA[Porto ghiacciolo]]></cmt></wpt><wpt lat="40.932436" lon="17.323572"><ele>11.924</ele><name><![CDATA[Attenzione]]></name><cmt><![CDATA[Attenzione]]></cmt></wpt><trk><name><![CDATA[Bici e radici 2025,Monopoli]]></name><cmt><![CDATA[La traccia è per la Mountain bike , si attraversano zone private , la traccia è solo indicativa.Ci sono dei punti tecnici segnalati, non adatti ai meno esperti.]]></cmt><desc><![CDATA[La traccia è per la Mountain bike , si attraversano zone private , la traccia è solo indicativa.Ci sono dei punti tecnici segnalati, non adatti ai meno esperti.]]></desc><trkseg><trkpt lat="40.940372" lon="17.313544"><ele>13.889</ele></trkpt><trkpt lat="40.940812" lon="17.314301"><ele>11.606</ele></trkpt><trkpt lat="40.941269" lon="17.313759"><ele>10.726</ele></trkpt><trkpt lat="40.941699" lon="17.313187"><ele>8.509</ele></trkpt><trkpt lat="40.94213" lon="17.312608"><ele>10.080</ele></trkpt><trkpt lat="40.94245" lon="17.31219"><ele>9.251</ele></trkpt><trkpt lat="40.942181" lon="17.311562"><ele>11.378</ele></trkpt><trkpt lat="40.941612" lon="17.310527"><ele>15.025</ele></trkpt><trkpt lat="40.941486" lon="17.309988"><ele>13.462</ele></trkpt><trkpt lat="40.941662" lon="17.30955"><ele>16.996</ele></trkpt><trkpt lat="40.941784" lon="17.30929"><ele>18.465</ele></trkpt><trkpt lat="40.941737" lon="17.30922"><ele>18.816</ele></trkpt><trkpt lat="40.94196" lon="17.308821"><ele>19.811</ele></trkpt><trkpt lat="40.94224" lon="17.308319"><ele>16.988</ele></trkpt><trkpt lat="40.942463" lon="17.307992"><ele>16.224</ele></trkpt><trkpt lat="40.942299" lon="17.307667"><ele>17.626</ele></trkpt><trkpt lat="40.942019" lon="17.307177"><ele>18.709</ele></trkpt><trkpt lat="40.941787" lon="17.306754"><ele>19.070</ele></trkpt><trkpt lat="40.94149" lon="17.306262"><ele>16.941</ele></trkpt><trkpt lat="40.941202" lon="17.305755"><ele>17.478</ele></trkpt><trkpt lat="40.940994" lon="17.305728"><ele>18.685</ele></trkpt><trkpt lat="40.940903" lon="17.305758"><ele>19.562</ele></trkpt><trkpt lat="40.940799" lon="17.305623"><ele>21.026</ele></trkpt><trkpt lat="40.940487" lon="17.304991"><ele>22.245</ele></trkpt><trkpt lat="40.940185" lon="17.304492"><ele>23.386</ele></trkpt><trkpt lat="40.939916" lon="17.303985"><ele>24.391</ele></trkpt><trkpt lat="40.939693" lon="17.303617"><ele>24.228</ele></trkpt><trkpt lat="40.939527" lon="17.303516"><ele>25.989</ele></trkpt><trkpt lat="40.93944" lon="17.30351"><ele>26.417</ele></trkpt><trkpt lat="40.939265" lon="17.303545"><ele>27.409</ele></trkpt><trkpt lat="40.939223" lon="17.303612"><ele>27.674</ele></trkpt><trkpt lat="40.939152" lon="17.30362"><ele>28.165</ele></trkpt><trkpt lat="40.938988" lon="17.303328"><ele>29.372</ele></trkpt><trkpt lat="40.938781" lon="17.302979"><ele>30.159</ele></trkpt><trkpt lat="40.938534" lon="17.302775"><ele>31.046</ele></trkpt><trkpt lat="40.938163" lon="17.302539"><ele>31.060</ele></trkpt><trkpt lat="40.937748" lon="17.302453"><ele>29.719</ele></trkpt><trkpt lat="40.937312" lon="17.30251"><ele>29.020</ele></trkpt><trkpt lat="40.937021" lon="17.302566"><ele>31.685</ele></trkpt><trkpt lat="40.936664" lon="17.302585"><ele>32.444</ele></trkpt><trkpt lat="40.936153" lon="17.302748"><ele>31.805</ele></trkpt><trkpt lat="40.935066" lon="17.303194"><ele>31.615</ele></trkpt><trkpt lat="40.935022" lon="17.303164"><ele>31.909</ele></trkpt><trkpt lat="40.934994" lon="17.302899"><ele>32.016</ele></trkpt><trkpt lat="40.934935" lon="17.302233"><ele>32.757</ele></trkpt><trkpt lat="40.934844" lon="17.30148"><ele>36.464</ele></trkpt><trkpt lat="40.934814" lon="17.300643"><ele>37.011</ele></trkpt><trkpt lat="40.934816" lon="17.299521"><ele>36.358</ele></trkpt><trkpt lat="40.934662" lon="17.299127"><ele>35.842</ele></trkpt><trkpt lat="40.934589" lon="17.298851"><ele>34.921</ele></trkpt><trkpt lat="40.934654" lon="17.298475"><ele>34.612</ele></trkpt><trkpt lat="40.934792" lon="17.297808"><ele>37.237</ele></trkpt><trkpt lat="40.934779" lon="17.296987"><ele>40.161</ele></trkpt><trkpt lat="40.934438" lon="17.296816"><ele>38.921</ele></trkpt><trkpt lat="40.933952" lon="17.296633"><ele>36.713</ele></trkpt><trkpt lat="40.933608" lon="17.296676"><ele>36.109</ele></trkpt><trkpt lat="40.933255" lon="17.296531"><ele>38.148</ele></trkpt><trkpt lat="40.932992" lon="17.29703"><ele>38.949</ele></trkpt><trkpt lat="40.932712" lon="17.297352"><ele>39.666</ele></trkpt><trkpt lat="40.932335" lon="17.297068"><ele>39.443</ele></trkpt><trkpt lat="40.931861" lon="17.296993"><ele>42.470</ele></trkpt><trkpt lat="40.93148" lon="17.296778"><ele>41.534</ele></trkpt><trkpt lat="40.931139" lon="17.296478"><ele>40.073</ele></trkpt><trkpt lat="40.930828" lon="17.29644"><ele>39.094</ele></trkpt><trkpt lat="40.930568" lon="17.296182"><ele>40.539</ele></trkpt><trkpt lat="40.929847" lon="17.295807"><ele>43.561</ele></trkpt><trkpt lat="40.929133" lon="17.295796"><ele>45.421</ele></trkpt><trkpt lat="40.928323" lon="17.295764"><ele>48.113</ele></trkpt><trkpt lat="40.927889" lon="17.295667"><ele>49.809</ele></trkpt><trkpt lat="40.927537" lon="17.295678"><ele>50.448</ele></trkpt><trkpt lat="40.926998" lon="17.295678"><ele>51.249</ele></trkpt><trkpt lat="40.926418" lon="17.295592"><ele>50.226</ele></trkpt><trkpt lat="40.925737" lon="17.29541"><ele>52.093</ele></trkpt><trkpt lat="40.924931" lon="17.295185"><ele>55.010</ele></trkpt><trkpt lat="40.924481" lon="17.295072"><ele>54.844</ele></trkpt><trkpt lat="40.924002" lon="17.294852"><ele>57.443</ele></trkpt><trkpt lat="40.923337" lon="17.294799"><ele>58.054</ele></trkpt><trkpt lat="40.9223" lon="17.294782"><ele>58.519</ele></trkpt><trkpt lat="40.921895" lon="17.294874"><ele>59.251</ele></trkpt><trkpt lat="40.920938" lon="17.294412"><ele>58.601</ele></trkpt><trkpt lat="40.920354" lon="17.294252"><ele>59.211</ele></trkpt><trkpt lat="40.918972" lon="17.294402"><ele>62.709</ele></trkpt><trkpt lat="40.918332" lon="17.294488"><ele>64.217</ele></trkpt><trkpt lat="40.917748" lon="17.293677"><ele>65.018</ele></trkpt><trkpt lat="40.917103" lon="17.293162"><ele>64.275</ele></trkpt><trkpt lat="40.916414" lon="17.292336"><ele>63.682</ele></trkpt><trkpt lat="40.915644" lon="17.291773"><ele>66.069</ele></trkpt><trkpt lat="40.914967" lon="17.291451"><ele>69.283</ele></trkpt><trkpt lat="40.913978" lon="17.291017"><ele>69.012</ele></trkpt><trkpt lat="40.913503" lon="17.290577"><ele>69.013</ele></trkpt><trkpt lat="40.913053" lon="17.29011"><ele>70.678</ele></trkpt><trkpt lat="40.912458" lon="17.289509"><ele>72.034</ele></trkpt><trkpt lat="40.911837" lon="17.288876"><ele>72.055</ele></trkpt><trkpt lat="40.911493" lon="17.288839"><ele>72.010</ele></trkpt><trkpt lat="40.910747" lon="17.288216"><ele>73.309</ele></trkpt><trkpt lat="40.910005" lon="17.287573"><ele>76.725</ele></trkpt><trkpt lat="40.90919" lon="17.287074"><ele>79.066</ele></trkpt><trkpt lat="40.908241" lon="17.286666"><ele>80.093</ele></trkpt><trkpt lat="40.907581" lon="17.286167"><ele>84.570</ele></trkpt><trkpt lat="40.906831" lon="17.285475"><ele>90.017</ele></trkpt><trkpt lat="40.906267" lon="17.28481"><ele>92.431</ele></trkpt><trkpt lat="40.905509" lon="17.284086"><ele>98.590</ele></trkpt><trkpt lat="40.905112" lon="17.283962"><ele>100.961</ele></trkpt><trkpt lat="40.904982" lon="17.283694"><ele>102.836</ele></trkpt><trkpt lat="40.904691" lon="17.283518"><ele>104.456</ele></trkpt><trkpt lat="40.904549" lon="17.283663"><ele>104.459</ele></trkpt><trkpt lat="40.904083" lon="17.283185"><ele>109.814</ele></trkpt><trkpt lat="40.903603" lon="17.283555"><ele>109.209</ele></trkpt><trkpt lat="40.90321" lon="17.284011"><ele>104.737</ele></trkpt><trkpt lat="40.902732" lon="17.284504"><ele>103.218</ele></trkpt><trkpt lat="40.902415" lon="17.28495"><ele>104.735</ele></trkpt><trkpt lat="40.902322" lon="17.285792"><ele>102.572</ele></trkpt><trkpt lat="40.902302" lon="17.28599"><ele>102.749</ele></trkpt><trkpt lat="40.90261" lon="17.287026"><ele>99.633</ele></trkpt><trkpt lat="40.903105" lon="17.287734"><ele>96.062</ele></trkpt><trkpt lat="40.903919" lon="17.288882"><ele>89.953</ele></trkpt><trkpt lat="40.90409" lon="17.289235"><ele>88.058</ele></trkpt><trkpt lat="40.904361" lon="17.289482"><ele>86.783</ele></trkpt><trkpt lat="40.904438" lon="17.289788"><ele>84.825</ele></trkpt><trkpt lat="40.904909" lon="17.29033"><ele>85.017</ele></trkpt><trkpt lat="40.905067" lon="17.290733"><ele>84.809</ele></trkpt><trkpt lat="40.905466" lon="17.291496"><ele>80.240</ele></trkpt><trkpt lat="40.906003" lon="17.292326"><ele>78.051</ele></trkpt><trkpt lat="40.905805" lon="17.292444"><ele>78.088</ele></trkpt><trkpt lat="40.90518" lon="17.292792"><ele>77.455</ele></trkpt><trkpt lat="40.904856" lon="17.292497"><ele>79.092</ele></trkpt><trkpt lat="40.90452" lon="17.292014"><ele>79.566</ele></trkpt><trkpt lat="40.903952" lon="17.292063"><ele>84.175</ele></trkpt><trkpt lat="40.903628" lon="17.292004"><ele>85.596</ele></trkpt><trkpt lat="40.903368" lon="17.291843"><ele>85.181</ele></trkpt><trkpt lat="40.902951" lon="17.291424"><ele>85.369</ele></trkpt><trkpt lat="40.902573" lon="17.291757"><ele>86.504</ele></trkpt><trkpt lat="40.901795" lon="17.291795"><ele>89.824</ele></trkpt><trkpt lat="40.901193" lon="17.291624"><ele>91.609</ele></trkpt><trkpt lat="40.900745" lon="17.29136"><ele>92.478</ele></trkpt><trkpt lat="40.900246" lon="17.290958"><ele>93.969</ele></trkpt><trkpt lat="40.899703" lon="17.29128"><ele>91.366</ele></trkpt><trkpt lat="40.899038" lon="17.290807"><ele>96.773</ele></trkpt><trkpt lat="40.898551" lon="17.290888"><ele>97.050</ele></trkpt><trkpt lat="40.898324" lon="17.291124"><ele>97.134</ele></trkpt><trkpt lat="40.897683" lon="17.291119"><ele>100.343</ele></trkpt><trkpt lat="40.897497" lon="17.290872"><ele>101.644</ele></trkpt><trkpt lat="40.896284" lon="17.290545"><ele>106.079</ele></trkpt><trkpt lat="40.896327" lon="17.289817"><ele>109.115</ele></trkpt><trkpt lat="40.896214" lon="17.289732"><ele>109.365</ele></trkpt><trkpt lat="40.8962" lon="17.289463"><ele>113.111</ele></trkpt><trkpt lat="40.896066" lon="17.289023"><ele>119.009</ele></trkpt><trkpt lat="40.895961" lon="17.28876"><ele>121.253</ele></trkpt><trkpt lat="40.895782" lon="17.288425"><ele>124.384</ele></trkpt><trkpt lat="40.895614" lon="17.288307"><ele>124.581</ele></trkpt><trkpt lat="40.895229" lon="17.287908"><ele>130.138</ele></trkpt><trkpt lat="40.895024" lon="17.287843"><ele>133.215</ele></trkpt><trkpt lat="40.89488" lon="17.288012"><ele>130.479</ele></trkpt><trkpt lat="40.894537" lon="17.288222"><ele>129.958</ele></trkpt><trkpt lat="40.894213" lon="17.288642"><ele>123.539</ele></trkpt><trkpt lat="40.893949" lon="17.288855"><ele>121.764</ele></trkpt><trkpt lat="40.893582" lon="17.288922"><ele>123.553</ele></trkpt><trkpt lat="40.893304" lon="17.289045"><ele>121.504</ele></trkpt><trkpt lat="40.89298" lon="17.288846"><ele>123.014</ele></trkpt><trkpt lat="40.892512" lon="17.288567"><ele>126.909</ele></trkpt><trkpt lat="40.892182" lon="17.288298"><ele>130.157</ele></trkpt><trkpt lat="40.891879" lon="17.288133"><ele>129.878</ele></trkpt><trkpt lat="40.891713" lon="17.287985"><ele>130.465</ele></trkpt><trkpt lat="40.891569" lon="17.287806"><ele>132.312</ele></trkpt><trkpt lat="40.891303" lon="17.287559"><ele>131.869</ele></trkpt><trkpt lat="40.891226" lon="17.28746"><ele>131.613</ele></trkpt><trkpt lat="40.891062" lon="17.287232"><ele>132.172</ele></trkpt><trkpt lat="40.890932" lon="17.287044"><ele>133.743</ele></trkpt><trkpt lat="40.890772" lon="17.286816"><ele>134.548</ele></trkpt><trkpt lat="40.890632" lon="17.286674"><ele>133.153</ele></trkpt><trkpt lat="40.890433" lon="17.286524"><ele>132.204</ele></trkpt><trkpt lat="40.890296" lon="17.286457"><ele>132.014</ele></trkpt><trkpt lat="40.890145" lon="17.286191"><ele>136.509</ele></trkpt><trkpt lat="40.890054" lon="17.286059"><ele>138.447</ele></trkpt><trkpt lat="40.889965" lon="17.285968"><ele>139.378</ele></trkpt><trkpt lat="40.889726" lon="17.285724"><ele>140.265</ele></trkpt><trkpt lat="40.889454" lon="17.285282"><ele>144.052</ele></trkpt><trkpt lat="40.88918" lon="17.285641"><ele>139.469</ele></trkpt><trkpt lat="40.888911" lon="17.285845"><ele>138.883</ele></trkpt><trkpt lat="40.888836" lon="17.285725"><ele>140.462</ele></trkpt><trkpt lat="40.888759" lon="17.285703"><ele>141.193</ele></trkpt><trkpt lat="40.888655" lon="17.285582"><ele>143.328</ele></trkpt><trkpt lat="40.888637" lon="17.285392"><ele>145.096</ele></trkpt><trkpt lat="40.888579" lon="17.285257"><ele>146.131</ele></trkpt><trkpt lat="40.888512" lon="17.285175"><ele>146.824</ele></trkpt><trkpt lat="40.888431" lon="17.284992"><ele>148.409</ele></trkpt><trkpt lat="40.888342" lon="17.284767"><ele>148.991</ele></trkpt><trkpt lat="40.8882" lon="17.284563"><ele>149.462</ele></trkpt><trkpt lat="40.887962" lon="17.28428"><ele>151.469</ele></trkpt><trkpt lat="40.887946" lon="17.284146"><ele>152.816</ele></trkpt><trkpt lat="40.887796" lon="17.284065"><ele>153.153</ele></trkpt><trkpt lat="40.887654" lon="17.284022"><ele>153.337</ele></trkpt><trkpt lat="40.887597" lon="17.283919"><ele>154.176</ele></trkpt><trkpt lat="40.88757" lon="17.283801"><ele>154.647</ele></trkpt><trkpt lat="40.887557" lon="17.283688"><ele>154.942</ele></trkpt><trkpt lat="40.88757" lon="17.283575"><ele>155.397</ele></trkpt><trkpt lat="40.887482" lon="17.283383"><ele>155.023</ele></trkpt><trkpt lat="40.887202" lon="17.28312"><ele>155.825</ele></trkpt><trkpt lat="40.886817" lon="17.282696"><ele>158.209</ele></trkpt><trkpt lat="40.886545" lon="17.28253"><ele>161.151</ele></trkpt><trkpt lat="40.886051" lon="17.28224"><ele>163.162</ele></trkpt><trkpt lat="40.885783" lon="17.28208"><ele>164.719</ele></trkpt><trkpt lat="40.885499" lon="17.28161"><ele>170.086</ele></trkpt><trkpt lat="40.885205" lon="17.281036"><ele>176.553</ele></trkpt><trkpt lat="40.884998" lon="17.28069"><ele>178.517</ele></trkpt><trkpt lat="40.884971" lon="17.280491"><ele>179.556</ele></trkpt><trkpt lat="40.884748" lon="17.279992"><ele>183.067</ele></trkpt><trkpt lat="40.884623" lon="17.27963"><ele>186.292</ele></trkpt><trkpt lat="40.884566" lon="17.279429"><ele>187.773</ele></trkpt><trkpt lat="40.884396" lon="17.279316"><ele>189.785</ele></trkpt><trkpt lat="40.884201" lon="17.279341"><ele>190.913</ele></trkpt><trkpt lat="40.883851" lon="17.279197"><ele>195.409</ele></trkpt><trkpt lat="40.88373" lon="17.279291"><ele>196.519</ele></trkpt><trkpt lat="40.883513" lon="17.279241"><ele>200.350</ele></trkpt><trkpt lat="40.883124" lon="17.279247"><ele>204.937</ele></trkpt><trkpt lat="40.882927" lon="17.279405"><ele>203.314</ele></trkpt><trkpt lat="40.882611" lon="17.279722"><ele>201.291</ele></trkpt><trkpt lat="40.88224" lon="17.280052"><ele>200.385</ele></trkpt><trkpt lat="40.882029" lon="17.280221"><ele>198.664</ele></trkpt><trkpt lat="40.881786" lon="17.280258"><ele>197.695</ele></trkpt><trkpt lat="40.881733" lon="17.280309"><ele>196.810</ele></trkpt><trkpt lat="40.881561" lon="17.28029"><ele>196.161</ele></trkpt><trkpt lat="40.881352" lon="17.280202"><ele>195.821</ele></trkpt><trkpt lat="40.881246" lon="17.280078"><ele>197.213</ele></trkpt><trkpt lat="40.881056" lon="17.279909"><ele>199.409</ele></trkpt><trkpt lat="40.880934" lon="17.279738"><ele>201.228</ele></trkpt><trkpt lat="40.880739" lon="17.279477"><ele>204.029</ele></trkpt><trkpt lat="40.880714" lon="17.279345"><ele>204.996</ele></trkpt><trkpt lat="40.880635" lon="17.279198"><ele>206.283</ele></trkpt><trkpt lat="40.880586" lon="17.279074"><ele>207.570</ele></trkpt><trkpt lat="40.880523" lon="17.279034"><ele>208.384</ele></trkpt><trkpt lat="40.88036" lon="17.279011"><ele>209.863</ele></trkpt><trkpt lat="40.880214" lon="17.279118"><ele>210.934</ele></trkpt><trkpt lat="40.880235" lon="17.279317"><ele>208.919</ele></trkpt><trkpt lat="40.880097" lon="17.279494"><ele>209.126</ele></trkpt><trkpt lat="40.879947" lon="17.279655"><ele>210.147</ele></trkpt><trkpt lat="40.879898" lon="17.280143"><ele>210.311</ele></trkpt><trkpt lat="40.879865" lon="17.280689"><ele>211.909</ele></trkpt><trkpt lat="40.879901" lon="17.280989"><ele>209.914</ele></trkpt><trkpt lat="40.879804" lon="17.281199"><ele>212.045</ele></trkpt><trkpt lat="40.879775" lon="17.281338"><ele>212.842</ele></trkpt><trkpt lat="40.879938" lon="17.281451"><ele>209.119</ele></trkpt><trkpt lat="40.879942" lon="17.281687"><ele>208.126</ele></trkpt><trkpt lat="40.879963" lon="17.281913"><ele>205.940</ele></trkpt><trkpt lat="40.880115" lon="17.281969"><ele>202.759</ele></trkpt><trkpt lat="40.880238" lon="17.282063"><ele>199.840</ele></trkpt><trkpt lat="40.880292" lon="17.281888"><ele>200.255</ele></trkpt><trkpt lat="40.880306" lon="17.28174"><ele>200.938</ele></trkpt><trkpt lat="40.880461" lon="17.281826"><ele>197.770</ele></trkpt><trkpt lat="40.880632" lon="17.281886"><ele>195.217</ele></trkpt><trkpt lat="40.880724" lon="17.281757"><ele>194.209</ele></trkpt><trkpt lat="40.880886" lon="17.281553"><ele>193.175</ele></trkpt><trkpt lat="40.881192" lon="17.281634"><ele>191.536</ele></trkpt><trkpt lat="40.881504" lon="17.281655"><ele>190.493</ele></trkpt><trkpt lat="40.881737" lon="17.28176"><ele>190.420</ele></trkpt><trkpt lat="40.881803" lon="17.281934"><ele>189.577</ele></trkpt><trkpt lat="40.881999" lon="17.28238"><ele>187.281</ele></trkpt><trkpt lat="40.882313" lon="17.282562"><ele>184.240</ele></trkpt><trkpt lat="40.882593" lon="17.282433"><ele>182.131</ele></trkpt><trkpt lat="40.882808" lon="17.282302"><ele>181.576</ele></trkpt><trkpt lat="40.883045" lon="17.282119"><ele>180.895</ele></trkpt><trkpt lat="40.883379" lon="17.282087"><ele>180.349</ele></trkpt><trkpt lat="40.883534" lon="17.281972"><ele>180.223</ele></trkpt><trkpt lat="40.883611" lon="17.28184"><ele>180.809</ele></trkpt><trkpt lat="40.883763" lon="17.281559"><ele>182.261</ele></trkpt><trkpt lat="40.883953" lon="17.281325"><ele>182.882</ele></trkpt><trkpt lat="40.884138" lon="17.281312"><ele>181.139</ele></trkpt><trkpt lat="40.884329" lon="17.28146"><ele>177.946</ele></trkpt><trkpt lat="40.884481" lon="17.281471"><ele>176.413</ele></trkpt><trkpt lat="40.884651" lon="17.281337"><ele>175.717</ele></trkpt><trkpt lat="40.884788" lon="17.28125"><ele>175.576</ele></trkpt><trkpt lat="40.884944" lon="17.281296"><ele>175.367</ele></trkpt><trkpt lat="40.885045" lon="17.281408"><ele>174.662</ele></trkpt><trkpt lat="40.885124" lon="17.281518"><ele>173.279</ele></trkpt><trkpt lat="40.885051" lon="17.281634"><ele>172.205</ele></trkpt><trkpt lat="40.885053" lon="17.281827"><ele>170.125</ele></trkpt><trkpt lat="40.885144" lon="17.281957"><ele>168.409</ele></trkpt><trkpt lat="40.885241" lon="17.282051"><ele>167.039</ele></trkpt><trkpt lat="40.885405" lon="17.282038"><ele>166.510</ele></trkpt><trkpt lat="40.88557" lon="17.282057"><ele>165.737</ele></trkpt><trkpt lat="40.885669" lon="17.282125"><ele>164.834</ele></trkpt><trkpt lat="40.885787" lon="17.282172"><ele>164.281</ele></trkpt><trkpt lat="40.885866" lon="17.282327"><ele>162.865</ele></trkpt><trkpt lat="40.885901" lon="17.282421"><ele>162.074</ele></trkpt><trkpt lat="40.885944" lon="17.282565"><ele>160.745</ele></trkpt><trkpt lat="40.886012" lon="17.282787"><ele>158.680</ele></trkpt><trkpt lat="40.885929" lon="17.283053"><ele>157.018</ele></trkpt><trkpt lat="40.885841" lon="17.283313"><ele>155.298</ele></trkpt><trkpt lat="40.885738" lon="17.283305"><ele>155.217</ele></trkpt><trkpt lat="40.885712" lon="17.283399"><ele>154.309</ele></trkpt><trkpt lat="40.88578" lon="17.283514"><ele>153.443</ele></trkpt><trkpt lat="40.885764" lon="17.283675"><ele>152.484</ele></trkpt><trkpt lat="40.885643" lon="17.283978"><ele>150.641</ele></trkpt><trkpt lat="40.885452" lon="17.28411"><ele>148.128</ele></trkpt><trkpt lat="40.885306" lon="17.284204"><ele>146.135</ele></trkpt><trkpt lat="40.885239" lon="17.28434"><ele>145.619</ele></trkpt><trkpt lat="40.885294" lon="17.284526"><ele>144.478</ele></trkpt><trkpt lat="40.885343" lon="17.284654"><ele>143.439</ele></trkpt><trkpt lat="40.885367" lon="17.284783"><ele>142.884</ele></trkpt><trkpt lat="40.885456" lon="17.284989"><ele>142.166</ele></trkpt><trkpt lat="40.885659" lon="17.285145"><ele>140.629</ele></trkpt><trkpt lat="40.885777" lon="17.285329"><ele>139.221</ele></trkpt><trkpt lat="40.885814" lon="17.285458"><ele>138.509</ele></trkpt><trkpt lat="40.885821" lon="17.285724"><ele>137.598</ele></trkpt><trkpt lat="40.885777" lon="17.28593"><ele>136.899</ele></trkpt><trkpt lat="40.885758" lon="17.286175"><ele>135.416</ele></trkpt><trkpt lat="40.885622" lon="17.286306"><ele>135.953</ele></trkpt><trkpt lat="40.885535" lon="17.286481"><ele>134.870</ele></trkpt><trkpt lat="40.885519" lon="17.286642"><ele>132.654</ele></trkpt><trkpt lat="40.885533" lon="17.286895"><ele>130.533</ele></trkpt><trkpt lat="40.88547" lon="17.287503"><ele>127.344</ele></trkpt><trkpt lat="40.885649" lon="17.287484"><ele>127.199</ele></trkpt><trkpt lat="40.885821" lon="17.28731"><ele>127.758</ele></trkpt><trkpt lat="40.886109" lon="17.287361"><ele>126.552</ele></trkpt><trkpt lat="40.88649" lon="17.287581"><ele>123.817</ele></trkpt><trkpt lat="40.886837" lon="17.287929"><ele>122.209</ele></trkpt><trkpt lat="40.887155" lon="17.288334"><ele>121.887</ele></trkpt><trkpt lat="40.887216" lon="17.288471"><ele>121.538</ele></trkpt><trkpt lat="40.88708" lon="17.288731"><ele>120.395</ele></trkpt><trkpt lat="40.886811" lon="17.289085"><ele>118.332</ele></trkpt><trkpt lat="40.886541" lon="17.28938"><ele>118.169</ele></trkpt><trkpt lat="40.886431" lon="17.289796"><ele>118.923</ele></trkpt><trkpt lat="40.886089" lon="17.290263"><ele>121.152</ele></trkpt><trkpt lat="40.886131" lon="17.290611"><ele>119.593</ele></trkpt><trkpt lat="40.886012" lon="17.291043"><ele>116.878</ele></trkpt><trkpt lat="40.885833" lon="17.291526"><ele>118.529</ele></trkpt><trkpt lat="40.885588" lon="17.291936"><ele>119.900</ele></trkpt><trkpt lat="40.885326" lon="17.292282"><ele>119.820</ele></trkpt><trkpt lat="40.885359" lon="17.292395"><ele>119.409</ele></trkpt><trkpt lat="40.885592" lon="17.292441"><ele>119.164</ele></trkpt><trkpt lat="40.885963" lon="17.292602"><ele>117.665</ele></trkpt><trkpt lat="40.886375" lon="17.292773"><ele>116.162</ele></trkpt><trkpt lat="40.886575" lon="17.293393"><ele>115.339</ele></trkpt><trkpt lat="40.887046" lon="17.293679"><ele>115.046</ele></trkpt><trkpt lat="40.887206" lon="17.294192"><ele>115.010</ele></trkpt><trkpt lat="40.887443" lon="17.294103"><ele>114.289</ele></trkpt><trkpt lat="40.887548" lon="17.29443"><ele>114.050</ele></trkpt><trkpt lat="40.887705" lon="17.295021"><ele>112.145</ele></trkpt><trkpt lat="40.887968" lon="17.295718"><ele>107.554</ele></trkpt><trkpt lat="40.888183" lon="17.296265"><ele>104.856</ele></trkpt><trkpt lat="40.888303" lon="17.296622"><ele>103.211</ele></trkpt><trkpt lat="40.888616" lon="17.29718"><ele>102.109</ele></trkpt><trkpt lat="40.888759" lon="17.297679"><ele>100.647</ele></trkpt><trkpt lat="40.888676" lon="17.29839"><ele>99.018</ele></trkpt><trkpt lat="40.888526" lon="17.29906"><ele>98.185</ele></trkpt><trkpt lat="40.888461" lon="17.299508"><ele>95.562</ele></trkpt><trkpt lat="40.888642" lon="17.299959"><ele>92.299</ele></trkpt><trkpt lat="40.888757" lon="17.300283"><ele>89.923</ele></trkpt><trkpt lat="40.88864" lon="17.300493"><ele>90.142</ele></trkpt><trkpt lat="40.888638" lon="17.300758"><ele>89.213</ele></trkpt><trkpt lat="40.888684" lon="17.301222"><ele>88.478</ele></trkpt><trkpt lat="40.888701" lon="17.301791"><ele>86.624</ele></trkpt><trkpt lat="40.888909" lon="17.301869"><ele>86.304</ele></trkpt><trkpt lat="40.889325" lon="17.302056"><ele>87.414</ele></trkpt><trkpt lat="40.889901" lon="17.302276"><ele>86.709</ele></trkpt><trkpt lat="40.89044" lon="17.302418"><ele>85.434</ele></trkpt><trkpt lat="40.891046" lon="17.302577"><ele>84.735</ele></trkpt><trkpt lat="40.891561" lon="17.302716"><ele>83.282</ele></trkpt><trkpt lat="40.891945" lon="17.302654"><ele>83.419</ele></trkpt><trkpt lat="40.892437" lon="17.302531"><ele>82.236</ele></trkpt><trkpt lat="40.893005" lon="17.302392"><ele>82.480</ele></trkpt><trkpt lat="40.893315" lon="17.302222"><ele>82.979</ele></trkpt><trkpt lat="40.893725" lon="17.302212"><ele>81.690</ele></trkpt><trkpt lat="40.894266" lon="17.302332"><ele>79.875</ele></trkpt><trkpt lat="40.895282" lon="17.302383"><ele>78.665</ele></trkpt><trkpt lat="40.895398" lon="17.302461"><ele>78.168</ele></trkpt><trkpt lat="40.895596" lon="17.302397"><ele>77.014</ele></trkpt><trkpt lat="40.896067" lon="17.302397"><ele>77.009</ele></trkpt><trkpt lat="40.896336" lon="17.302384"><ele>77.058</ele></trkpt><trkpt lat="40.896657" lon="17.302429"><ele>75.829</ele></trkpt><trkpt lat="40.896799" lon="17.302432"><ele>74.966</ele></trkpt><trkpt lat="40.896945" lon="17.302357"><ele>74.093</ele></trkpt><trkpt lat="40.897176" lon="17.302298"><ele>74.040</ele></trkpt><trkpt lat="40.897336" lon="17.302351"><ele>74.474</ele></trkpt><trkpt lat="40.897583" lon="17.302394"><ele>75.013</ele></trkpt><trkpt lat="40.897977" lon="17.302292"><ele>75.054</ele></trkpt><trkpt lat="40.898266" lon="17.302147"><ele>74.289</ele></trkpt><trkpt lat="40.898747" lon="17.302051"><ele>73.086</ele></trkpt><trkpt lat="40.899254" lon="17.30189"><ele>73.760</ele></trkpt><trkpt lat="40.899714" lon="17.301767"><ele>72.726</ele></trkpt><trkpt lat="40.900247" lon="17.301694"><ele>72.909</ele></trkpt><trkpt lat="40.900614" lon="17.301761"><ele>73.030</ele></trkpt><trkpt lat="40.900801" lon="17.301852"><ele>73.091</ele></trkpt><trkpt lat="40.90104" lon="17.302091"><ele>72.328</ele></trkpt><trkpt lat="40.901378" lon="17.302368"><ele>70.155</ele></trkpt><trkpt lat="40.901747" lon="17.302668"><ele>69.632</ele></trkpt><trkpt lat="40.902129" lon="17.303049"><ele>71.076</ele></trkpt><trkpt lat="40.902416" lon="17.303419"><ele>69.555</ele></trkpt><trkpt lat="40.902737" lon="17.303867"><ele>69.166</ele></trkpt><trkpt lat="40.903089" lon="17.304283"><ele>66.981</ele></trkpt><trkpt lat="40.902591" lon="17.304825"><ele>66.695</ele></trkpt><trkpt lat="40.902296" lon="17.305503"><ele>67.849</ele></trkpt><trkpt lat="40.901995" lon="17.306013"><ele>67.223</ele></trkpt><trkpt lat="40.901759" lon="17.306136"><ele>66.909</ele></trkpt><trkpt lat="40.901431" lon="17.306243"><ele>67.441</ele></trkpt><trkpt lat="40.901263" lon="17.306407"><ele>66.922</ele></trkpt><trkpt lat="40.901034" lon="17.306632"><ele>66.189</ele></trkpt><trkpt lat="40.900857" lon="17.306831"><ele>66.066</ele></trkpt><trkpt lat="40.900726" lon="17.307067"><ele>65.933</ele></trkpt><trkpt lat="40.900478" lon="17.307415"><ele>66.317</ele></trkpt><trkpt lat="40.899963" lon="17.30789"><ele>67.746</ele></trkpt><trkpt lat="40.899386" lon="17.308226"><ele>69.697</ele></trkpt><trkpt lat="40.898816" lon="17.308588"><ele>71.292</ele></trkpt><trkpt lat="40.898372" lon="17.30892"><ele>70.128</ele></trkpt><trkpt lat="40.89792" lon="17.309355"><ele>70.889</ele></trkpt><trkpt lat="40.897618" lon="17.309679"><ele>70.717</ele></trkpt><trkpt lat="40.897233" lon="17.310076"><ele>71.009</ele></trkpt><trkpt lat="40.896843" lon="17.310624"><ele>70.094</ele></trkpt><trkpt lat="40.896868" lon="17.310795"><ele>70.085</ele></trkpt><trkpt lat="40.896527" lon="17.31149"><ele>71.292</ele></trkpt><trkpt lat="40.896282" lon="17.311972"><ele>72.369</ele></trkpt><trkpt lat="40.895503" lon="17.312705"><ele>73.126</ele></trkpt><trkpt lat="40.89481" lon="17.313521"><ele>72.260</ele></trkpt><trkpt lat="40.89423" lon="17.314298"><ele>72.039</ele></trkpt><trkpt lat="40.893606" lon="17.315012"><ele>71.160</ele></trkpt><trkpt lat="40.893537" lon="17.315109"><ele>71.995</ele></trkpt><trkpt lat="40.893606" lon="17.315313"><ele>73.088</ele></trkpt><trkpt lat="40.893853" lon="17.315441"><ele>72.124</ele></trkpt><trkpt lat="40.894007" lon="17.315602"><ele>71.526</ele></trkpt><trkpt lat="40.894615" lon="17.315811"><ele>68.709</ele></trkpt><trkpt lat="40.894786" lon="17.315881"><ele>69.280</ele></trkpt><trkpt lat="40.895033" lon="17.316581"><ele>69.991</ele></trkpt><trkpt lat="40.895062" lon="17.316888"><ele>69.328</ele></trkpt><trkpt lat="40.895187" lon="17.317694"><ele>67.245</ele></trkpt><trkpt lat="40.895181" lon="17.318061"><ele>67.032</ele></trkpt><trkpt lat="40.894157" lon="17.318117"><ele>69.066</ele></trkpt><trkpt lat="40.893301" lon="17.3183"><ele>71.085</ele></trkpt><trkpt lat="40.8929" lon="17.318442"><ele>70.936</ele></trkpt><trkpt lat="40.892916" lon="17.318839"><ele>71.991</ele></trkpt><trkpt lat="40.892525" lon="17.31941"><ele>66.454</ele></trkpt><trkpt lat="40.892127" lon="17.319933"><ele>66.356</ele></trkpt><trkpt lat="40.891845" lon="17.320346"><ele>68.811</ele></trkpt><trkpt lat="40.890913" lon="17.321349"><ele>69.909</ele></trkpt><trkpt lat="40.891046" lon="17.321588"><ele>68.787</ele></trkpt><trkpt lat="40.891395" lon="17.32191"><ele>68.978</ele></trkpt><trkpt lat="40.891689" lon="17.322154"><ele>69.995</ele></trkpt><trkpt lat="40.891862" lon="17.322219"><ele>69.322</ele></trkpt><trkpt lat="40.892196" lon="17.322449"><ele>69.079</ele></trkpt><trkpt lat="40.8925" lon="17.322892"><ele>67.693</ele></trkpt><trkpt lat="40.892561" lon="17.323184"><ele>67.732</ele></trkpt><trkpt lat="40.892845" lon="17.323646"><ele>68.963</ele></trkpt><trkpt lat="40.893135" lon="17.32405"><ele>69.058</ele></trkpt><trkpt lat="40.893506" lon="17.324635"><ele>66.987</ele></trkpt><trkpt lat="40.89366" lon="17.324844"><ele>66.442</ele></trkpt><trkpt lat="40.893786" lon="17.324906"><ele>66.726</ele></trkpt><trkpt lat="40.893899" lon="17.325129"><ele>66.109</ele></trkpt><trkpt lat="40.894124" lon="17.325577"><ele>66.770</ele></trkpt><trkpt lat="40.894327" lon="17.326062"><ele>65.451</ele></trkpt><trkpt lat="40.894475" lon="17.326405"><ele>63.088</ele></trkpt><trkpt lat="40.894694" lon="17.326507"><ele>63.145</ele></trkpt><trkpt lat="40.894793" lon="17.326635"><ele>62.062</ele></trkpt><trkpt lat="40.894749" lon="17.326858"><ele>60.566</ele></trkpt><trkpt lat="40.894714" lon="17.327037"><ele>59.455</ele></trkpt><trkpt lat="40.894863" lon="17.32734"><ele>57.146</ele></trkpt><trkpt lat="40.895158" lon="17.327798"><ele>54.371</ele></trkpt><trkpt lat="40.895319" lon="17.328087"><ele>52.661</ele></trkpt><trkpt lat="40.895491" lon="17.3282"><ele>50.921</ele></trkpt><trkpt lat="40.895416" lon="17.328404"><ele>50.813</ele></trkpt><trkpt lat="40.895114" lon="17.328827"><ele>51.909</ele></trkpt><trkpt lat="40.894609" lon="17.328937"><ele>56.298</ele></trkpt><trkpt lat="40.894495" lon="17.32927"><ele>55.189</ele></trkpt><trkpt lat="40.894449" lon="17.329418"><ele>55.016</ele></trkpt><trkpt lat="40.894098" lon="17.329619"><ele>55.793</ele></trkpt><trkpt lat="40.894161" lon="17.33001"><ele>53.060</ele></trkpt><trkpt lat="40.894205" lon="17.330316"><ele>52.774</ele></trkpt><trkpt lat="40.894258" lon="17.33063"><ele>52.233</ele></trkpt><trkpt lat="40.894204" lon="17.330788"><ele>52.054</ele></trkpt><trkpt lat="40.893922" lon="17.330976"><ele>51.969</ele></trkpt><trkpt lat="40.893249" lon="17.331271"><ele>51.462</ele></trkpt><trkpt lat="40.893076" lon="17.33136"><ele>51.183</ele></trkpt><trkpt lat="40.892957" lon="17.33135"><ele>51.911</ele></trkpt><trkpt lat="40.892436" lon="17.330847"><ele>57.209</ele></trkpt><trkpt lat="40.892265" lon="17.330461"><ele>59.278</ele></trkpt><trkpt lat="40.892022" lon="17.329868"><ele>61.539</ele></trkpt><trkpt lat="40.891896" lon="17.329557"><ele>63.286</ele></trkpt><trkpt lat="40.891764" lon="17.329632"><ele>62.773</ele></trkpt><trkpt lat="40.891377" lon="17.330155"><ele>61.660</ele></trkpt><trkpt lat="40.891085" lon="17.330617"><ele>65.314</ele></trkpt><trkpt lat="40.890641" lon="17.331099"><ele>67.713</ele></trkpt><trkpt lat="40.890444" lon="17.331467"><ele>66.984</ele></trkpt><trkpt lat="40.890276" lon="17.331692"><ele>66.099</ele></trkpt><trkpt lat="40.889996" lon="17.332136"><ele>65.396</ele></trkpt><trkpt lat="40.889524" lon="17.332792"><ele>61.631</ele></trkpt><trkpt lat="40.889008" lon="17.333432"><ele>62.024</ele></trkpt><trkpt lat="40.888571" lon="17.333731"><ele>61.409</ele></trkpt><trkpt lat="40.888177" lon="17.333918"><ele>61.421</ele></trkpt><trkpt lat="40.887911" lon="17.334013"><ele>62.472</ele></trkpt><trkpt lat="40.887785" lon="17.333951"><ele>64.339</ele></trkpt><trkpt lat="40.887735" lon="17.33397"><ele>64.286</ele></trkpt><trkpt lat="40.887705" lon="17.334002"><ele>63.933</ele></trkpt><trkpt lat="40.887816" lon="17.334077"><ele>62.627</ele></trkpt><trkpt lat="40.887855" lon="17.334517"><ele>60.536</ele></trkpt><trkpt lat="40.887952" lon="17.33463"><ele>59.797</ele></trkpt><trkpt lat="40.88791" lon="17.334691"><ele>59.692</ele></trkpt><trkpt lat="40.887766" lon="17.334581"><ele>60.593</ele></trkpt><trkpt lat="40.887926" lon="17.334474"><ele>60.465</ele></trkpt><trkpt lat="40.888212" lon="17.334337"><ele>58.721</ele></trkpt><trkpt lat="40.888506" lon="17.334219"><ele>57.409</ele></trkpt><trkpt lat="40.889031" lon="17.333929"><ele>58.591</ele></trkpt><trkpt lat="40.889528" lon="17.333677"><ele>59.252</ele></trkpt><trkpt lat="40.890029" lon="17.333436"><ele>56.699</ele></trkpt><trkpt lat="40.890223" lon="17.333417"><ele>56.596</ele></trkpt><trkpt lat="40.890454" lon="17.33346"><ele>55.573</ele></trkpt><trkpt lat="40.890744" lon="17.333368"><ele>54.487</ele></trkpt><trkpt lat="40.891199" lon="17.333146"><ele>54.576</ele></trkpt><trkpt lat="40.891405" lon="17.333114"><ele>54.347</ele></trkpt><trkpt lat="40.891701" lon="17.333403"><ele>50.432</ele></trkpt><trkpt lat="40.892091" lon="17.333806"><ele>48.817</ele></trkpt><trkpt lat="40.892433" lon="17.334098"><ele>48.887</ele></trkpt><trkpt lat="40.892289" lon="17.33435"><ele>47.615</ele></trkpt><trkpt lat="40.891993" lon="17.334659"><ele>46.909</ele></trkpt><trkpt lat="40.891738" lon="17.3349"><ele>47.583</ele></trkpt><trkpt lat="40.891805" lon="17.335632"><ele>46.154</ele></trkpt><trkpt lat="40.891837" lon="17.336206"><ele>44.461</ele></trkpt><trkpt lat="40.89231" lon="17.336853"><ele>43.328</ele></trkpt><trkpt lat="40.892744" lon="17.337478"><ele>40.255</ele></trkpt><trkpt lat="40.892885" lon="17.3377"><ele>40.019</ele></trkpt><trkpt lat="40.893113" lon="17.338237"><ele>40.978</ele></trkpt><trkpt lat="40.893484" lon="17.338832"><ele>42.049</ele></trkpt><trkpt lat="40.893907" lon="17.339186"><ele>41.964</ele></trkpt><trkpt lat="40.894293" lon="17.339473"><ele>41.052</ele></trkpt><trkpt lat="40.894737" lon="17.339132"><ele>39.153</ele></trkpt><trkpt lat="40.894972" lon="17.338865"><ele>39.908</ele></trkpt><trkpt lat="40.895278" lon="17.338561"><ele>39.009</ele></trkpt><trkpt lat="40.895631" lon="17.338301"><ele>39.087</ele></trkpt><trkpt lat="40.896322" lon="17.337692"><ele>39.548</ele></trkpt><trkpt lat="40.89678" lon="17.33729"><ele>38.975</ele></trkpt><trkpt lat="40.897245" lon="17.336901"><ele>38.972</ele></trkpt><trkpt lat="40.897453" lon="17.336721"><ele>38.819</ele></trkpt><trkpt lat="40.897674" lon="17.33667"><ele>38.413</ele></trkpt><trkpt lat="40.897839" lon="17.336498"><ele>37.932</ele></trkpt><trkpt lat="40.898068" lon="17.33622"><ele>37.053</ele></trkpt><trkpt lat="40.898696" lon="17.335702"><ele>38.648</ele></trkpt><trkpt lat="40.89913" lon="17.335334"><ele>39.096</ele></trkpt><trkpt lat="40.89968" lon="17.334865"><ele>38.231</ele></trkpt><trkpt lat="40.900113" lon="17.334524"><ele>37.624</ele></trkpt><trkpt lat="40.900205" lon="17.334624"><ele>37.909</ele></trkpt><trkpt lat="40.900257" lon="17.334758"><ele>38.081</ele></trkpt><trkpt lat="40.899807" lon="17.335123"><ele>37.912</ele></trkpt><trkpt lat="40.899163" lon="17.335713"><ele>38.419</ele></trkpt><trkpt lat="40.89879" lon="17.335984"><ele>38.316</ele></trkpt><trkpt lat="40.898441" lon="17.336292"><ele>37.123</ele></trkpt><trkpt lat="40.897958" lon="17.336686"><ele>38.087</ele></trkpt><trkpt lat="40.897798" lon="17.336858"><ele>38.056</ele></trkpt><trkpt lat="40.897265" lon="17.337335"><ele>37.977</ele></trkpt><trkpt lat="40.896815" lon="17.337692"><ele>37.552</ele></trkpt><trkpt lat="40.896367" lon="17.338052"><ele>38.212</ele></trkpt><trkpt lat="40.896308" lon="17.338272"><ele>38.632</ele></trkpt><trkpt lat="40.896267" lon="17.33862"><ele>38.005</ele></trkpt><trkpt lat="40.896253" lon="17.338972"><ele>36.609</ele></trkpt><trkpt lat="40.896229" lon="17.33931"><ele>35.293</ele></trkpt><trkpt lat="40.896245" lon="17.339544"><ele>34.844</ele></trkpt><trkpt lat="40.896272" lon="17.339658"><ele>34.671</ele></trkpt><trkpt lat="40.896112" lon="17.339779"><ele>35.078</ele></trkpt><trkpt lat="40.896276" lon="17.339698"><ele>34.525</ele></trkpt><trkpt lat="40.896373" lon="17.339833"><ele>34.119</ele></trkpt><trkpt lat="40.896507" lon="17.340093"><ele>33.238</ele></trkpt><trkpt lat="40.896752" lon="17.340184"><ele>32.129</ele></trkpt><trkpt lat="40.896869" lon="17.340246"><ele>31.534</ele></trkpt><trkpt lat="40.896699" lon="17.340208"><ele>32.232</ele></trkpt><trkpt lat="40.896527" lon="17.340114"><ele>33.192</ele></trkpt><trkpt lat="40.896393" lon="17.340227"><ele>33.211</ele></trkpt><trkpt lat="40.896318" lon="17.340224"><ele>33.709</ele></trkpt><trkpt lat="40.89617" lon="17.339999"><ele>34.855</ele></trkpt><trkpt lat="40.896036" lon="17.339835"><ele>35.566</ele></trkpt><trkpt lat="40.895872" lon="17.339929"><ele>36.723</ele></trkpt><trkpt lat="40.895648" lon="17.33984"><ele>38.080</ele></trkpt><trkpt lat="40.895354" lon="17.339786"><ele>38.827</ele></trkpt><trkpt lat="40.895071" lon="17.339712"><ele>39.011</ele></trkpt><trkpt lat="40.894745" lon="17.339634"><ele>39.960</ele></trkpt><trkpt lat="40.894524" lon="17.339671"><ele>40.781</ele></trkpt><trkpt lat="40.894479" lon="17.33983"><ele>40.936</ele></trkpt><trkpt lat="40.894345" lon="17.340061"><ele>41.071</ele></trkpt><trkpt lat="40.893956" lon="17.340541"><ele>39.141</ele></trkpt><trkpt lat="40.893506" lon="17.340943"><ele>38.415</ele></trkpt><trkpt lat="40.893409" lon="17.341126"><ele>38.709</ele></trkpt><trkpt lat="40.89328" lon="17.341299"><ele>39.159</ele></trkpt><trkpt lat="40.892865" lon="17.341568"><ele>39.770</ele></trkpt><trkpt lat="40.89254" lon="17.341807"><ele>40.447</ele></trkpt><trkpt lat="40.891994" lon="17.342478"><ele>41.044</ele></trkpt><trkpt lat="40.891365" lon="17.34338"><ele>40.071</ele></trkpt><trkpt lat="40.890927" lon="17.344023"><ele>40.215</ele></trkpt><trkpt lat="40.891374" lon="17.344763"><ele>37.984</ele></trkpt><trkpt lat="40.891885" lon="17.345621"><ele>36.065</ele></trkpt><trkpt lat="40.892018" lon="17.345845"><ele>36.010</ele></trkpt><trkpt lat="40.892135" lon="17.345923"><ele>36.125</ele></trkpt><trkpt lat="40.892272" lon="17.345899"><ele>35.826</ele></trkpt><trkpt lat="40.892426" lon="17.345899"><ele>35.308</ele></trkpt><trkpt lat="40.892606" lon="17.345961"><ele>34.609</ele></trkpt><trkpt lat="40.89273" lon="17.345985"><ele>34.284</ele></trkpt><trkpt lat="40.892868" lon="17.346017"><ele>33.855</ele></trkpt><trkpt lat="40.892974" lon="17.346162"><ele>33.312</ele></trkpt><trkpt lat="40.893169" lon="17.346353"><ele>32.669</ele></trkpt><trkpt lat="40.893333" lon="17.346525"><ele>32.596</ele></trkpt><trkpt lat="40.893621" lon="17.346576"><ele>32.040</ele></trkpt><trkpt lat="40.893834" lon="17.346578"><ele>32.029</ele></trkpt><trkpt lat="40.89404" lon="17.346708"><ele>31.550</ele></trkpt><trkpt lat="40.894317" lon="17.346815"><ele>30.715</ele></trkpt><trkpt lat="40.894635" lon="17.346876"><ele>30.197</ele></trkpt><trkpt lat="40.894868" lon="17.34697"><ele>30.123</ele></trkpt><trkpt lat="40.894999" lon="17.346887"><ele>30.225</ele></trkpt><trkpt lat="40.895218" lon="17.346908"><ele>30.009</ele></trkpt><trkpt lat="40.895512" lon="17.346914"><ele>29.071</ele></trkpt><trkpt lat="40.895628" lon="17.346755"><ele>27.532</ele></trkpt><trkpt lat="40.8958" lon="17.346645"><ele>27.179</ele></trkpt><trkpt lat="40.895859" lon="17.346224"><ele>29.466</ele></trkpt><trkpt lat="40.8959" lon="17.345967"><ele>31.163</ele></trkpt><trkpt lat="40.895752" lon="17.345626"><ele>30.717</ele></trkpt><trkpt lat="40.895484" lon="17.345208"><ele>30.466</ele></trkpt><trkpt lat="40.895257" lon="17.344797"><ele>31.727</ele></trkpt><trkpt lat="40.895044" lon="17.344483"><ele>30.482</ele></trkpt><trkpt lat="40.894758" lon="17.344181"><ele>31.117</ele></trkpt><trkpt lat="40.894677" lon="17.344089"><ele>31.487</ele></trkpt><trkpt lat="40.894566" lon="17.344011"><ele>31.815</ele></trkpt><trkpt lat="40.894612" lon="17.343864"><ele>32.009</ele></trkpt><trkpt lat="40.894928" lon="17.344167"><ele>31.743</ele></trkpt><trkpt lat="40.895241" lon="17.344564"><ele>31.834</ele></trkpt><trkpt lat="40.895531" lon="17.344985"><ele>31.131</ele></trkpt><trkpt lat="40.895798" lon="17.3454"><ele>30.988</ele></trkpt><trkpt lat="40.895973" lon="17.345719"><ele>32.575</ele></trkpt><trkpt lat="40.8961" lon="17.345881"><ele>33.559</ele></trkpt><trkpt lat="40.896386" lon="17.34604"><ele>34.248</ele></trkpt><trkpt lat="40.896613" lon="17.346297"><ele>32.749</ele></trkpt><trkpt lat="40.897092" lon="17.346742"><ele>27.334</ele></trkpt><trkpt lat="40.897451" lon="17.347093"><ele>23.937</ele></trkpt><trkpt lat="40.897755" lon="17.347364"><ele>21.649</ele></trkpt><trkpt lat="40.898091" lon="17.347708"><ele>22.713</ele></trkpt><trkpt lat="40.89829" lon="17.347914"><ele>22.309</ele></trkpt><trkpt lat="40.898549" lon="17.348196"><ele>21.525</ele></trkpt><trkpt lat="40.898872" lon="17.348488"><ele>20.076</ele></trkpt><trkpt lat="40.899001" lon="17.348774"><ele>18.883</ele></trkpt><trkpt lat="40.899104" lon="17.349012"><ele>18.370</ele></trkpt><trkpt lat="40.899206" lon="17.349521"><ele>18.087</ele></trkpt><trkpt lat="40.899446" lon="17.350017"><ele>14.921</ele></trkpt><trkpt lat="40.899697" lon="17.350655"><ele>11.690</ele></trkpt><trkpt lat="40.89979" lon="17.351052"><ele>10.251</ele></trkpt><trkpt lat="40.899924" lon="17.351379"><ele>9.356</ele></trkpt><trkpt lat="40.900196" lon="17.351972"><ele>8.691</ele></trkpt><trkpt lat="40.900208" lon="17.352428"><ele>7.381</ele></trkpt><trkpt lat="40.900257" lon="17.352957"><ele>6.419</ele></trkpt><trkpt lat="40.900668" lon="17.352997"><ele>5.209</ele></trkpt><trkpt lat="40.901239" lon="17.352826"><ele>5.731</ele></trkpt><trkpt lat="40.901888" lon="17.352133"><ele>6.352</ele></trkpt><trkpt lat="40.902541" lon="17.351495"><ele>4.629</ele></trkpt><trkpt lat="40.903153" lon="17.35083"><ele>5.086</ele></trkpt><trkpt lat="40.903826" lon="17.350143"><ele>4.623</ele></trkpt><trkpt lat="40.904179" lon="17.349966"><ele>5.137</ele></trkpt><trkpt lat="40.904503" lon="17.350176"><ele>3.576</ele></trkpt><trkpt lat="40.904758" lon="17.350577"><ele>2.127</ele></trkpt><trkpt lat="40.904899" lon="17.350528"><ele>1.992</ele></trkpt><trkpt lat="40.905075" lon="17.350087"><ele>1.855</ele></trkpt><trkpt lat="40.905394" lon="17.349395"><ele>4.207</ele></trkpt><trkpt lat="40.905661" lon="17.34903"><ele>5.317</ele></trkpt><trkpt lat="40.905982" lon="17.348778"><ele>5.709</ele></trkpt><trkpt lat="40.906369" lon="17.348464"><ele>5.147</ele></trkpt><trkpt lat="40.906772" lon="17.34815"><ele>4.818</ele></trkpt><trkpt lat="40.907121" lon="17.347871"><ele>5.195</ele></trkpt><trkpt lat="40.907579" lon="17.34749"><ele>1.222</ele></trkpt><trkpt lat="40.907968" lon="17.347131"><ele>1.959</ele></trkpt><trkpt lat="40.90841" lon="17.346863"><ele>3.593</ele></trkpt><trkpt lat="40.908645" lon="17.346621"><ele>3.882</ele></trkpt><trkpt lat="40.908771" lon="17.346423"><ele>2.823</ele></trkpt><trkpt lat="40.909107" lon="17.346165"><ele>3.088</ele></trkpt><trkpt lat="40.909381" lon="17.345825"><ele>4.515</ele></trkpt><trkpt lat="40.909493" lon="17.345296"><ele>9.365</ele></trkpt><trkpt lat="40.909656" lon="17.34509"><ele>9.611</ele></trkpt><trkpt lat="40.910029" lon="17.344703"><ele>7.409</ele></trkpt><trkpt lat="40.910171" lon="17.344548"><ele>4.963</ele></trkpt><trkpt lat="40.910062" lon="17.344307"><ele>7.464</ele></trkpt><trkpt lat="40.909887" lon="17.343787"><ele>9.541</ele></trkpt><trkpt lat="40.909835" lon="17.343389"><ele>9.518</ele></trkpt><trkpt lat="40.909758" lon="17.342987"><ele>10.425</ele></trkpt><trkpt lat="40.909555" lon="17.342627"><ele>16.039</ele></trkpt><trkpt lat="40.909486" lon="17.342209"><ele>15.838</ele></trkpt><trkpt lat="40.909178" lon="17.341855"><ele>16.319</ele></trkpt><trkpt lat="40.909073" lon="17.341705"><ele>16.664</ele></trkpt><trkpt lat="40.908955" lon="17.341093"><ele>21.625</ele></trkpt><trkpt lat="40.909291" lon="17.340696"><ele>22.226</ele></trkpt><trkpt lat="40.909486" lon="17.340444"><ele>24.608</ele></trkpt><trkpt lat="40.909587" lon="17.340101"><ele>25.809</ele></trkpt><trkpt lat="40.909417" lon="17.339624"><ele>24.594</ele></trkpt><trkpt lat="40.909194" lon="17.338867"><ele>24.075</ele></trkpt><trkpt lat="40.909093" lon="17.338593"><ele>23.732</ele></trkpt><trkpt lat="40.908898" lon="17.338508"><ele>23.039</ele></trkpt><trkpt lat="40.908793" lon="17.338095"><ele>23.596</ele></trkpt><trkpt lat="40.908663" lon="17.337746"><ele>24.060</ele></trkpt><trkpt lat="40.908578" lon="17.337435"><ele>24.069</ele></trkpt><trkpt lat="40.908497" lon="17.336872"><ele>25.750</ele></trkpt><trkpt lat="40.908473" lon="17.336464"><ele>26.595</ele></trkpt><trkpt lat="40.908436" lon="17.335949"><ele>25.953</ele></trkpt><trkpt lat="40.908453" lon="17.335423"><ele>26.304</ele></trkpt><trkpt lat="40.908854" lon="17.335251"><ele>27.014</ele></trkpt><trkpt lat="40.909226" lon="17.335021"><ele>27.809</ele></trkpt><trkpt lat="40.909595" lon="17.334817"><ele>27.367</ele></trkpt><trkpt lat="40.909851" lon="17.334774"><ele>27.098</ele></trkpt><trkpt lat="40.910159" lon="17.33508"><ele>27.465</ele></trkpt><trkpt lat="40.910316" lon="17.335186"><ele>27.512</ele></trkpt><trkpt lat="40.910471" lon="17.335024"><ele>28.619</ele></trkpt><trkpt lat="40.910686" lon="17.334839"><ele>29.233</ele></trkpt><trkpt lat="40.910775" lon="17.334517"><ele>27.742</ele></trkpt><trkpt lat="40.910799" lon="17.334018"><ele>25.173</ele></trkpt><trkpt lat="40.910945" lon="17.333529"><ele>25.728</ele></trkpt><trkpt lat="40.911144" lon="17.333358"><ele>26.935</ele></trkpt><trkpt lat="40.911387" lon="17.333384"><ele>26.886</ele></trkpt><trkpt lat="40.911399" lon="17.333605"><ele>26.014</ele></trkpt><trkpt lat="40.911476" lon="17.333873"><ele>26.009</ele></trkpt><trkpt lat="40.911496" lon="17.334125"><ele>25.515</ele></trkpt><trkpt lat="40.911519" lon="17.334429"><ele>25.516</ele></trkpt><trkpt lat="40.911558" lon="17.334612"><ele>25.813</ele></trkpt><trkpt lat="40.9117" lon="17.334907"><ele>25.850</ele></trkpt><trkpt lat="40.911676" lon="17.335047"><ele>25.967</ele></trkpt><trkpt lat="40.911591" lon="17.335251"><ele>26.381</ele></trkpt><trkpt lat="40.911682" lon="17.335413"><ele>26.420</ele></trkpt><trkpt lat="40.911854" lon="17.335635"><ele>25.491</ele></trkpt><trkpt lat="40.911919" lon="17.335761"><ele>24.456</ele></trkpt><trkpt lat="40.91202" lon="17.335963"><ele>22.459</ele></trkpt><trkpt lat="40.912078" lon="17.336151"><ele>20.803</ele></trkpt><trkpt lat="40.912068" lon="17.336251"><ele>20.323</ele></trkpt><trkpt lat="40.912152" lon="17.336306"><ele>19.609</ele></trkpt><trkpt lat="40.912307" lon="17.336329"><ele>19.417</ele></trkpt><trkpt lat="40.912421" lon="17.336262"><ele>19.598</ele></trkpt><trkpt lat="40.912619" lon="17.336289"><ele>19.645</ele></trkpt><trkpt lat="40.9127" lon="17.336396"><ele>20.062</ele></trkpt><trkpt lat="40.912734" lon="17.336538"><ele>20.549</ele></trkpt><trkpt lat="40.912831" lon="17.336635"><ele>20.773</ele></trkpt><trkpt lat="40.912918" lon="17.336758"><ele>20.332</ele></trkpt><trkpt lat="40.913024" lon="17.336893"><ele>19.453</ele></trkpt><trkpt lat="40.913088" lon="17.337011"><ele>19.078</ele></trkpt><trkpt lat="40.913131" lon="17.337142"><ele>18.867</ele></trkpt><trkpt lat="40.913113" lon="17.337435"><ele>18.281</ele></trkpt><trkpt lat="40.913083" lon="17.337738"><ele>18.819</ele></trkpt><trkpt lat="40.912978" lon="17.338059"><ele>19.309</ele></trkpt><trkpt lat="40.912965" lon="17.338207"><ele>18.658</ele></trkpt><trkpt lat="40.91293" lon="17.338349"><ele>18.029</ele></trkpt><trkpt lat="40.912897" lon="17.338536"><ele>17.696</ele></trkpt><trkpt lat="40.912988" lon="17.338752"><ele>17.983</ele></trkpt><trkpt lat="40.913126" lon="17.338911"><ele>18.590</ele></trkpt><trkpt lat="40.913244" lon="17.339069"><ele>19.474</ele></trkpt><trkpt lat="40.913301" lon="17.339312"><ele>19.343</ele></trkpt><trkpt lat="40.913238" lon="17.339463"><ele>18.694</ele></trkpt><trkpt lat="40.913168" lon="17.339634"><ele>17.739</ele></trkpt><trkpt lat="40.913149" lon="17.339766"><ele>17.286</ele></trkpt><trkpt lat="40.91319" lon="17.339919"><ele>16.860</ele></trkpt><trkpt lat="40.913334" lon="17.340045"><ele>16.226</ele></trkpt><trkpt lat="40.91354" lon="17.34012"><ele>16.209</ele></trkpt><trkpt lat="40.913834" lon="17.340275"><ele>12.630</ele></trkpt><trkpt lat="40.914037" lon="17.340506"><ele>11.011</ele></trkpt><trkpt lat="40.914159" lon="17.340795"><ele>10.918</ele></trkpt><trkpt lat="40.914232" lon="17.341174"><ele>11.845</ele></trkpt><trkpt lat="40.914228" lon="17.341461"><ele>10.732</ele></trkpt><trkpt lat="40.914309" lon="17.341574"><ele>10.346</ele></trkpt><trkpt lat="40.914369" lon="17.34185"><ele>9.525</ele></trkpt><trkpt lat="40.914444" lon="17.342153"><ele>9.066</ele></trkpt><trkpt lat="40.914523" lon="17.342489"><ele>8.441</ele></trkpt><trkpt lat="40.914698" lon="17.342805"><ele>6.151</ele></trkpt><trkpt lat="40.914821" lon="17.342869"><ele>5.301</ele></trkpt><trkpt lat="40.915111" lon="17.342552"><ele>4.211</ele></trkpt><trkpt lat="40.915267" lon="17.342351"><ele>3.109</ele></trkpt><trkpt lat="40.915393" lon="17.342094"><ele>3.227</ele></trkpt><trkpt lat="40.915318" lon="17.341882"><ele>3.158</ele></trkpt><trkpt lat="40.915248" lon="17.341655"><ele>3.155</ele></trkpt><trkpt lat="40.915313" lon="17.341476"><ele>3.892</ele></trkpt><trkpt lat="40.915496" lon="17.341222"><ele>6.599</ele></trkpt><trkpt lat="40.915657" lon="17.341064"><ele>8.233</ele></trkpt><trkpt lat="40.915849" lon="17.34068"><ele>9.532</ele></trkpt><trkpt lat="40.916023" lon="17.340297"><ele>10.523</ele></trkpt><trkpt lat="40.916232" lon="17.339969"><ele>12.268</ele></trkpt><trkpt lat="40.916417" lon="17.339784"><ele>13.514</ele></trkpt><trkpt lat="40.916558" lon="17.339591"><ele>13.954</ele></trkpt><trkpt lat="40.916587" lon="17.339417"><ele>14.409</ele></trkpt><trkpt lat="40.916871" lon="17.339132"><ele>13.709</ele></trkpt><trkpt lat="40.917104" lon="17.338824"><ele>13.313</ele></trkpt><trkpt lat="40.917312" lon="17.338574"><ele>11.784</ele></trkpt><trkpt lat="40.91745" lon="17.338744"><ele>11.761</ele></trkpt><trkpt lat="40.917716" lon="17.339135"><ele>9.678</ele></trkpt><trkpt lat="40.918052" lon="17.339487"><ele>5.975</ele></trkpt><trkpt lat="40.918415" lon="17.339755"><ele>2.819</ele></trkpt><trkpt lat="40.918749" lon="17.339951"><ele>0.058</ele></trkpt><trkpt lat="40.918857" lon="17.339782"><ele>0.619</ele></trkpt><trkpt lat="40.919029" lon="17.339594"><ele>1.434</ele></trkpt><trkpt lat="40.91913" lon="17.33946"><ele>2.045</ele></trkpt><trkpt lat="40.919355" lon="17.339454"><ele>0.647</ele></trkpt><trkpt lat="40.919723" lon="17.339433"><ele>-0.911</ele></trkpt><trkpt lat="40.91994" lon="17.339438"><ele>-1.009</ele></trkpt><trkpt lat="40.920048" lon="17.339367"><ele>-0.516</ele></trkpt><trkpt lat="40.920147" lon="17.339168"><ele>0.567</ele></trkpt><trkpt lat="40.920387" lon="17.338821"><ele>0.934</ele></trkpt><trkpt lat="40.920533" lon="17.338655"><ele>0.951</ele></trkpt><trkpt lat="40.920841" lon="17.338626"><ele>-0.118</ele></trkpt><trkpt lat="40.92091" lon="17.338508"><ele>0.522</ele></trkpt><trkpt lat="40.921015" lon="17.338387"><ele>1.091</ele></trkpt><trkpt lat="40.921169" lon="17.338285"><ele>1.062</ele></trkpt><trkpt lat="40.921125" lon="17.33818"><ele>2.557</ele></trkpt><trkpt lat="40.921046" lon="17.338052"><ele>4.255</ele></trkpt><trkpt lat="40.921066" lon="17.337931"><ele>4.207</ele></trkpt><trkpt lat="40.921113" lon="17.337778"><ele>4.017</ele></trkpt><trkpt lat="40.921133" lon="17.337662"><ele>3.709</ele></trkpt><trkpt lat="40.921123" lon="17.337571"><ele>3.867</ele></trkpt><trkpt lat="40.921098" lon="17.337472"><ele>4.158</ele></trkpt><trkpt lat="40.92106" lon="17.337405"><ele>4.615</ele></trkpt><trkpt lat="40.921072" lon="17.337295"><ele>4.422</ele></trkpt><trkpt lat="40.921147" lon="17.337368"><ele>3.599</ele></trkpt><trkpt lat="40.921258" lon="17.337309"><ele>2.283</ele></trkpt><trkpt lat="40.921398" lon="17.337266"><ele>0.892</ele></trkpt><trkpt lat="40.921492" lon="17.337287"><ele>0.413</ele></trkpt><trkpt lat="40.921636" lon="17.337252"><ele>0.078</ele></trkpt><trkpt lat="40.921752" lon="17.337279"><ele>0.011</ele></trkpt><trkpt lat="40.921831" lon="17.337344"><ele>-0.421</ele></trkpt><trkpt lat="40.921827" lon="17.337191"><ele>0.903</ele></trkpt><trkpt lat="40.921802" lon="17.337059"><ele>2.009</ele></trkpt><trkpt lat="40.921774" lon="17.336937"><ele>3.163</ele></trkpt><trkpt lat="40.921742" lon="17.33677"><ele>4.934</ele></trkpt><trkpt lat="40.921741" lon="17.336622"><ele>6.391</ele></trkpt><trkpt lat="40.921757" lon="17.336479"><ele>7.148</ele></trkpt><trkpt lat="40.921788" lon="17.336152"><ele>7.915</ele></trkpt><trkpt lat="40.921754" lon="17.335946"><ele>8.089</ele></trkpt><trkpt lat="40.921671" lon="17.335659"><ele>7.498</ele></trkpt><trkpt lat="40.921756" lon="17.335471"><ele>7.089</ele></trkpt><trkpt lat="40.921776" lon="17.335278"><ele>7.094</ele></trkpt><trkpt lat="40.921805" lon="17.335061"><ele>8.225</ele></trkpt><trkpt lat="40.921886" lon="17.334771"><ele>9.026</ele></trkpt><trkpt lat="40.92194" lon="17.33446"><ele>10.008</ele></trkpt><trkpt lat="40.922212" lon="17.334058"><ele>11.009</ele></trkpt><trkpt lat="40.922522" lon="17.333545"><ele>11.924</ele></trkpt><trkpt lat="40.922836" lon="17.333041"><ele>11.895</ele></trkpt><trkpt lat="40.923175" lon="17.332537"><ele>11.142</ele></trkpt><trkpt lat="40.923312" lon="17.332346"><ele>10.759</ele></trkpt><trkpt lat="40.923637" lon="17.332129"><ele>10.516</ele></trkpt><trkpt lat="40.924032" lon="17.332065"><ele>7.890</ele></trkpt><trkpt lat="40.924486" lon="17.332073"><ele>7.579</ele></trkpt><trkpt lat="40.924834" lon="17.332167"><ele>7.310</ele></trkpt><trkpt lat="40.92524" lon="17.332159"><ele>9.915</ele></trkpt><trkpt lat="40.92573" lon="17.33185"><ele>11.449</ele></trkpt><trkpt lat="40.92616" lon="17.331585"><ele>9.402</ele></trkpt><trkpt lat="40.926452" lon="17.33162"><ele>9.922</ele></trkpt><trkpt lat="40.92675" lon="17.331475"><ele>9.609</ele></trkpt><trkpt lat="40.927098" lon="17.331147"><ele>7.246</ele></trkpt><trkpt lat="40.927481" lon="17.330673"><ele>1.197</ele></trkpt><trkpt lat="40.927783" lon="17.330297"><ele>3.054</ele></trkpt><trkpt lat="40.928202" lon="17.329865"><ele>7.571</ele></trkpt><trkpt lat="40.928551" lon="17.32956"><ele>8.268</ele></trkpt><trkpt lat="40.928602" lon="17.329302"><ele>8.092</ele></trkpt><trkpt lat="40.928527" lon="17.328809"><ele>8.661</ele></trkpt><trkpt lat="40.928458" lon="17.328473"><ele>7.412</ele></trkpt><trkpt lat="40.928513" lon="17.328345"><ele>7.317</ele></trkpt><trkpt lat="40.928737" lon="17.328296"><ele>8.548</ele></trkpt><trkpt lat="40.92912" lon="17.328194"><ele>8.661</ele></trkpt><trkpt lat="40.929532" lon="17.328063"><ele>8.317</ele></trkpt><trkpt lat="40.929706" lon="17.327771"><ele>8.909</ele></trkpt><trkpt lat="40.929882" lon="17.327307"><ele>9.016</ele></trkpt><trkpt lat="40.930168" lon="17.326773"><ele>10.457</ele></trkpt><trkpt lat="40.930438" lon="17.326336"><ele>8.844</ele></trkpt><trkpt lat="40.930819" lon="17.325807"><ele>7.011</ele></trkpt><trkpt lat="40.931402" lon="17.324839"><ele>8.648</ele></trkpt><trkpt lat="40.931645" lon="17.324415"><ele>9.972</ele></trkpt><trkpt lat="40.932103" lon="17.32393"><ele>11.511</ele></trkpt><trkpt lat="40.932462" lon="17.323506"><ele>11.712</ele></trkpt><trkpt lat="40.932503" lon="17.323578"><ele>11.937</ele></trkpt><trkpt lat="40.932559" lon="17.323487"><ele>11.325</ele></trkpt><trkpt lat="40.932742" lon="17.323248"><ele>11.026</ele></trkpt><trkpt lat="40.932981" lon="17.32294"><ele>11.008</ele></trkpt><trkpt lat="40.933188" lon="17.322701"><ele>10.709</ele></trkpt><trkpt lat="40.933534" lon="17.322264"><ele>10.344</ele></trkpt><trkpt lat="40.93384" lon="17.321905"><ele>9.085</ele></trkpt><trkpt lat="40.934067" lon="17.321795"><ele>8.532</ele></trkpt><trkpt lat="40.934328" lon="17.32162"><ele>7.599</ele></trkpt><trkpt lat="40.934511" lon="17.321363"><ele>8.436</ele></trkpt><trkpt lat="40.934675" lon="17.320958"><ele>11.360</ele></trkpt><trkpt lat="40.934958" lon="17.320504"><ele>11.339</ele></trkpt><trkpt lat="40.935123" lon="17.320311"><ele>11.020</ele></trkpt><trkpt lat="40.935339" lon="17.320158"><ele>10.255</ele></trkpt><trkpt lat="40.935653" lon="17.31996"><ele>10.085</ele></trkpt><trkpt lat="40.935846" lon="17.319933"><ele>10.089</ele></trkpt><trkpt lat="40.936259" lon="17.31981"><ele>10.917</ele></trkpt><trkpt lat="40.936768" lon="17.319571"><ele>11.009</ele></trkpt><trkpt lat="40.937019" lon="17.319472"><ele>10.770</ele></trkpt><trkpt lat="40.93727" lon="17.319306"><ele>9.471</ele></trkpt><trkpt lat="40.937463" lon="17.31911"><ele>9.088</ele></trkpt><trkpt lat="40.937587" lon="17.319081"><ele>9.185</ele></trkpt><trkpt lat="40.937686" lon="17.318928"><ele>9.662</ele></trkpt><trkpt lat="40.937815" lon="17.318697"><ele>9.196</ele></trkpt><trkpt lat="40.93784" lon="17.31856"><ele>8.895</ele></trkpt><trkpt lat="40.93787" lon="17.318257"><ele>9.066</ele></trkpt><trkpt lat="40.937959" lon="17.318015"><ele>9.151</ele></trkpt><trkpt lat="40.937951" lon="17.317905"><ele>9.311</ele></trkpt><trkpt lat="40.937925" lon="17.317828"><ele>9.421</ele></trkpt><trkpt lat="40.938071" lon="17.317476"><ele>8.903</ele></trkpt><trkpt lat="40.938387" lon="17.31687"><ele>7.309</ele></trkpt><trkpt lat="40.938612" lon="17.316468"><ele>10.153</ele></trkpt><trkpt lat="40.93879" lon="17.316178"><ele>11.914</ele></trkpt><trkpt lat="40.939054" lon="17.315958"><ele>10.951</ele></trkpt><trkpt lat="40.93926" lon="17.315709"><ele>11.228</ele></trkpt><trkpt lat="40.939413" lon="17.31559"><ele>11.835</ele></trkpt><trkpt lat="40.939561" lon="17.315552"><ele>11.639</ele></trkpt><trkpt lat="40.939724" lon="17.315448"><ele>11.088</ele></trkpt><trkpt lat="40.939957" lon="17.315285"><ele>11.089</ele></trkpt><trkpt lat="40.940239" lon="17.315033"><ele>11.214</ele></trkpt><trkpt lat="40.94052" lon="17.314732"><ele>10.184</ele></trkpt><trkpt lat="40.940703" lon="17.314515"><ele>11.107</ele></trkpt><trkpt lat="40.940798" lon="17.314217"><ele>12.117</ele></trkpt></trkseg></trk></gpx>