<?xml version="1.0" encoding="UTF-8"?><gpx creator="Wikiloc - http://www.wikiloc.com" version="1.1" xmlns="http://www.topografix.com/GPX/1/1" xmlns:xsi="http://www.w3.org/2001/XMLSchema-instance" xsi:schemaLocation="http://www.topografix.com/GPX/1/1 http://www.topografix.com/GPX/1/1/gpx.xsd"><trk><name><![CDATA[GRAVEL - Bici e Radici Monopoli ed.2025]]></name><cmt><![CDATA[Percorso ad anello da Monopoli passando per:
- la casetta Zen , la comunità, il guidato , lama capitanio,masseria mammella, vivaio ,masseria capitolo , san Procopio , masseria del capitolo, torre cintola , sterrato x Santo Stefano e rientro dalla ciclabile]]></cmt><desc><![CDATA[Percorso ad anello da Monopoli passando per:
- la casetta Zen , la comunità, il guidato , lama capitanio,masseria mammella, vivaio ,masseria capitolo , san Procopio , masseria del capitolo, torre cintola , sterrato x Santo Stefano e rientro dalla ciclabile]]></desc><trkseg><trkpt lat="40.940301" lon="17.313614"><ele>10.099</ele><time>2025-09-08T07:57:39Z</time></trkpt><trkpt lat="40.940747" lon="17.314416"><ele>10.007</ele><time>2025-09-08T07:57:53Z</time></trkpt><trkpt lat="40.940787" lon="17.314323"><ele>10.027</ele><time>2025-09-08T07:57:54Z</time></trkpt><trkpt lat="40.941203" lon="17.313819"><ele>10.009</ele><time>2025-09-08T07:58:05Z</time></trkpt><trkpt lat="40.942462" lon="17.312162"><ele>10.541</ele><time>2025-09-08T07:58:39Z</time></trkpt><trkpt lat="40.941935" lon="17.311185"><ele>11.652</ele><time>2025-09-08T07:59:03Z</time></trkpt><trkpt lat="40.941589" lon="17.310544"><ele>12.449</ele><time>2025-09-08T07:59:20Z</time></trkpt><trkpt lat="40.941519" lon="17.310282"><ele>12.736</ele><time>2025-09-08T07:59:26Z</time></trkpt><trkpt lat="40.941479" lon="17.310018"><ele>13.065</ele><time>2025-09-08T07:59:32Z</time></trkpt><trkpt lat="40.941528" lon="17.309749"><ele>13.329</ele><time>2025-09-08T07:59:38Z</time></trkpt><trkpt lat="40.941863" lon="17.309174"><ele>14.161</ele><time>2025-09-08T07:59:53Z</time></trkpt><trkpt lat="40.941942" lon="17.30904"><ele>14.326</ele><time>2025-09-08T07:59:55Z</time></trkpt><trkpt lat="40.942322" lon="17.308447"><ele>15.022</ele><time>2025-09-08T08:00:09Z</time></trkpt><trkpt lat="40.94249" lon="17.308408"><ele>15.151</ele><time>2025-09-08T08:00:13Z</time></trkpt><trkpt lat="40.94261" lon="17.308326"><ele>15.201</ele><time>2025-09-08T08:00:17Z</time></trkpt><trkpt lat="40.942683" lon="17.308328"><ele>15.311</ele><time>2025-09-08T08:00:18Z</time></trkpt><trkpt lat="40.942764" lon="17.308272"><ele>15.409</ele><time>2025-09-08T08:00:21Z</time></trkpt><trkpt lat="40.942813" lon="17.308155"><ele>15.577</ele><time>2025-09-08T08:00:23Z</time></trkpt><trkpt lat="40.942793" lon="17.307998"><ele>15.668</ele><time>2025-09-08T08:00:26Z</time></trkpt><trkpt lat="40.942779" lon="17.30797"><ele>15.645</ele><time>2025-09-08T08:00:26Z</time></trkpt><trkpt lat="40.942728" lon="17.307915"><ele>15.752</ele><time>2025-09-08T08:00:28Z</time></trkpt><trkpt lat="40.942633" lon="17.30789"><ele>15.891</ele><time>2025-09-08T08:00:30Z</time></trkpt><trkpt lat="40.942572" lon="17.307914"><ele>15.995</ele><time>2025-09-08T08:00:31Z</time></trkpt><trkpt lat="40.942532" lon="17.307955"><ele>15.977</ele><time>2025-09-08T08:00:32Z</time></trkpt><trkpt lat="40.942235" lon="17.307488"><ele>16.362</ele><time>2025-09-08T08:00:42Z</time></trkpt><trkpt lat="40.941659" lon="17.306452"><ele>18.138</ele><time>2025-09-08T08:01:09Z</time></trkpt><trkpt lat="40.941333" lon="17.305847"><ele>19.287</ele><time>2025-09-08T08:01:25Z</time></trkpt><trkpt lat="40.941261" lon="17.305688"><ele>19.542</ele><time>2025-09-08T08:01:30Z</time></trkpt><trkpt lat="40.941239" lon="17.305567"><ele>19.726</ele><time>2025-09-08T08:01:33Z</time></trkpt><trkpt lat="40.941239" lon="17.30554"><ele>19.709</ele><time>2025-09-08T08:01:34Z</time></trkpt><trkpt lat="40.941204" lon="17.305479"><ele>19.820</ele><time>2025-09-08T08:01:36Z</time></trkpt><trkpt lat="40.941162" lon="17.305472"><ele>19.941</ele><time>2025-09-08T08:01:37Z</time></trkpt><trkpt lat="40.941127" lon="17.305501"><ele>20.078</ele><time>2025-09-08T08:01:38Z</time></trkpt><trkpt lat="40.940886" lon="17.305757"><ele>20.995</ele><time>2025-09-08T08:01:49Z</time></trkpt><trkpt lat="40.940846" lon="17.305685"><ele>21.144</ele><time>2025-09-08T08:01:52Z</time></trkpt><trkpt lat="40.940465" lon="17.305013"><ele>22.988</ele><time>2025-09-08T08:02:14Z</time></trkpt><trkpt lat="40.940465" lon="17.305013"><ele>22.910</ele><time>2025-09-08T08:02:14Z</time></trkpt><trkpt lat="40.940487" lon="17.304991"><ele>23.035</ele><time>2025-09-08T08:02:15Z</time></trkpt><trkpt lat="40.940185" lon="17.304492"><ele>24.431</ele><time>2025-09-08T08:02:36Z</time></trkpt><trkpt lat="40.939916" lon="17.303985"><ele>25.613</ele><time>2025-09-08T08:02:56Z</time></trkpt><trkpt lat="40.939693" lon="17.303617"><ele>26.543</ele><time>2025-09-08T08:03:11Z</time></trkpt><trkpt lat="40.939527" lon="17.303516"><ele>26.907</ele><time>2025-09-08T08:03:19Z</time></trkpt><trkpt lat="40.93944" lon="17.30351"><ele>27.109</ele><time>2025-09-08T08:03:22Z</time></trkpt><trkpt lat="40.939265" lon="17.303545"><ele>27.583</ele><time>2025-09-08T08:03:30Z</time></trkpt><trkpt lat="40.939143" lon="17.303666"><ele>27.974</ele><time>2025-09-08T08:03:37Z</time></trkpt><trkpt lat="40.938946" lon="17.303318"><ele>28.731</ele><time>2025-09-08T08:03:47Z</time></trkpt><trkpt lat="40.938678" lon="17.302889"><ele>29.538</ele><time>2025-09-08T08:03:59Z</time></trkpt><trkpt lat="40.938392" lon="17.302684"><ele>29.857</ele><time>2025-09-08T08:04:07Z</time></trkpt><trkpt lat="40.938171" lon="17.302566"><ele>30.021</ele><time>2025-09-08T08:04:13Z</time></trkpt><trkpt lat="40.937894" lon="17.302492"><ele>30.313</ele><time>2025-09-08T08:04:20Z</time></trkpt><trkpt lat="40.937415" lon="17.30256"><ele>30.888</ele><time>2025-09-08T08:04:31Z</time></trkpt><trkpt lat="40.937115" lon="17.302603"><ele>31.134</ele><time>2025-09-08T08:04:38Z</time></trkpt><trkpt lat="40.936688" lon="17.302622"><ele>31.494</ele><time>2025-09-08T08:04:48Z</time></trkpt><trkpt lat="40.935031" lon="17.303258"><ele>32.557</ele><time>2025-09-08T08:05:28Z</time></trkpt><trkpt lat="40.934801" lon="17.301126"><ele>33.922</ele><time>2025-09-08T08:06:28Z</time></trkpt><trkpt lat="40.934801" lon="17.299476"><ele>34.909</ele><time>2025-09-08T08:07:12Z</time></trkpt><trkpt lat="40.934654" lon="17.299086"><ele>35.271</ele><time>2025-09-08T08:07:24Z</time></trkpt><trkpt lat="40.934588" lon="17.298807"><ele>35.462</ele><time>2025-09-08T08:07:32Z</time></trkpt><trkpt lat="40.93461" lon="17.29863"><ele>35.579</ele><time>2025-09-08T08:07:37Z</time></trkpt><trkpt lat="40.934799" lon="17.297841"><ele>36.246</ele><time>2025-09-08T08:08:00Z</time></trkpt><trkpt lat="40.934799" lon="17.297141"><ele>36.845</ele><time>2025-09-08T08:08:20Z</time></trkpt><trkpt lat="40.934819" lon="17.297031"><ele>36.949</ele><time>2025-09-08T08:08:22Z</time></trkpt><trkpt lat="40.934782" lon="17.296971"><ele>37.031</ele><time>2025-09-08T08:08:24Z</time></trkpt><trkpt lat="40.933886" lon="17.296639"><ele>38.046</ele><time>2025-09-08T08:08:46Z</time></trkpt><trkpt lat="40.933795" lon="17.296637"><ele>38.172</ele><time>2025-09-08T08:08:48Z</time></trkpt><trkpt lat="40.933631" lon="17.296685"><ele>38.317</ele><time>2025-09-08T08:08:52Z</time></trkpt><trkpt lat="40.933567" lon="17.29667"><ele>38.487</ele><time>2025-09-08T08:08:54Z</time></trkpt><trkpt lat="40.933361" lon="17.296487"><ele>38.715</ele><time>2025-09-08T08:09:00Z</time></trkpt><trkpt lat="40.933294" lon="17.296426"><ele>38.809</ele><time>2025-09-08T08:09:02Z</time></trkpt><trkpt lat="40.933033" lon="17.296922"><ele>39.383</ele><time>2025-09-08T08:09:14Z</time></trkpt><trkpt lat="40.932926" lon="17.297249"><ele>39.524</ele><time>2025-09-08T08:09:21Z</time></trkpt><trkpt lat="40.932837" lon="17.297426"><ele>39.671</ele><time>2025-09-08T08:09:25Z</time></trkpt><trkpt lat="40.932654" lon="17.297345"><ele>39.748</ele><time>2025-09-08T08:09:32Z</time></trkpt><trkpt lat="40.932319" lon="17.297071"><ele>40.067</ele><time>2025-09-08T08:09:46Z</time></trkpt><trkpt lat="40.932131" lon="17.297018"><ele>40.121</ele><time>2025-09-08T08:09:52Z</time></trkpt><trkpt lat="40.931877" lon="17.296994"><ele>40.333</ele><time>2025-09-08T08:10:01Z</time></trkpt><trkpt lat="40.931659" lon="17.296898"><ele>40.568</ele><time>2025-09-08T08:10:08Z</time></trkpt><trkpt lat="40.931148" lon="17.296552"><ele>41.574</ele><time>2025-09-08T08:10:29Z</time></trkpt><trkpt lat="40.931013" lon="17.296499"><ele>41.855</ele><time>2025-09-08T08:10:34Z</time></trkpt><trkpt lat="40.930603" lon="17.296202"><ele>42.707</ele><time>2025-09-08T08:10:54Z</time></trkpt><trkpt lat="40.929834" lon="17.295818"><ele>44.417</ele><time>2025-09-08T08:11:32Z</time></trkpt><trkpt lat="40.929501" lon="17.295827"><ele>45.309</ele><time>2025-09-08T08:11:48Z</time></trkpt><trkpt lat="40.928249" lon="17.295726"><ele>48.567</ele><time>2025-09-08T08:12:44Z</time></trkpt><trkpt lat="40.928115" lon="17.295694"><ele>48.868</ele><time>2025-09-08T08:12:50Z</time></trkpt><trkpt lat="40.927962" lon="17.295669"><ele>49.155</ele><time>2025-09-08T08:12:54Z</time></trkpt><trkpt lat="40.92744" lon="17.295664"><ele>50.082</ele><time>2025-09-08T08:13:09Z</time></trkpt><trkpt lat="40.926414" lon="17.295589"><ele>51.721</ele><time>2025-09-08T08:13:36Z</time></trkpt><trkpt lat="40.925444" lon="17.295313"><ele>53.225</ele><time>2025-09-08T08:14:03Z</time></trkpt><trkpt lat="40.924895" lon="17.295208"><ele>54.027</ele><time>2025-09-08T08:14:18Z</time></trkpt><trkpt lat="40.924458" lon="17.295027"><ele>54.722</ele><time>2025-09-08T08:14:30Z</time></trkpt><trkpt lat="40.92425" lon="17.29488"><ele>55.158</ele><time>2025-09-08T08:14:36Z</time></trkpt><trkpt lat="40.923904" lon="17.294791"><ele>55.656</ele><time>2025-09-08T08:14:45Z</time></trkpt><trkpt lat="40.922313" lon="17.294824"><ele>58.159</ele><time>2025-09-08T08:15:28Z</time></trkpt><trkpt lat="40.921979" lon="17.294876"><ele>58.614</ele><time>2025-09-08T08:15:38Z</time></trkpt><trkpt lat="40.920703" lon="17.294325"><ele>60.609</ele><time>2025-09-08T08:16:14Z</time></trkpt><trkpt lat="40.920382" lon="17.294238"><ele>61.077</ele><time>2025-09-08T08:16:23Z</time></trkpt><trkpt lat="40.919776" lon="17.294207"><ele>61.888</ele><time>2025-09-08T08:16:38Z</time></trkpt><trkpt lat="40.918406" lon="17.294489"><ele>63.135</ele><time>2025-09-08T08:17:11Z</time></trkpt><trkpt lat="40.918342" lon="17.294462"><ele>63.232</ele><time>2025-09-08T08:17:13Z</time></trkpt><trkpt lat="40.917872" lon="17.293792"><ele>63.851</ele><time>2025-09-08T08:17:28Z</time></trkpt><trkpt lat="40.917751" lon="17.29367"><ele>63.975</ele><time>2025-09-08T08:17:31Z</time></trkpt><trkpt lat="40.91714" lon="17.293121"><ele>64.627</ele><time>2025-09-08T08:17:48Z</time></trkpt><trkpt lat="40.916565" lon="17.292513"><ele>65.352</ele><time>2025-09-08T08:18:06Z</time></trkpt><trkpt lat="40.916428" lon="17.292332"><ele>65.548</ele><time>2025-09-08T08:18:11Z</time></trkpt><trkpt lat="40.915942" lon="17.291964"><ele>66.456</ele><time>2025-09-08T08:18:26Z</time></trkpt><trkpt lat="40.915685" lon="17.291803"><ele>66.959</ele><time>2025-09-08T08:18:34Z</time></trkpt><trkpt lat="40.915481" lon="17.291625"><ele>67.314</ele><time>2025-09-08T08:18:41Z</time></trkpt><trkpt lat="40.915094" lon="17.291504"><ele>67.909</ele><time>2025-09-08T08:18:52Z</time></trkpt><trkpt lat="40.91424" lon="17.291169"><ele>69.257</ele><time>2025-09-08T08:19:16Z</time></trkpt><trkpt lat="40.913954" lon="17.291004"><ele>69.698</ele><time>2025-09-08T08:19:24Z</time></trkpt><trkpt lat="40.91336" lon="17.290387"><ele>70.645</ele><time>2025-09-08T08:19:43Z</time></trkpt><trkpt lat="40.913206" lon="17.290265"><ele>70.872</ele><time>2025-09-08T08:19:48Z</time></trkpt><trkpt lat="40.912991" lon="17.289962"><ele>71.391</ele><time>2025-09-08T08:19:56Z</time></trkpt><trkpt lat="40.912713" lon="17.289725"><ele>71.845</ele><time>2025-09-08T08:20:04Z</time></trkpt><trkpt lat="40.911895" lon="17.288927"><ele>73.337</ele><time>2025-09-08T08:20:31Z</time></trkpt><trkpt lat="40.911281" lon="17.288709"><ele>74.632</ele><time>2025-09-08T08:20:49Z</time></trkpt><trkpt lat="40.911156" lon="17.288634"><ele>74.988</ele><time>2025-09-08T08:20:54Z</time></trkpt><trkpt lat="40.910164" lon="17.287672"><ele>77.664</ele><time>2025-09-08T08:21:32Z</time></trkpt><trkpt lat="40.90991" lon="17.287511"><ele>78.406</ele><time>2025-09-08T08:21:44Z</time></trkpt><trkpt lat="40.909472" lon="17.287341"><ele>79.716</ele><time>2025-09-08T08:22:04Z</time></trkpt><trkpt lat="40.909204" lon="17.287086"><ele>80.609</ele><time>2025-09-08T08:22:19Z</time></trkpt><trkpt lat="40.908862" lon="17.287072"><ele>81.628</ele><time>2025-09-08T08:22:35Z</time></trkpt><trkpt lat="40.90777" lon="17.286378"><ele>85.989</ele><time>2025-09-08T08:23:35Z</time></trkpt><trkpt lat="40.907506" lon="17.286139"><ele>87.176</ele><time>2025-09-08T08:23:51Z</time></trkpt><trkpt lat="40.906283" lon="17.284895"><ele>94.283</ele><time>2025-09-08T08:25:15Z</time></trkpt><trkpt lat="40.905622" lon="17.284166"><ele>98.652</ele><time>2025-09-08T08:26:06Z</time></trkpt><trkpt lat="40.905483" lon="17.284037"><ele>99.336</ele><time>2025-09-08T08:26:17Z</time></trkpt><trkpt lat="40.905138" lon="17.283927"><ele>100.868</ele><time>2025-09-08T08:26:39Z</time></trkpt><trkpt lat="40.905128" lon="17.283893"><ele>100.963</ele><time>2025-09-08T08:26:40Z</time></trkpt><trkpt lat="40.90507" lon="17.283777"><ele>101.379</ele><time>2025-09-08T08:26:47Z</time></trkpt><trkpt lat="40.904734" lon="17.283504"><ele>103.021</ele><time>2025-09-08T08:27:10Z</time></trkpt><trkpt lat="40.904697" lon="17.283511"><ele>103.241</ele><time>2025-09-08T08:27:12Z</time></trkpt><trkpt lat="40.904628" lon="17.283655"><ele>103.705</ele><time>2025-09-08T08:27:19Z</time></trkpt><trkpt lat="40.904595" lon="17.283676"><ele>103.909</ele><time>2025-09-08T08:27:20Z</time></trkpt><trkpt lat="40.904551" lon="17.283663"><ele>104.144</ele><time>2025-09-08T08:27:23Z</time></trkpt><trkpt lat="40.904158" lon="17.283274"><ele>106.215</ele><time>2025-09-08T08:27:45Z</time></trkpt><trkpt lat="40.904052" lon="17.283215"><ele>106.332</ele><time>2025-09-08T08:27:49Z</time></trkpt><trkpt lat="40.904004" lon="17.283236"><ele>106.359</ele><time>2025-09-08T08:27:51Z</time></trkpt><trkpt lat="40.90372" lon="17.283353"><ele>106.228</ele><time>2025-09-08T08:28:01Z</time></trkpt><trkpt lat="40.903645" lon="17.283489"><ele>106.222</ele><time>2025-09-08T08:28:06Z</time></trkpt><trkpt lat="40.903547" lon="17.283581"><ele>106.264</ele><time>2025-09-08T08:28:09Z</time></trkpt><trkpt lat="40.903254" lon="17.284007"><ele>106.149</ele><time>2025-09-08T08:28:23Z</time></trkpt><trkpt lat="40.903137" lon="17.284087"><ele>106.195</ele><time>2025-09-08T08:28:26Z</time></trkpt><trkpt lat="40.903" lon="17.284121"><ele>106.181</ele><time>2025-09-08T08:28:30Z</time></trkpt><trkpt lat="40.902798" lon="17.284226"><ele>106.061</ele><time>2025-09-08T08:28:36Z</time></trkpt><trkpt lat="40.902494" lon="17.284509"><ele>105.417</ele><time>2025-09-08T08:28:47Z</time></trkpt><trkpt lat="40.902344" lon="17.284693"><ele>104.809</ele><time>2025-09-08T08:28:52Z</time></trkpt><trkpt lat="40.902378" lon="17.28502"><ele>104.070</ele><time>2025-09-08T08:28:59Z</time></trkpt><trkpt lat="40.902348" lon="17.285539"><ele>102.861</ele><time>2025-09-08T08:29:09Z</time></trkpt><trkpt lat="40.902322" lon="17.285717"><ele>102.498</ele><time>2025-09-08T08:29:13Z</time></trkpt><trkpt lat="40.90226" lon="17.285881"><ele>102.075</ele><time>2025-09-08T08:29:16Z</time></trkpt><trkpt lat="40.902285" lon="17.286027"><ele>101.794</ele><time>2025-09-08T08:29:19Z</time></trkpt><trkpt lat="40.90244" lon="17.286416"><ele>100.738</ele><time>2025-09-08T08:29:27Z</time></trkpt><trkpt lat="40.902472" lon="17.286671"><ele>99.940</ele><time>2025-09-08T08:29:32Z</time></trkpt><trkpt lat="40.902593" lon="17.287036"><ele>98.615</ele><time>2025-09-08T08:29:40Z</time></trkpt><trkpt lat="40.902643" lon="17.287188"><ele>98.171</ele><time>2025-09-08T08:29:43Z</time></trkpt><trkpt lat="40.902991" lon="17.287606"><ele>96.117</ele><time>2025-09-08T08:29:54Z</time></trkpt><trkpt lat="40.903494" lon="17.288342"><ele>93.087</ele><time>2025-09-08T08:30:13Z</time></trkpt><trkpt lat="40.903959" lon="17.288915"><ele>90.615</ele><time>2025-09-08T08:30:29Z</time></trkpt><trkpt lat="40.904077" lon="17.289269"><ele>89.509</ele><time>2025-09-08T08:30:36Z</time></trkpt><trkpt lat="40.904344" lon="17.289418"><ele>88.483</ele><time>2025-09-08T08:30:43Z</time></trkpt><trkpt lat="40.904398" lon="17.289524"><ele>88.034</ele><time>2025-09-08T08:30:46Z</time></trkpt><trkpt lat="40.904462" lon="17.289779"><ele>87.271</ele><time>2025-09-08T08:30:51Z</time></trkpt><trkpt lat="40.904874" lon="17.290309"><ele>85.388</ele><time>2025-09-08T08:31:05Z</time></trkpt><trkpt lat="40.905168" lon="17.290982"><ele>83.827</ele><time>2025-09-08T08:31:21Z</time></trkpt><trkpt lat="40.906014" lon="17.292305"><ele>81.441</ele><time>2025-09-08T08:31:56Z</time></trkpt><trkpt lat="40.905948" lon="17.292311"><ele>81.473</ele><time>2025-09-08T08:31:57Z</time></trkpt><trkpt lat="40.905791" lon="17.292407"><ele>81.448</ele><time>2025-09-08T08:32:00Z</time></trkpt><trkpt lat="40.905322" lon="17.292782"><ele>81.514</ele><time>2025-09-08T08:32:12Z</time></trkpt><trkpt lat="40.90523" lon="17.292816"><ele>81.539</ele><time>2025-09-08T08:32:14Z</time></trkpt><trkpt lat="40.905132" lon="17.292809"><ele>81.501</ele><time>2025-09-08T08:32:17Z</time></trkpt><trkpt lat="40.905048" lon="17.29276"><ele>81.521</ele><time>2025-09-08T08:32:20Z</time></trkpt><trkpt lat="40.904917" lon="17.292617"><ele>81.509</ele><time>2025-09-08T08:32:25Z</time></trkpt><trkpt lat="40.904561" lon="17.292029"><ele>82.635</ele><time>2025-09-08T08:32:42Z</time></trkpt><trkpt lat="40.904505" lon="17.291997"><ele>82.816</ele><time>2025-09-08T08:32:44Z</time></trkpt><trkpt lat="40.904441" lon="17.292007"><ele>83.093</ele><time>2025-09-08T08:32:47Z</time></trkpt><trkpt lat="40.904239" lon="17.292127"><ele>83.610</ele><time>2025-09-08T08:32:54Z</time></trkpt><trkpt lat="40.904159" lon="17.292131"><ele>83.869</ele><time>2025-09-08T08:32:57Z</time></trkpt><trkpt lat="40.903554" lon="17.291982"><ele>85.493</ele><time>2025-09-08T08:33:17Z</time></trkpt><trkpt lat="40.903462" lon="17.291926"><ele>85.715</ele><time>2025-09-08T08:33:20Z</time></trkpt><trkpt lat="40.903352" lon="17.291811"><ele>86.190</ele><time>2025-09-08T08:33:25Z</time></trkpt><trkpt lat="40.903177" lon="17.291552"><ele>86.896</ele><time>2025-09-08T08:33:34Z</time></trkpt><trkpt lat="40.903017" lon="17.291441"><ele>87.313</ele><time>2025-09-08T08:33:40Z</time></trkpt><trkpt lat="40.902951" lon="17.291427"><ele>87.543</ele><time>2025-09-08T08:33:42Z</time></trkpt><trkpt lat="40.902945" lon="17.291426"><ele>87.507</ele><time>2025-09-08T08:33:43Z</time></trkpt><trkpt lat="40.902602" lon="17.291775"><ele>88.709</ele><time>2025-09-08T08:33:58Z</time></trkpt><trkpt lat="40.902531" lon="17.291805"><ele>88.983</ele><time>2025-09-08T08:34:00Z</time></trkpt><trkpt lat="40.901822" lon="17.291782"><ele>90.914</ele><time>2025-09-08T08:34:24Z</time></trkpt><trkpt lat="40.901729" lon="17.291776"><ele>91.221</ele><time>2025-09-08T08:34:27Z</time></trkpt><trkpt lat="40.90152" lon="17.291741"><ele>91.728</ele><time>2025-09-08T08:34:34Z</time></trkpt><trkpt lat="40.901138" lon="17.291683"><ele>92.487</ele><time>2025-09-08T08:34:45Z</time></trkpt><trkpt lat="40.901001" lon="17.291611"><ele>92.751</ele><time>2025-09-08T08:34:48Z</time></trkpt><trkpt lat="40.900589" lon="17.291275"><ele>93.653</ele><time>2025-09-08T08:35:00Z</time></trkpt><trkpt lat="40.900271" lon="17.290969"><ele>94.388</ele><time>2025-09-08T08:35:11Z</time></trkpt><trkpt lat="40.900146" lon="17.291009"><ele>94.514</ele><time>2025-09-08T08:35:14Z</time></trkpt><trkpt lat="40.899878" lon="17.291238"><ele>95.296</ele><time>2025-09-08T08:35:24Z</time></trkpt><trkpt lat="40.899755" lon="17.291287"><ele>95.531</ele><time>2025-09-08T08:35:28Z</time></trkpt><trkpt lat="40.899712" lon="17.291278"><ele>95.624</ele><time>2025-09-08T08:35:29Z</time></trkpt><trkpt lat="40.899033" lon="17.290794"><ele>97.409</ele><time>2025-09-08T08:35:52Z</time></trkpt><trkpt lat="40.89875" lon="17.290791"><ele>98.031</ele><time>2025-09-08T08:36:01Z</time></trkpt><trkpt lat="40.898612" lon="17.290835"><ele>98.342</ele><time>2025-09-08T08:36:06Z</time></trkpt><trkpt lat="40.898529" lon="17.290903"><ele>98.549</ele><time>2025-09-08T08:36:09Z</time></trkpt><trkpt lat="40.898335" lon="17.291157"><ele>99.356</ele><time>2025-09-08T08:36:18Z</time></trkpt><trkpt lat="40.898278" lon="17.291172"><ele>99.525</ele><time>2025-09-08T08:36:20Z</time></trkpt><trkpt lat="40.897722" lon="17.291097"><ele>101.469</ele><time>2025-09-08T08:36:37Z</time></trkpt><trkpt lat="40.897518" lon="17.290928"><ele>102.221</ele><time>2025-09-08T08:36:45Z</time></trkpt><trkpt lat="40.896993" lon="17.290685"><ele>104.196</ele><time>2025-09-08T08:37:05Z</time></trkpt><trkpt lat="40.896701" lon="17.290607"><ele>105.382</ele><time>2025-09-08T08:37:18Z</time></trkpt><trkpt lat="40.89631" lon="17.290544"><ele>108.665</ele><time>2025-09-08T08:37:37Z</time></trkpt><trkpt lat="40.896344" lon="17.290069"><ele>111.668</ele><time>2025-09-08T08:38:02Z</time></trkpt><trkpt lat="40.89633" lon="17.289938"><ele>112.414</ele><time>2025-09-08T08:38:09Z</time></trkpt><trkpt lat="40.896231" lon="17.289718"><ele>114.009</ele><time>2025-09-08T08:38:24Z</time></trkpt><trkpt lat="40.896214" lon="17.28968"><ele>114.348</ele><time>2025-09-08T08:38:27Z</time></trkpt><trkpt lat="40.896206" lon="17.289468"><ele>115.689</ele><time>2025-09-08T08:38:40Z</time></trkpt><trkpt lat="40.896139" lon="17.289321"><ele>116.756</ele><time>2025-09-08T08:38:51Z</time></trkpt><trkpt lat="40.896139" lon="17.289221"><ele>117.363</ele><time>2025-09-08T08:38:58Z</time></trkpt><trkpt lat="40.89592" lon="17.288661"><ele>120.882</ele><time>2025-09-08T08:39:42Z</time></trkpt><trkpt lat="40.895543" lon="17.288226"><ele>123.496</ele><time>2025-09-08T08:40:22Z</time></trkpt><trkpt lat="40.895317" lon="17.287867"><ele>125.298</ele><time>2025-09-08T08:40:44Z</time></trkpt><trkpt lat="40.895075" lon="17.287831"><ele>126.583</ele><time>2025-09-08T08:40:56Z</time></trkpt><trkpt lat="40.894982" lon="17.287872"><ele>127.079</ele><time>2025-09-08T08:41:00Z</time></trkpt><trkpt lat="40.894809" lon="17.288052"><ele>128.127</ele><time>2025-09-08T08:41:09Z</time></trkpt><trkpt lat="40.894604" lon="17.288193"><ele>129.368</ele><time>2025-09-08T08:41:15Z</time></trkpt><trkpt lat="40.894166" lon="17.288649"><ele>128.314</ele><time>2025-09-08T08:41:29Z</time></trkpt><trkpt lat="40.893924" lon="17.288847"><ele>127.809</ele><time>2025-09-08T08:41:36Z</time></trkpt><trkpt lat="40.893388" lon="17.289"><ele>126.864</ele><time>2025-09-08T08:41:51Z</time></trkpt><trkpt lat="40.893293" lon="17.28902"><ele>126.675</ele><time>2025-09-08T08:41:54Z</time></trkpt><trkpt lat="40.892791" lon="17.288774"><ele>126.442</ele><time>2025-09-08T08:42:12Z</time></trkpt><trkpt lat="40.892187" lon="17.288311"><ele>127.439</ele><time>2025-09-08T08:42:39Z</time></trkpt><trkpt lat="40.892052" lon="17.288207"><ele>127.668</ele><time>2025-09-08T08:42:46Z</time></trkpt><trkpt lat="40.891813" lon="17.288105"><ele>128.012</ele><time>2025-09-08T08:42:57Z</time></trkpt><trkpt lat="40.891654" lon="17.287848"><ele>128.444</ele><time>2025-09-08T08:43:09Z</time></trkpt><trkpt lat="40.891317" lon="17.287583"><ele>128.659</ele><time>2025-09-08T08:43:25Z</time></trkpt><trkpt lat="40.891256" lon="17.287524"><ele>128.595</ele><time>2025-09-08T08:43:28Z</time></trkpt><trkpt lat="40.891196" lon="17.287384"><ele>128.457</ele><time>2025-09-08T08:43:33Z</time></trkpt><trkpt lat="40.890871" lon="17.286903"><ele>127.900</ele><time>2025-09-08T08:43:48Z</time></trkpt><trkpt lat="40.890669" lon="17.28672"><ele>127.720</ele><time>2025-09-08T08:43:56Z</time></trkpt><trkpt lat="40.890435" lon="17.286547"><ele>127.409</ele><time>2025-09-08T08:44:03Z</time></trkpt><trkpt lat="40.890349" lon="17.286602"><ele>127.317</ele><time>2025-09-08T08:44:06Z</time></trkpt><trkpt lat="40.890279" lon="17.286694"><ele>127.298</ele><time>2025-09-08T08:44:08Z</time></trkpt><trkpt lat="40.890174" lon="17.286831"><ele>127.185</ele><time>2025-09-08T08:44:12Z</time></trkpt><trkpt lat="40.890363" lon="17.286999"><ele>126.692</ele><time>2025-09-08T08:44:17Z</time></trkpt><trkpt lat="40.890434" lon="17.287329"><ele>125.981</ele><time>2025-09-08T08:44:24Z</time></trkpt><trkpt lat="40.890584" lon="17.287654"><ele>125.175</ele><time>2025-09-08T08:44:31Z</time></trkpt><trkpt lat="40.890516" lon="17.287657"><ele>124.957</ele><time>2025-09-08T08:44:32Z</time></trkpt><trkpt lat="40.890366" lon="17.287727"><ele>124.422</ele><time>2025-09-08T08:44:34Z</time></trkpt><trkpt lat="40.889383" lon="17.288293"><ele>121.958</ele><time>2025-09-08T08:44:51Z</time></trkpt><trkpt lat="40.889358" lon="17.288295"><ele>121.989</ele><time>2025-09-08T08:44:51Z</time></trkpt><trkpt lat="40.888576" lon="17.288355"><ele>122.006</ele><time>2025-09-08T08:45:06Z</time></trkpt><trkpt lat="40.88799" lon="17.288504"><ele>122.126</ele><time>2025-09-08T08:45:19Z</time></trkpt><trkpt lat="40.887381" lon="17.28854"><ele>123.309</ele><time>2025-09-08T08:45:35Z</time></trkpt><trkpt lat="40.887248" lon="17.288459"><ele>123.730</ele><time>2025-09-08T08:45:40Z</time></trkpt><trkpt lat="40.887016" lon="17.288171"><ele>124.661</ele><time>2025-09-08T08:45:50Z</time></trkpt><trkpt lat="40.886754" lon="17.287789"><ele>125.728</ele><time>2025-09-08T08:46:04Z</time></trkpt><trkpt lat="40.886549" lon="17.287593"><ele>126.415</ele><time>2025-09-08T08:46:13Z</time></trkpt><trkpt lat="40.886205" lon="17.287368"><ele>127.824</ele><time>2025-09-08T08:46:28Z</time></trkpt><trkpt lat="40.88586" lon="17.287322"><ele>130.088</ele><time>2025-09-08T08:46:42Z</time></trkpt><trkpt lat="40.885506" lon="17.287536"><ele>132.520</ele><time>2025-09-08T08:47:01Z</time></trkpt><trkpt lat="40.88548" lon="17.287527"><ele>132.785</ele><time>2025-09-08T08:47:02Z</time></trkpt><trkpt lat="40.88502" lon="17.287364"><ele>135.891</ele><time>2025-09-08T08:47:28Z</time></trkpt><trkpt lat="40.884884" lon="17.287291"><ele>136.715</ele><time>2025-09-08T08:47:36Z</time></trkpt><trkpt lat="40.884523" lon="17.287006"><ele>139.765</ele><time>2025-09-08T08:48:03Z</time></trkpt><trkpt lat="40.884273" lon="17.286867"><ele>142.111</ele><time>2025-09-08T08:48:22Z</time></trkpt><trkpt lat="40.884071" lon="17.286624"><ele>144.609</ele><time>2025-09-08T08:48:41Z</time></trkpt><trkpt lat="40.883804" lon="17.286386"><ele>147.513</ele><time>2025-09-08T08:49:03Z</time></trkpt><trkpt lat="40.883492" lon="17.286046"><ele>151.174</ele><time>2025-09-08T08:49:29Z</time></trkpt><trkpt lat="40.88332" lon="17.285975"><ele>152.751</ele><time>2025-09-08T08:49:41Z</time></trkpt><trkpt lat="40.883272" lon="17.285889"><ele>153.458</ele><time>2025-09-08T08:49:46Z</time></trkpt><trkpt lat="40.883195" lon="17.285569"><ele>155.377</ele><time>2025-09-08T08:50:01Z</time></trkpt><trkpt lat="40.883122" lon="17.285486"><ele>155.731</ele><time>2025-09-08T08:50:07Z</time></trkpt><trkpt lat="40.88303" lon="17.285433"><ele>156.263</ele><time>2025-09-08T08:50:12Z</time></trkpt><trkpt lat="40.882893" lon="17.28543"><ele>156.868</ele><time>2025-09-08T08:50:20Z</time></trkpt><trkpt lat="40.882394" lon="17.285534"><ele>159.134</ele><time>2025-09-08T08:50:43Z</time></trkpt><trkpt lat="40.882269" lon="17.285503"><ele>159.767</ele><time>2025-09-08T08:50:47Z</time></trkpt><trkpt lat="40.882156" lon="17.285404"><ele>160.381</ele><time>2025-09-08T08:50:52Z</time></trkpt><trkpt lat="40.882129" lon="17.28535"><ele>160.519</ele><time>2025-09-08T08:50:54Z</time></trkpt><trkpt lat="40.881959" lon="17.285438"><ele>161.309</ele><time>2025-09-08T08:51:02Z</time></trkpt><trkpt lat="40.881766" lon="17.285586"><ele>162.398</ele><time>2025-09-08T08:51:12Z</time></trkpt><trkpt lat="40.881704" lon="17.285709"><ele>162.869</ele><time>2025-09-08T08:51:16Z</time></trkpt><trkpt lat="40.881661" lon="17.285794"><ele>163.016</ele><time>2025-09-08T08:51:19Z</time></trkpt><trkpt lat="40.881653" lon="17.286113"><ele>163.093</ele><time>2025-09-08T08:51:28Z</time></trkpt><trkpt lat="40.881618" lon="17.286226"><ele>163.012</ele><time>2025-09-08T08:51:32Z</time></trkpt><trkpt lat="40.881569" lon="17.286285"><ele>163.046</ele><time>2025-09-08T08:51:34Z</time></trkpt><trkpt lat="40.881416" lon="17.286327"><ele>163.068</ele><time>2025-09-08T08:51:39Z</time></trkpt><trkpt lat="40.881378" lon="17.286396"><ele>163.043</ele><time>2025-09-08T08:51:41Z</time></trkpt><trkpt lat="40.881384" lon="17.286488"><ele>163.029</ele><time>2025-09-08T08:51:43Z</time></trkpt><trkpt lat="40.881348" lon="17.286593"><ele>163.048</ele><time>2025-09-08T08:51:45Z</time></trkpt><trkpt lat="40.881189" lon="17.286806"><ele>163.061</ele><time>2025-09-08T08:51:52Z</time></trkpt><trkpt lat="40.881135" lon="17.286938"><ele>163.017</ele><time>2025-09-08T08:51:55Z</time></trkpt><trkpt lat="40.881113" lon="17.287206"><ele>163.009</ele><time>2025-09-08T08:52:02Z</time></trkpt><trkpt lat="40.880976" lon="17.287746"><ele>163.066</ele><time>2025-09-08T08:52:15Z</time></trkpt><trkpt lat="40.880831" lon="17.288192"><ele>162.447</ele><time>2025-09-08T08:52:26Z</time></trkpt><trkpt lat="40.880455" lon="17.289002"><ele>161.234</ele><time>2025-09-08T08:52:47Z</time></trkpt><trkpt lat="40.880221" lon="17.289584"><ele>160.311</ele><time>2025-09-08T08:53:00Z</time></trkpt><trkpt lat="40.88028" lon="17.28983"><ele>160.010</ele><time>2025-09-08T08:53:03Z</time></trkpt><trkpt lat="40.880322" lon="17.289988"><ele>159.484</ele><time>2025-09-08T08:53:05Z</time></trkpt><trkpt lat="40.880595" lon="17.290654"><ele>156.566</ele><time>2025-09-08T08:53:13Z</time></trkpt><trkpt lat="40.88065" lon="17.290762"><ele>156.091</ele><time>2025-09-08T08:53:14Z</time></trkpt><trkpt lat="40.880844" lon="17.291145"><ele>154.367</ele><time>2025-09-08T08:53:18Z</time></trkpt><trkpt lat="40.880963" lon="17.291453"><ele>153.052</ele><time>2025-09-08T08:53:22Z</time></trkpt><trkpt lat="40.881045" lon="17.291855"><ele>151.453</ele><time>2025-09-08T08:53:26Z</time></trkpt><trkpt lat="40.881071" lon="17.292181"><ele>149.908</ele><time>2025-09-08T08:53:29Z</time></trkpt><trkpt lat="40.881056" lon="17.292589"><ele>147.909</ele><time>2025-09-08T08:53:33Z</time></trkpt><trkpt lat="40.880904" lon="17.293515"><ele>143.297</ele><time>2025-09-08T08:53:42Z</time></trkpt><trkpt lat="40.88088" lon="17.293791"><ele>141.888</ele><time>2025-09-08T08:53:45Z</time></trkpt><trkpt lat="40.880851" lon="17.295162"><ele>135.925</ele><time>2025-09-08T08:53:58Z</time></trkpt><trkpt lat="40.880833" lon="17.296004"><ele>132.662</ele><time>2025-09-08T08:54:06Z</time></trkpt><trkpt lat="40.880802" lon="17.29649"><ele>130.751</ele><time>2025-09-08T08:54:11Z</time></trkpt><trkpt lat="40.880747" lon="17.296873"><ele>129.655</ele><time>2025-09-08T08:54:16Z</time></trkpt><trkpt lat="40.880658" lon="17.297276"><ele>129.237</ele><time>2025-09-08T08:54:20Z</time></trkpt><trkpt lat="40.880449" lon="17.29784"><ele>128.552</ele><time>2025-09-08T08:54:28Z</time></trkpt><trkpt lat="40.88026" lon="17.298202"><ele>128.038</ele><time>2025-09-08T08:54:34Z</time></trkpt><trkpt lat="40.880075" lon="17.298471"><ele>127.625</ele><time>2025-09-08T08:54:39Z</time></trkpt><trkpt lat="40.879747" lon="17.298857"><ele>127.226</ele><time>2025-09-08T08:54:47Z</time></trkpt><trkpt lat="40.879328" lon="17.299273"><ele>127.208</ele><time>2025-09-08T08:54:57Z</time></trkpt><trkpt lat="40.878048" lon="17.300259"><ele>127.609</ele><time>2025-09-08T08:55:27Z</time></trkpt><trkpt lat="40.878025" lon="17.300246"><ele>127.614</ele><time>2025-09-08T08:55:28Z</time></trkpt><trkpt lat="40.87789" lon="17.300196"><ele>127.725</ele><time>2025-09-08T08:55:31Z</time></trkpt><trkpt lat="40.877688" lon="17.300233"><ele>127.842</ele><time>2025-09-08T08:55:37Z</time></trkpt><trkpt lat="40.877364" lon="17.300146"><ele>128.079</ele><time>2025-09-08T08:55:45Z</time></trkpt><trkpt lat="40.87726" lon="17.300165"><ele>128.178</ele><time>2025-09-08T08:55:48Z</time></trkpt><trkpt lat="40.876964" lon="17.300219"><ele>128.332</ele><time>2025-09-08T08:55:56Z</time></trkpt><trkpt lat="40.876427" lon="17.300316"><ele>128.384</ele><time>2025-09-08T08:56:08Z</time></trkpt><trkpt lat="40.876095" lon="17.300508"><ele>127.829</ele><time>2025-09-08T08:56:16Z</time></trkpt><trkpt lat="40.875838" lon="17.300733"><ele>127.485</ele><time>2025-09-08T08:56:21Z</time></trkpt><trkpt lat="40.875436" lon="17.301205"><ele>126.773</ele><time>2025-09-08T08:56:30Z</time></trkpt><trkpt lat="40.87514" lon="17.301634"><ele>126.085</ele><time>2025-09-08T08:56:37Z</time></trkpt><trkpt lat="40.875239" lon="17.301812"><ele>125.413</ele><time>2025-09-08T08:56:41Z</time></trkpt><trkpt lat="40.875599" lon="17.303496"><ele>120.609</ele><time>2025-09-08T08:57:15Z</time></trkpt><trkpt lat="40.875573" lon="17.303569"><ele>120.499</ele><time>2025-09-08T08:57:16Z</time></trkpt><trkpt lat="40.875444" lon="17.303679"><ele>119.850</ele><time>2025-09-08T08:57:20Z</time></trkpt><trkpt lat="40.8754" lon="17.303803"><ele>119.557</ele><time>2025-09-08T08:57:23Z</time></trkpt><trkpt lat="40.875449" lon="17.304102"><ele>118.814</ele><time>2025-09-08T08:57:28Z</time></trkpt><trkpt lat="40.875571" lon="17.304453"><ele>117.953</ele><time>2025-09-08T08:57:36Z</time></trkpt><trkpt lat="40.87567" lon="17.304619"><ele>117.477</ele><time>2025-09-08T08:57:40Z</time></trkpt><trkpt lat="40.875702" lon="17.304793"><ele>117.069</ele><time>2025-09-08T08:57:43Z</time></trkpt><trkpt lat="40.875624" lon="17.304956"><ele>116.534</ele><time>2025-09-08T08:57:47Z</time></trkpt><trkpt lat="40.875245" lon="17.305216"><ele>115.250</ele><time>2025-09-08T08:57:58Z</time></trkpt><trkpt lat="40.874556" lon="17.30571"><ele>113.348</ele><time>2025-09-08T08:58:20Z</time></trkpt><trkpt lat="40.874535" lon="17.305803"><ele>113.261</ele><time>2025-09-08T08:58:22Z</time></trkpt><trkpt lat="40.87449" lon="17.305859"><ele>113.117</ele><time>2025-09-08T08:58:23Z</time></trkpt><trkpt lat="40.874286" lon="17.305851"><ele>112.709</ele><time>2025-09-08T08:58:29Z</time></trkpt><trkpt lat="40.874123" lon="17.305972"><ele>112.486</ele><time>2025-09-08T08:58:34Z</time></trkpt><trkpt lat="40.873931" lon="17.306068"><ele>112.037</ele><time>2025-09-08T08:58:40Z</time></trkpt><trkpt lat="40.87288" lon="17.306951"><ele>109.774</ele><time>2025-09-08T08:59:15Z</time></trkpt><trkpt lat="40.872811" lon="17.30708"><ele>109.591</ele><time>2025-09-08T08:59:18Z</time></trkpt><trkpt lat="40.872795" lon="17.307281"><ele>109.230</ele><time>2025-09-08T08:59:22Z</time></trkpt><trkpt lat="40.872832" lon="17.307494"><ele>108.914</ele><time>2025-09-08T08:59:27Z</time></trkpt><trkpt lat="40.872974" lon="17.307727"><ele>108.546</ele><time>2025-09-08T08:59:33Z</time></trkpt><trkpt lat="40.873216" lon="17.308011"><ele>107.981</ele><time>2025-09-08T08:59:42Z</time></trkpt><trkpt lat="40.873319" lon="17.308093"><ele>107.757</ele><time>2025-09-08T08:59:45Z</time></trkpt><trkpt lat="40.873517" lon="17.308287"><ele>107.342</ele><time>2025-09-08T08:59:52Z</time></trkpt><trkpt lat="40.872543" lon="17.309801"><ele>105.322</ele><time>2025-09-08T09:00:35Z</time></trkpt><trkpt lat="40.872333" lon="17.309893"><ele>105.014</ele><time>2025-09-08T09:00:41Z</time></trkpt><trkpt lat="40.872185" lon="17.310082"><ele>104.709</ele><time>2025-09-08T09:00:47Z</time></trkpt><trkpt lat="40.872106" lon="17.310187"><ele>104.676</ele><time>2025-09-08T09:00:51Z</time></trkpt><trkpt lat="40.872036" lon="17.310563"><ele>104.247</ele><time>2025-09-08T09:00:59Z</time></trkpt><trkpt lat="40.871896" lon="17.310723"><ele>104.064</ele><time>2025-09-08T09:01:05Z</time></trkpt><trkpt lat="40.871693" lon="17.311063"><ele>103.691</ele><time>2025-09-08T09:01:14Z</time></trkpt><trkpt lat="40.871616" lon="17.311181"><ele>103.510</ele><time>2025-09-08T09:01:16Z</time></trkpt><trkpt lat="40.871511" lon="17.311453"><ele>103.294</ele><time>2025-09-08T09:01:20Z</time></trkpt><trkpt lat="40.871911" lon="17.311933"><ele>102.686</ele><time>2025-09-08T09:01:29Z</time></trkpt><trkpt lat="40.871984" lon="17.311983"><ele>102.591</ele><time>2025-09-08T09:01:31Z</time></trkpt><trkpt lat="40.872101" lon="17.312051"><ele>102.487</ele><time>2025-09-08T09:01:33Z</time></trkpt><trkpt lat="40.872391" lon="17.312216"><ele>102.195</ele><time>2025-09-08T09:01:38Z</time></trkpt><trkpt lat="40.87275" lon="17.312284"><ele>101.849</ele><time>2025-09-08T09:01:45Z</time></trkpt><trkpt lat="40.872881" lon="17.312314"><ele>101.723</ele><time>2025-09-08T09:01:48Z</time></trkpt><trkpt lat="40.873525" lon="17.312338"><ele>100.909</ele><time>2025-09-08T09:02:00Z</time></trkpt><trkpt lat="40.87365" lon="17.312304"><ele>100.781</ele><time>2025-09-08T09:02:02Z</time></trkpt><trkpt lat="40.87381" lon="17.312199"><ele>100.442</ele><time>2025-09-08T09:02:06Z</time></trkpt><trkpt lat="40.873885" lon="17.312187"><ele>100.379</ele><time>2025-09-08T09:02:07Z</time></trkpt><trkpt lat="40.873994" lon="17.312274"><ele>100.156</ele><time>2025-09-08T09:02:09Z</time></trkpt><trkpt lat="40.874257" lon="17.312712"><ele>99.445</ele><time>2025-09-08T09:02:17Z</time></trkpt><trkpt lat="40.874332" lon="17.312971"><ele>99.089</ele><time>2025-09-08T09:02:20Z</time></trkpt><trkpt lat="40.874403" lon="17.313099"><ele>98.861</ele><time>2025-09-08T09:02:22Z</time></trkpt><trkpt lat="40.874484" lon="17.313191"><ele>98.636</ele><time>2025-09-08T09:02:24Z</time></trkpt><trkpt lat="40.874523" lon="17.313236"><ele>98.532</ele><time>2025-09-08T09:02:24Z</time></trkpt><trkpt lat="40.874713" lon="17.313407"><ele>98.078</ele><time>2025-09-08T09:02:28Z</time></trkpt><trkpt lat="40.874882" lon="17.313447"><ele>97.533</ele><time>2025-09-08T09:02:30Z</time></trkpt><trkpt lat="40.875098" lon="17.313553"><ele>96.826</ele><time>2025-09-08T09:02:34Z</time></trkpt><trkpt lat="40.875659" lon="17.313975"><ele>94.809</ele><time>2025-09-08T09:02:43Z</time></trkpt><trkpt lat="40.87589" lon="17.314177"><ele>94.099</ele><time>2025-09-08T09:02:48Z</time></trkpt><trkpt lat="40.876192" lon="17.3145"><ele>92.840</ele><time>2025-09-08T09:02:54Z</time></trkpt><trkpt lat="40.876637" lon="17.315058"><ele>92.277</ele><time>2025-09-08T09:03:04Z</time></trkpt><trkpt lat="40.8767" lon="17.315271"><ele>92.194</ele><time>2025-09-08T09:03:07Z</time></trkpt><trkpt lat="40.876936" lon="17.315698"><ele>91.823</ele><time>2025-09-08T09:03:15Z</time></trkpt><trkpt lat="40.876975" lon="17.315816"><ele>91.787</ele><time>2025-09-08T09:03:17Z</time></trkpt><trkpt lat="40.877475" lon="17.315805"><ele>91.389</ele><time>2025-09-08T09:03:27Z</time></trkpt><trkpt lat="40.877615" lon="17.315723"><ele>91.364</ele><time>2025-09-08T09:03:30Z</time></trkpt><trkpt lat="40.877695" lon="17.315635"><ele>91.410</ele><time>2025-09-08T09:03:32Z</time></trkpt><trkpt lat="40.877905" lon="17.315398"><ele>91.697</ele><time>2025-09-08T09:03:38Z</time></trkpt><trkpt lat="40.87911" lon="17.313046"><ele>93.023</ele><time>2025-09-08T09:04:30Z</time></trkpt><trkpt lat="40.879243" lon="17.312818"><ele>93.225</ele><time>2025-09-08T09:04:36Z</time></trkpt><trkpt lat="40.879877" lon="17.312132"><ele>93.809</ele><time>2025-09-08T09:04:56Z</time></trkpt><trkpt lat="40.88017" lon="17.311839"><ele>93.611</ele><time>2025-09-08T09:05:04Z</time></trkpt><trkpt lat="40.881264" lon="17.310858"><ele>93.092</ele><time>2025-09-08T09:05:28Z</time></trkpt><trkpt lat="40.881794" lon="17.310292"><ele>92.279</ele><time>2025-09-08T09:05:40Z</time></trkpt><trkpt lat="40.881942" lon="17.310205"><ele>92.026</ele><time>2025-09-08T09:05:43Z</time></trkpt><trkpt lat="40.882379" lon="17.309903"><ele>91.475</ele><time>2025-09-08T09:05:51Z</time></trkpt><trkpt lat="40.882718" lon="17.309816"><ele>91.099</ele><time>2025-09-08T09:05:57Z</time></trkpt><trkpt lat="40.882883" lon="17.30976"><ele>90.891</ele><time>2025-09-08T09:06:00Z</time></trkpt><trkpt lat="40.883643" lon="17.309504"><ele>89.536</ele><time>2025-09-08T09:06:14Z</time></trkpt><trkpt lat="40.883785" lon="17.309427"><ele>89.282</ele><time>2025-09-08T09:06:16Z</time></trkpt><trkpt lat="40.884177" lon="17.309116"><ele>88.493</ele><time>2025-09-08T09:06:24Z</time></trkpt><trkpt lat="40.884505" lon="17.308895"><ele>87.865</ele><time>2025-09-08T09:06:30Z</time></trkpt><trkpt lat="40.885014" lon="17.30867"><ele>86.821</ele><time>2025-09-08T09:06:39Z</time></trkpt><trkpt lat="40.885388" lon="17.308585"><ele>86.109</ele><time>2025-09-08T09:06:45Z</time></trkpt><trkpt lat="40.885646" lon="17.30846"><ele>85.661</ele><time>2025-09-08T09:06:50Z</time></trkpt><trkpt lat="40.886497" lon="17.308422"><ele>84.172</ele><time>2025-09-08T09:07:04Z</time></trkpt><trkpt lat="40.889572" lon="17.308697"><ele>79.779</ele><time>2025-09-08T09:07:57Z</time></trkpt><trkpt lat="40.889854" lon="17.308784"><ele>79.366</ele><time>2025-09-08T09:08:02Z</time></trkpt><trkpt lat="40.890281" lon="17.308803"><ele>79.185</ele><time>2025-09-08T09:08:10Z</time></trkpt><trkpt lat="40.890573" lon="17.308798"><ele>78.999</ele><time>2025-09-08T09:08:15Z</time></trkpt><trkpt lat="40.892059" lon="17.308102"><ele>78.141</ele><time>2025-09-08T09:08:46Z</time></trkpt><trkpt lat="40.892338" lon="17.308016"><ele>78.036</ele><time>2025-09-08T09:08:52Z</time></trkpt><trkpt lat="40.892769" lon="17.307708"><ele>77.842</ele><time>2025-09-08T09:09:01Z</time></trkpt><trkpt lat="40.892866" lon="17.307665"><ele>77.861</ele><time>2025-09-08T09:09:03Z</time></trkpt><trkpt lat="40.892983" lon="17.307656"><ele>77.821</ele><time>2025-09-08T09:09:05Z</time></trkpt><trkpt lat="40.893323" lon="17.307746"><ele>77.713</ele><time>2025-09-08T09:09:12Z</time></trkpt><trkpt lat="40.893554" lon="17.307774"><ele>77.509</ele><time>2025-09-08T09:09:16Z</time></trkpt><trkpt lat="40.893994" lon="17.307712"><ele>77.298</ele><time>2025-09-08T09:09:24Z</time></trkpt><trkpt lat="40.894227" lon="17.30767"><ele>77.079</ele><time>2025-09-08T09:09:28Z</time></trkpt><trkpt lat="40.894844" lon="17.307426"><ele>76.666</ele><time>2025-09-08T09:09:40Z</time></trkpt><trkpt lat="40.895047" lon="17.307372"><ele>76.573</ele><time>2025-09-08T09:09:44Z</time></trkpt><trkpt lat="40.896254" lon="17.307284"><ele>75.132</ele><time>2025-09-08T09:10:06Z</time></trkpt><trkpt lat="40.89824" lon="17.306358"><ele>72.196</ele><time>2025-09-08T09:10:41Z</time></trkpt><trkpt lat="40.898631" lon="17.30624"><ele>71.548</ele><time>2025-09-08T09:10:48Z</time></trkpt><trkpt lat="40.900359" lon="17.305717"><ele>69.553</ele><time>2025-09-08T09:11:20Z</time></trkpt><trkpt lat="40.900676" lon="17.305684"><ele>69.239</ele><time>2025-09-08T09:11:26Z</time></trkpt><trkpt lat="40.901146" lon="17.305737"><ele>68.842</ele><time>2025-09-08T09:11:34Z</time></trkpt><trkpt lat="40.901681" lon="17.305999"><ele>68.322</ele><time>2025-09-08T09:11:45Z</time></trkpt><trkpt lat="40.901869" lon="17.306024"><ele>68.114</ele><time>2025-09-08T09:11:48Z</time></trkpt><trkpt lat="40.901749" lon="17.306119"><ele>68.009</ele><time>2025-09-08T09:11:51Z</time></trkpt><trkpt lat="40.901356" lon="17.306301"><ele>67.996</ele><time>2025-09-08T09:11:59Z</time></trkpt><trkpt lat="40.901092" lon="17.306575"><ele>67.977</ele><time>2025-09-08T09:12:05Z</time></trkpt><trkpt lat="40.900889" lon="17.30672"><ele>67.974</ele><time>2025-09-08T09:12:09Z</time></trkpt><trkpt lat="40.900654" lon="17.307197"><ele>67.931</ele><time>2025-09-08T09:12:18Z</time></trkpt><trkpt lat="40.900634" lon="17.307299"><ele>67.970</ele><time>2025-09-08T09:12:20Z</time></trkpt><trkpt lat="40.900385" lon="17.307576"><ele>67.984</ele><time>2025-09-08T09:12:31Z</time></trkpt><trkpt lat="40.90012" lon="17.307772"><ele>68.216</ele><time>2025-09-08T09:12:42Z</time></trkpt><trkpt lat="40.90007" lon="17.307767"><ele>68.211</ele><time>2025-09-08T09:12:44Z</time></trkpt><trkpt lat="40.899929" lon="17.307917"><ele>68.457</ele><time>2025-09-08T09:12:50Z</time></trkpt><trkpt lat="40.899429" lon="17.308196"><ele>68.929</ele><time>2025-09-08T09:13:10Z</time></trkpt><trkpt lat="40.899068" lon="17.308427"><ele>69.300</ele><time>2025-09-08T09:13:25Z</time></trkpt><trkpt lat="40.898843" lon="17.308571"><ele>69.520</ele><time>2025-09-08T09:13:34Z</time></trkpt><trkpt lat="40.898567" lon="17.308709"><ele>69.709</ele><time>2025-09-08T09:13:45Z</time></trkpt><trkpt lat="40.897021" lon="17.310285"><ele>71.244</ele><time>2025-09-08T09:14:55Z</time></trkpt><trkpt lat="40.896885" lon="17.310509"><ele>71.375</ele><time>2025-09-08T09:15:02Z</time></trkpt><trkpt lat="40.896852" lon="17.310678"><ele>71.472</ele><time>2025-09-08T09:15:06Z</time></trkpt><trkpt lat="40.896861" lon="17.310796"><ele>71.529</ele><time>2025-09-08T09:15:10Z</time></trkpt><trkpt lat="40.896501" lon="17.311596"><ele>71.978</ele><time>2025-09-08T09:15:34Z</time></trkpt><trkpt lat="40.896279" lon="17.311962"><ele>72.152</ele><time>2025-09-08T09:15:46Z</time></trkpt><trkpt lat="40.896043" lon="17.312266"><ele>72.284</ele><time>2025-09-08T09:15:57Z</time></trkpt><trkpt lat="40.895543" lon="17.312648"><ele>72.479</ele><time>2025-09-08T09:16:17Z</time></trkpt><trkpt lat="40.895497" lon="17.312694"><ele>72.465</ele><time>2025-09-08T09:16:19Z</time></trkpt><trkpt lat="40.895361" lon="17.312829"><ele>72.586</ele><time>2025-09-08T09:16:25Z</time></trkpt><trkpt lat="40.894761" lon="17.313669"><ele>72.760</ele><time>2025-09-08T09:16:53Z</time></trkpt><trkpt lat="40.894549" lon="17.314008"><ele>72.726</ele><time>2025-09-08T09:17:03Z</time></trkpt><trkpt lat="40.8943" lon="17.314245"><ele>72.709</ele><time>2025-09-08T09:17:13Z</time></trkpt><trkpt lat="40.894245" lon="17.314267"><ele>72.740</ele><time>2025-09-08T09:17:15Z</time></trkpt><trkpt lat="40.8942" lon="17.314243"><ele>72.721</ele><time>2025-09-08T09:17:16Z</time></trkpt><trkpt lat="40.894079" lon="17.31437"><ele>72.778</ele><time>2025-09-08T09:17:21Z</time></trkpt><trkpt lat="40.893551" lon="17.315081"><ele>72.695</ele><time>2025-09-08T09:17:45Z</time></trkpt><trkpt lat="40.893571" lon="17.31516"><ele>72.614</ele><time>2025-09-08T09:17:47Z</time></trkpt><trkpt lat="40.894052" lon="17.315622"><ele>72.318</ele><time>2025-09-08T09:18:05Z</time></trkpt><trkpt lat="40.894278" lon="17.315625"><ele>72.230</ele><time>2025-09-08T09:18:12Z</time></trkpt><trkpt lat="40.894726" lon="17.315806"><ele>71.985</ele><time>2025-09-08T09:18:26Z</time></trkpt><trkpt lat="40.894999" lon="17.316565"><ele>71.571</ele><time>2025-09-08T09:18:45Z</time></trkpt><trkpt lat="40.89506" lon="17.316751"><ele>71.497</ele><time>2025-09-08T09:18:49Z</time></trkpt><trkpt lat="40.895079" lon="17.317016"><ele>71.223</ele><time>2025-09-08T09:18:55Z</time></trkpt><trkpt lat="40.895238" lon="17.318049"><ele>70.625</ele><time>2025-09-08T09:19:18Z</time></trkpt><trkpt lat="40.894733" lon="17.318123"><ele>70.309</ele><time>2025-09-08T09:19:28Z</time></trkpt><trkpt lat="40.894178" lon="17.318126"><ele>70.311</ele><time>2025-09-08T09:19:40Z</time></trkpt><trkpt lat="40.893302" lon="17.318306"><ele>70.392</ele><time>2025-09-08T09:19:58Z</time></trkpt><trkpt lat="40.892901" lon="17.318388"><ele>70.349</ele><time>2025-09-08T09:20:06Z</time></trkpt><trkpt lat="40.892937" lon="17.318604"><ele>70.346</ele><time>2025-09-08T09:20:11Z</time></trkpt><trkpt lat="40.89294" lon="17.318781"><ele>70.375</ele><time>2025-09-08T09:20:15Z</time></trkpt><trkpt lat="40.892918" lon="17.318884"><ele>70.329</ele><time>2025-09-08T09:20:18Z</time></trkpt><trkpt lat="40.892495" lon="17.319411"><ele>70.341</ele><time>2025-09-08T09:20:36Z</time></trkpt><trkpt lat="40.892046" lon="17.320055"><ele>70.336</ele><time>2025-09-08T09:20:58Z</time></trkpt><trkpt lat="40.891734" lon="17.320477"><ele>70.412</ele><time>2025-09-08T09:21:14Z</time></trkpt><trkpt lat="40.891386" lon="17.320774"><ele>70.587</ele><time>2025-09-08T09:21:29Z</time></trkpt><trkpt lat="40.890885" lon="17.321335"><ele>70.742</ele><time>2025-09-08T09:21:50Z</time></trkpt><trkpt lat="40.891195" lon="17.321714"><ele>70.526</ele><time>2025-09-08T09:22:03Z</time></trkpt><trkpt lat="40.891733" lon="17.322189"><ele>69.709</ele><time>2025-09-08T09:22:22Z</time></trkpt><trkpt lat="40.891826" lon="17.322191"><ele>69.670</ele><time>2025-09-08T09:22:25Z</time></trkpt><trkpt lat="40.892127" lon="17.322376"><ele>69.281</ele><time>2025-09-08T09:22:34Z</time></trkpt><trkpt lat="40.892474" lon="17.322829"><ele>68.678</ele><time>2025-09-08T09:22:47Z</time></trkpt><trkpt lat="40.892514" lon="17.322928"><ele>68.595</ele><time>2025-09-08T09:22:50Z</time></trkpt><trkpt lat="40.892609" lon="17.323276"><ele>68.274</ele><time>2025-09-08T09:22:58Z</time></trkpt><trkpt lat="40.893297" lon="17.324274"><ele>67.078</ele><time>2025-09-08T09:23:27Z</time></trkpt><trkpt lat="40.893599" lon="17.324802"><ele>66.460</ele><time>2025-09-08T09:23:42Z</time></trkpt><trkpt lat="40.893746" lon="17.324836"><ele>66.165</ele><time>2025-09-08T09:23:47Z</time></trkpt><trkpt lat="40.893812" lon="17.324929"><ele>65.991</ele><time>2025-09-08T09:23:49Z</time></trkpt><trkpt lat="40.893897" lon="17.325129"><ele>65.519</ele><time>2025-09-08T09:23:54Z</time></trkpt><trkpt lat="40.89395" lon="17.325233"><ele>65.309</ele><time>2025-09-08T09:23:57Z</time></trkpt><trkpt lat="40.894051" lon="17.325402"><ele>64.919</ele><time>2025-09-08T09:24:02Z</time></trkpt><trkpt lat="40.894475" lon="17.326374"><ele>63.109</ele><time>2025-09-08T09:24:25Z</time></trkpt><trkpt lat="40.89463" lon="17.326441"><ele>62.763</ele><time>2025-09-08T09:24:29Z</time></trkpt><trkpt lat="40.894781" lon="17.326575"><ele>62.254</ele><time>2025-09-08T09:24:33Z</time></trkpt><trkpt lat="40.894783" lon="17.326697"><ele>61.921</ele><time>2025-09-08T09:24:35Z</time></trkpt><trkpt lat="40.894727" lon="17.326928"><ele>61.368</ele><time>2025-09-08T09:24:40Z</time></trkpt><trkpt lat="40.894759" lon="17.327116"><ele>60.827</ele><time>2025-09-08T09:24:43Z</time></trkpt><trkpt lat="40.89504" lon="17.327544"><ele>59.431</ele><time>2025-09-08T09:24:54Z</time></trkpt><trkpt lat="40.895286" lon="17.327988"><ele>58.043</ele><time>2025-09-08T09:25:05Z</time></trkpt><trkpt lat="40.895474" lon="17.32815"><ele>57.318</ele><time>2025-09-08T09:25:11Z</time></trkpt><trkpt lat="40.895478" lon="17.328187"><ele>57.254</ele><time>2025-09-08T09:25:12Z</time></trkpt><trkpt lat="40.89537" lon="17.328474"><ele>56.644</ele><time>2025-09-08T09:25:18Z</time></trkpt><trkpt lat="40.895283" lon="17.328569"><ele>56.505</ele><time>2025-09-08T09:25:22Z</time></trkpt><trkpt lat="40.895159" lon="17.328729"><ele>56.315</ele><time>2025-09-08T09:25:27Z</time></trkpt><trkpt lat="40.895092" lon="17.328836"><ele>56.209</ele><time>2025-09-08T09:25:30Z</time></trkpt><trkpt lat="40.894612" lon="17.328936"><ele>55.776</ele><time>2025-09-08T09:25:45Z</time></trkpt><trkpt lat="40.894543" lon="17.329017"><ele>55.637</ele><time>2025-09-08T09:25:48Z</time></trkpt><trkpt lat="40.894515" lon="17.329109"><ele>55.574</ele><time>2025-09-08T09:25:50Z</time></trkpt><trkpt lat="40.894511" lon="17.329229"><ele>55.421</ele><time>2025-09-08T09:25:53Z</time></trkpt><trkpt lat="40.894418" lon="17.329411"><ele>55.290</ele><time>2025-09-08T09:25:58Z</time></trkpt><trkpt lat="40.894033" lon="17.329583"><ele>54.844</ele><time>2025-09-08T09:26:10Z</time></trkpt><trkpt lat="40.893995" lon="17.329625"><ele>54.896</ele><time>2025-09-08T09:26:11Z</time></trkpt><trkpt lat="40.894015" lon="17.329681"><ele>54.841</ele><time>2025-09-08T09:26:12Z</time></trkpt><trkpt lat="40.894108" lon="17.329942"><ele>54.637</ele><time>2025-09-08T09:26:18Z</time></trkpt><trkpt lat="40.894205" lon="17.330501"><ele>54.392</ele><time>2025-09-08T09:26:30Z</time></trkpt><trkpt lat="40.89422" lon="17.330737"><ele>54.273</ele><time>2025-09-08T09:26:35Z</time></trkpt><trkpt lat="40.894182" lon="17.330833"><ele>54.120</ele><time>2025-09-08T09:26:37Z</time></trkpt><trkpt lat="40.893848" lon="17.33101"><ele>53.809</ele><time>2025-09-08T09:26:48Z</time></trkpt><trkpt lat="40.893434" lon="17.331175"><ele>53.541</ele><time>2025-09-08T09:27:03Z</time></trkpt><trkpt lat="40.89325" lon="17.331272"><ele>54.242</ele><time>2025-09-08T09:27:11Z</time></trkpt><trkpt lat="40.893071" lon="17.331367"><ele>54.969</ele><time>2025-09-08T09:27:21Z</time></trkpt><trkpt lat="40.892968" lon="17.331379"><ele>55.336</ele><time>2025-09-08T09:27:25Z</time></trkpt><trkpt lat="40.892838" lon="17.331195"><ele>56.095</ele><time>2025-09-08T09:27:33Z</time></trkpt><trkpt lat="40.892427" lon="17.33082"><ele>57.999</ele><time>2025-09-08T09:27:55Z</time></trkpt><trkpt lat="40.89235" lon="17.330676"><ele>58.441</ele><time>2025-09-08T09:28:01Z</time></trkpt><trkpt lat="40.891972" lon="17.329708"><ele>61.286</ele><time>2025-09-08T09:28:36Z</time></trkpt><trkpt lat="40.89192" lon="17.329502"><ele>61.762</ele><time>2025-09-08T09:28:42Z</time></trkpt><trkpt lat="40.891948" lon="17.329347"><ele>62.022</ele><time>2025-09-08T09:28:47Z</time></trkpt><trkpt lat="40.891844" lon="17.329423"><ele>62.362</ele><time>2025-09-08T09:28:51Z</time></trkpt><trkpt lat="40.891792" lon="17.329533"><ele>62.608</ele><time>2025-09-08T09:28:54Z</time></trkpt><trkpt lat="40.89173" lon="17.329703"><ele>63.009</ele><time>2025-09-08T09:28:59Z</time></trkpt><trkpt lat="40.891229" lon="17.330439"><ele>65.154</ele><time>2025-09-08T09:29:20Z</time></trkpt><trkpt lat="40.891041" lon="17.330716"><ele>65.625</ele><time>2025-09-08T09:29:27Z</time></trkpt><trkpt lat="40.890528" lon="17.331304"><ele>66.542</ele><time>2025-09-08T09:29:46Z</time></trkpt><trkpt lat="40.890408" lon="17.33117"><ele>66.779</ele><time>2025-09-08T09:29:50Z</time></trkpt><trkpt lat="40.890398" lon="17.330965"><ele>66.928</ele><time>2025-09-08T09:29:54Z</time></trkpt><trkpt lat="40.890482" lon="17.330627"><ele>67.322</ele><time>2025-09-08T09:30:00Z</time></trkpt><trkpt lat="40.890485" lon="17.330529"><ele>67.474</ele><time>2025-09-08T09:30:02Z</time></trkpt><trkpt lat="40.890454" lon="17.330371"><ele>67.659</ele><time>2025-09-08T09:30:05Z</time></trkpt><trkpt lat="40.890398" lon="17.330318"><ele>67.745</ele><time>2025-09-08T09:30:07Z</time></trkpt><trkpt lat="40.889433" lon="17.329679"><ele>68.812</ele><time>2025-09-08T09:30:33Z</time></trkpt><trkpt lat="40.888878" lon="17.329232"><ele>69.432</ele><time>2025-09-08T09:30:48Z</time></trkpt><trkpt lat="40.887961" lon="17.328786"><ele>70.405</ele><time>2025-09-08T09:31:12Z</time></trkpt><trkpt lat="40.887595" lon="17.328607"><ele>70.809</ele><time>2025-09-08T09:31:21Z</time></trkpt><trkpt lat="40.887011" lon="17.328449"><ele>71.473</ele><time>2025-09-08T09:31:36Z</time></trkpt><trkpt lat="40.886796" lon="17.328267"><ele>71.764</ele><time>2025-09-08T09:31:42Z</time></trkpt><trkpt lat="40.886517" lon="17.327971"><ele>72.171</ele><time>2025-09-08T09:31:51Z</time></trkpt><trkpt lat="40.88623" lon="17.327631"><ele>72.568</ele><time>2025-09-08T09:32:01Z</time></trkpt><trkpt lat="40.885695" lon="17.326997"><ele>73.347</ele><time>2025-09-08T09:32:19Z</time></trkpt><trkpt lat="40.885096" lon="17.328175"><ele>74.091</ele><time>2025-09-08T09:32:45Z</time></trkpt><trkpt lat="40.885058" lon="17.328234"><ele>74.073</ele><time>2025-09-08T09:32:47Z</time></trkpt><trkpt lat="40.883973" lon="17.328918"><ele>74.648</ele><time>2025-09-08T09:33:12Z</time></trkpt><trkpt lat="40.883777" lon="17.329095"><ele>74.684</ele><time>2025-09-08T09:33:17Z</time></trkpt><trkpt lat="40.883278" lon="17.329675"><ele>74.774</ele><time>2025-09-08T09:33:31Z</time></trkpt><trkpt lat="40.883082" lon="17.329839"><ele>74.756</ele><time>2025-09-08T09:33:36Z</time></trkpt><trkpt lat="40.882666" lon="17.330157"><ele>74.821</ele><time>2025-09-08T09:33:47Z</time></trkpt><trkpt lat="40.882221" lon="17.330372"><ele>74.909</ele><time>2025-09-08T09:33:57Z</time></trkpt><trkpt lat="40.881887" lon="17.330587"><ele>75.019</ele><time>2025-09-08T09:34:05Z</time></trkpt><trkpt lat="40.88175" lon="17.330655"><ele>75.020</ele><time>2025-09-08T09:34:08Z</time></trkpt><trkpt lat="40.881341" lon="17.33086"><ele>75.117</ele><time>2025-09-08T09:34:17Z</time></trkpt><trkpt lat="40.881262" lon="17.330962"><ele>75.114</ele><time>2025-09-08T09:34:20Z</time></trkpt><trkpt lat="40.881222" lon="17.331128"><ele>75.173</ele><time>2025-09-08T09:34:23Z</time></trkpt><trkpt lat="40.881144" lon="17.331228"><ele>75.187</ele><time>2025-09-08T09:34:25Z</time></trkpt><trkpt lat="40.880938" lon="17.331346"><ele>75.199</ele><time>2025-09-08T09:34:30Z</time></trkpt><trkpt lat="40.880554" lon="17.331499"><ele>75.254</ele><time>2025-09-08T09:34:38Z</time></trkpt><trkpt lat="40.88038" lon="17.331629"><ele>75.270</ele><time>2025-09-08T09:34:42Z</time></trkpt><trkpt lat="40.880189" lon="17.331794"><ele>75.244</ele><time>2025-09-08T09:34:47Z</time></trkpt><trkpt lat="40.880088" lon="17.331965"><ele>75.205</ele><time>2025-09-08T09:34:50Z</time></trkpt><trkpt lat="40.879851" lon="17.332483"><ele>75.215</ele><time>2025-09-08T09:35:00Z</time></trkpt><trkpt lat="40.879788" lon="17.332569"><ele>75.209</ele><time>2025-09-08T09:35:02Z</time></trkpt><trkpt lat="40.878698" lon="17.333542"><ele>74.746</ele><time>2025-09-08T09:35:28Z</time></trkpt><trkpt lat="40.878901" lon="17.334278"><ele>73.917</ele><time>2025-09-08T09:35:38Z</time></trkpt><trkpt lat="40.879047" lon="17.334624"><ele>73.324</ele><time>2025-09-08T09:35:42Z</time></trkpt><trkpt lat="40.879407" lon="17.335362"><ele>72.041</ele><time>2025-09-08T09:35:52Z</time></trkpt><trkpt lat="40.879663" lon="17.335887"><ele>71.160</ele><time>2025-09-08T09:35:59Z</time></trkpt><trkpt lat="40.879883" lon="17.3364"><ele>71.234</ele><time>2025-09-08T09:36:07Z</time></trkpt><trkpt lat="40.879785" lon="17.336601"><ele>71.266</ele><time>2025-09-08T09:36:11Z</time></trkpt><trkpt lat="40.879509" lon="17.336903"><ele>71.321</ele><time>2025-09-08T09:36:18Z</time></trkpt><trkpt lat="40.879328" lon="17.337109"><ele>71.327</ele><time>2025-09-08T09:36:24Z</time></trkpt><trkpt lat="40.879398" lon="17.337236"><ele>71.395</ele><time>2025-09-08T09:36:27Z</time></trkpt><trkpt lat="40.879527" lon="17.337287"><ele>71.349</ele><time>2025-09-08T09:36:31Z</time></trkpt><trkpt lat="40.879848" lon="17.337528"><ele>71.323</ele><time>2025-09-08T09:36:41Z</time></trkpt><trkpt lat="40.879986" lon="17.337698"><ele>71.109</ele><time>2025-09-08T09:36:45Z</time></trkpt><trkpt lat="40.880084" lon="17.33795"><ele>70.911</ele><time>2025-09-08T09:36:48Z</time></trkpt><trkpt lat="40.880112" lon="17.338113"><ele>70.832</ele><time>2025-09-08T09:36:51Z</time></trkpt><trkpt lat="40.880158" lon="17.338891"><ele>70.349</ele><time>2025-09-08T09:37:00Z</time></trkpt><trkpt lat="40.880228" lon="17.339057"><ele>70.266</ele><time>2025-09-08T09:37:03Z</time></trkpt><trkpt lat="40.880336" lon="17.339113"><ele>70.165</ele><time>2025-09-08T09:37:05Z</time></trkpt><trkpt lat="40.880419" lon="17.339102"><ele>70.019</ele><time>2025-09-08T09:37:06Z</time></trkpt><trkpt lat="40.880907" lon="17.338993"><ele>69.361</ele><time>2025-09-08T09:37:14Z</time></trkpt><trkpt lat="40.880992" lon="17.338976"><ele>69.176</ele><time>2025-09-08T09:37:15Z</time></trkpt><trkpt lat="40.881117" lon="17.338978"><ele>68.852</ele><time>2025-09-08T09:37:17Z</time></trkpt><trkpt lat="40.881334" lon="17.339012"><ele>68.359</ele><time>2025-09-08T09:37:20Z</time></trkpt><trkpt lat="40.881597" lon="17.339317"><ele>67.403</ele><time>2025-09-08T09:37:26Z</time></trkpt><trkpt lat="40.881869" lon="17.339671"><ele>66.523</ele><time>2025-09-08T09:37:32Z</time></trkpt><trkpt lat="40.882008" lon="17.339816"><ele>66.109</ele><time>2025-09-08T09:37:34Z</time></trkpt><trkpt lat="40.882115" lon="17.33991"><ele>65.897</ele><time>2025-09-08T09:37:36Z</time></trkpt><trkpt lat="40.882371" lon="17.340319"><ele>64.018</ele><time>2025-09-08T09:37:42Z</time></trkpt><trkpt lat="40.882734" lon="17.340784"><ele>61.375</ele><time>2025-09-08T09:37:48Z</time></trkpt><trkpt lat="40.882914" lon="17.341131"><ele>59.622</ele><time>2025-09-08T09:37:52Z</time></trkpt><trkpt lat="40.883457" lon="17.342404"><ele>54.871</ele><time>2025-09-08T09:38:07Z</time></trkpt><trkpt lat="40.883119" lon="17.342623"><ele>53.855</ele><time>2025-09-08T09:38:12Z</time></trkpt><trkpt lat="40.882928" lon="17.342804"><ele>53.227</ele><time>2025-09-08T09:38:16Z</time></trkpt><trkpt lat="40.882081" lon="17.343824"><ele>50.692</ele><time>2025-09-08T09:38:35Z</time></trkpt><trkpt lat="40.882306" lon="17.344465"><ele>49.958</ele><time>2025-09-08T09:38:45Z</time></trkpt><trkpt lat="40.882394" lon="17.344593"><ele>49.763</ele><time>2025-09-08T09:38:47Z</time></trkpt><trkpt lat="40.883268" lon="17.345578"><ele>48.144</ele><time>2025-09-08T09:39:06Z</time></trkpt><trkpt lat="40.883455" lon="17.346518"><ele>47.018</ele><time>2025-09-08T09:39:19Z</time></trkpt><trkpt lat="40.883508" lon="17.346652"><ele>46.809</ele><time>2025-09-08T09:39:21Z</time></trkpt><trkpt lat="40.883791" lon="17.347589"><ele>45.858</ele><time>2025-09-08T09:39:34Z</time></trkpt><trkpt lat="40.883819" lon="17.347892"><ele>45.639</ele><time>2025-09-08T09:39:38Z</time></trkpt><trkpt lat="40.883817" lon="17.348222"><ele>45.446</ele><time>2025-09-08T09:39:43Z</time></trkpt><trkpt lat="40.883841" lon="17.348273"><ele>45.413</ele><time>2025-09-08T09:39:43Z</time></trkpt><trkpt lat="40.883948" lon="17.348276"><ele>45.382</ele><time>2025-09-08T09:39:45Z</time></trkpt><trkpt lat="40.884007" lon="17.348229"><ele>45.366</ele><time>2025-09-08T09:39:47Z</time></trkpt><trkpt lat="40.884096" lon="17.348154"><ele>45.228</ele><time>2025-09-08T09:39:49Z</time></trkpt><trkpt lat="40.884253" lon="17.34797"><ele>45.173</ele><time>2025-09-08T09:39:53Z</time></trkpt><trkpt lat="40.884318" lon="17.347897"><ele>45.029</ele><time>2025-09-08T09:39:55Z</time></trkpt><trkpt lat="40.884406" lon="17.347864"><ele>44.963</ele><time>2025-09-08T09:39:58Z</time></trkpt><trkpt lat="40.884449" lon="17.347829"><ele>44.944</ele><time>2025-09-08T09:40:00Z</time></trkpt><trkpt lat="40.88541" lon="17.347034"><ele>44.418</ele><time>2025-09-08T09:40:35Z</time></trkpt><trkpt lat="40.887428" lon="17.345327"><ele>43.409</ele><time>2025-09-08T09:41:48Z</time></trkpt><trkpt lat="40.889471" lon="17.343535"><ele>42.168</ele><time>2025-09-08T09:43:02Z</time></trkpt><trkpt lat="40.890111" lon="17.343058"><ele>41.889</ele><time>2025-09-08T09:43:25Z</time></trkpt><trkpt lat="40.890371" lon="17.342831"><ele>41.776</ele><time>2025-09-08T09:43:34Z</time></trkpt><trkpt lat="40.890826" lon="17.342435"><ele>41.563</ele><time>2025-09-08T09:43:51Z</time></trkpt><trkpt lat="40.890918" lon="17.342298"><ele>41.452</ele><time>2025-09-08T09:43:55Z</time></trkpt><trkpt lat="40.891801" lon="17.341543"><ele>41.056</ele><time>2025-09-08T09:44:28Z</time></trkpt><trkpt lat="40.893636" lon="17.339962"><ele>39.928</ele><time>2025-09-08T09:45:34Z</time></trkpt><trkpt lat="40.89421" lon="17.339521"><ele>39.683</ele><time>2025-09-08T09:45:54Z</time></trkpt><trkpt lat="40.894271" lon="17.339425"><ele>39.689</ele><time>2025-09-08T09:45:57Z</time></trkpt><trkpt lat="40.894308" lon="17.339445"><ele>39.625</ele><time>2025-09-08T09:45:58Z</time></trkpt><trkpt lat="40.894828" lon="17.339041"><ele>39.326</ele><time>2025-09-08T09:46:17Z</time></trkpt><trkpt lat="40.894979" lon="17.338816"><ele>39.208</ele><time>2025-09-08T09:46:23Z</time></trkpt><trkpt lat="40.896426" lon="17.337579"><ele>38.509</ele><time>2025-09-08T09:47:16Z</time></trkpt><trkpt lat="40.897456" lon="17.336733"><ele>38.224</ele><time>2025-09-08T09:47:54Z</time></trkpt><trkpt lat="40.897687" lon="17.336643"><ele>38.175</ele><time>2025-09-08T09:48:02Z</time></trkpt><trkpt lat="40.900177" lon="17.334488"><ele>37.382</ele><time>2025-09-08T09:49:33Z</time></trkpt><trkpt lat="40.900279" lon="17.334746"><ele>37.329</ele><time>2025-09-08T09:49:40Z</time></trkpt><trkpt lat="40.900093" lon="17.334893"><ele>37.368</ele><time>2025-09-08T09:49:47Z</time></trkpt><trkpt lat="40.899648" lon="17.335244"><ele>37.392</ele><time>2025-09-08T09:50:04Z</time></trkpt><trkpt lat="40.897771" lon="17.336847"><ele>37.584</ele><time>2025-09-08T09:51:17Z</time></trkpt><trkpt lat="40.897347" lon="17.337202"><ele>37.379</ele><time>2025-09-08T09:51:32Z</time></trkpt><trkpt lat="40.896937" lon="17.337545"><ele>37.145</ele><time>2025-09-08T09:51:48Z</time></trkpt><trkpt lat="40.896879" lon="17.337626"><ele>37.139</ele><time>2025-09-08T09:51:50Z</time></trkpt><trkpt lat="40.896376" lon="17.338027"><ele>36.901</ele><time>2025-09-08T09:52:08Z</time></trkpt><trkpt lat="40.896346" lon="17.33808"><ele>36.921</ele><time>2025-09-08T09:52:09Z</time></trkpt><trkpt lat="40.89627" lon="17.338459"><ele>36.809</ele><time>2025-09-08T09:52:18Z</time></trkpt><trkpt lat="40.896265" lon="17.33874"><ele>36.865</ele><time>2025-09-08T09:52:24Z</time></trkpt><trkpt lat="40.896228" lon="17.33908"><ele>36.886</ele><time>2025-09-08T09:52:32Z</time></trkpt><trkpt lat="40.896233" lon="17.339428"><ele>36.843</ele><time>2025-09-08T09:52:40Z</time></trkpt><trkpt lat="40.896288" lon="17.339634"><ele>36.880</ele><time>2025-09-08T09:52:45Z</time></trkpt><trkpt lat="40.896524" lon="17.340115"><ele>36.869</ele><time>2025-09-08T09:52:59Z</time></trkpt><trkpt lat="40.896506" lon="17.340144"><ele>36.883</ele><time>2025-09-08T09:53:00Z</time></trkpt><trkpt lat="40.896374" lon="17.340255"><ele>36.865</ele><time>2025-09-08T09:53:06Z</time></trkpt><trkpt lat="40.896133" lon="17.339968"><ele>37.160</ele><time>2025-09-08T09:53:18Z</time></trkpt><trkpt lat="40.896057" lon="17.339818"><ele>37.326</ele><time>2025-09-08T09:53:23Z</time></trkpt><trkpt lat="40.895984" lon="17.339833"><ele>37.468</ele><time>2025-09-08T09:53:26Z</time></trkpt><trkpt lat="40.89589" lon="17.339909"><ele>37.542</ele><time>2025-09-08T09:53:30Z</time></trkpt><trkpt lat="40.895659" lon="17.339827"><ele>37.826</ele><time>2025-09-08T09:53:40Z</time></trkpt><trkpt lat="40.894778" lon="17.339647"><ele>38.909</ele><time>2025-09-08T09:54:15Z</time></trkpt><trkpt lat="40.89459" lon="17.339628"><ele>39.138</ele><time>2025-09-08T09:54:21Z</time></trkpt><trkpt lat="40.89448" lon="17.339672"><ele>39.279</ele><time>2025-09-08T09:54:25Z</time></trkpt><trkpt lat="40.894483" lon="17.339761"><ele>39.296</ele><time>2025-09-08T09:54:27Z</time></trkpt><trkpt lat="40.894437" lon="17.339916"><ele>39.313</ele><time>2025-09-08T09:54:30Z</time></trkpt><trkpt lat="40.894025" lon="17.340367"><ele>39.632</ele><time>2025-09-08T09:54:42Z</time></trkpt><trkpt lat="40.8939" lon="17.340566"><ele>39.776</ele><time>2025-09-08T09:54:47Z</time></trkpt><trkpt lat="40.893694" lon="17.340774"><ele>39.818</ele><time>2025-09-08T09:54:52Z</time></trkpt><trkpt lat="40.893485" lon="17.340936"><ele>39.993</ele><time>2025-09-08T09:54:58Z</time></trkpt><trkpt lat="40.893331" lon="17.341221"><ele>40.049</ele><time>2025-09-08T09:55:04Z</time></trkpt><trkpt lat="40.893261" lon="17.341305"><ele>40.099</ele><time>2025-09-08T09:55:06Z</time></trkpt><trkpt lat="40.892857" lon="17.341597"><ele>40.107</ele><time>2025-09-08T09:55:16Z</time></trkpt><trkpt lat="40.892601" lon="17.341739"><ele>40.227</ele><time>2025-09-08T09:55:22Z</time></trkpt><trkpt lat="40.892098" lon="17.342337"><ele>40.409</ele><time>2025-09-08T09:55:36Z</time></trkpt><trkpt lat="40.891581" lon="17.343052"><ele>40.131</ele><time>2025-09-08T09:55:52Z</time></trkpt><trkpt lat="40.891375" lon="17.34339"><ele>39.912</ele><time>2025-09-08T09:55:58Z</time></trkpt><trkpt lat="40.891371" lon="17.343397"><ele>39.949</ele><time>2025-09-08T09:55:58Z</time></trkpt><trkpt lat="40.890964" lon="17.34398"><ele>39.556</ele><time>2025-09-08T09:56:09Z</time></trkpt><trkpt lat="40.891716" lon="17.34532"><ele>38.155</ele><time>2025-09-08T09:56:31Z</time></trkpt><trkpt lat="40.891812" lon="17.345494"><ele>37.989</ele><time>2025-09-08T09:56:33Z</time></trkpt><trkpt lat="40.892003" lon="17.345917"><ele>37.411</ele><time>2025-09-08T09:56:40Z</time></trkpt><trkpt lat="40.892104" lon="17.345945"><ele>37.336</ele><time>2025-09-08T09:56:43Z</time></trkpt><trkpt lat="40.892356" lon="17.345852"><ele>36.972</ele><time>2025-09-08T09:56:50Z</time></trkpt><trkpt lat="40.892592" lon="17.345872"><ele>36.542</ele><time>2025-09-08T09:56:57Z</time></trkpt><trkpt lat="40.892675" lon="17.345953"><ele>36.322</ele><time>2025-09-08T09:57:00Z</time></trkpt><trkpt lat="40.892838" lon="17.346022"><ele>36.014</ele><time>2025-09-08T09:57:05Z</time></trkpt><trkpt lat="40.893029" lon="17.346234"><ele>35.609</ele><time>2025-09-08T09:57:12Z</time></trkpt><trkpt lat="40.893006" lon="17.3463"><ele>35.566</ele><time>2025-09-08T09:57:14Z</time></trkpt><trkpt lat="40.893056" lon="17.346367"><ele>35.457</ele><time>2025-09-08T09:57:16Z</time></trkpt><trkpt lat="40.8932" lon="17.346387"><ele>35.294</ele><time>2025-09-08T09:57:20Z</time></trkpt><trkpt lat="40.89347" lon="17.346526"><ele>34.791</ele><time>2025-09-08T09:57:28Z</time></trkpt><trkpt lat="40.893586" lon="17.34652"><ele>34.550</ele><time>2025-09-08T09:57:31Z</time></trkpt><trkpt lat="40.893736" lon="17.346453"><ele>34.264</ele><time>2025-09-08T09:57:35Z</time></trkpt><trkpt lat="40.894071" lon="17.346503"><ele>33.566</ele><time>2025-09-08T09:57:45Z</time></trkpt><trkpt lat="40.894252" lon="17.346684"><ele>32.991</ele><time>2025-09-08T09:57:51Z</time></trkpt><trkpt lat="40.894847" lon="17.346952"><ele>31.437</ele><time>2025-09-08T09:58:08Z</time></trkpt><trkpt lat="40.894903" lon="17.346957"><ele>31.315</ele><time>2025-09-08T09:58:09Z</time></trkpt><trkpt lat="40.895038" lon="17.3469"><ele>31.065</ele><time>2025-09-08T09:58:13Z</time></trkpt><trkpt lat="40.895553" lon="17.346913"><ele>29.711</ele><time>2025-09-08T09:58:26Z</time></trkpt><trkpt lat="40.895661" lon="17.346834"><ele>29.409</ele><time>2025-09-08T09:58:30Z</time></trkpt><trkpt lat="40.895696" lon="17.346809"><ele>29.333</ele><time>2025-09-08T09:58:31Z</time></trkpt><trkpt lat="40.895833" lon="17.346645"><ele>28.984</ele><time>2025-09-08T09:58:36Z</time></trkpt><trkpt lat="40.895884" lon="17.346712"><ele>28.861</ele><time>2025-09-08T09:58:37Z</time></trkpt><trkpt lat="40.896242" lon="17.346955"><ele>28.098</ele><time>2025-09-08T09:58:48Z</time></trkpt><trkpt lat="40.896327" lon="17.347059"><ele>27.897</ele><time>2025-09-08T09:58:52Z</time></trkpt><trkpt lat="40.896393" lon="17.347128"><ele>27.611</ele><time>2025-09-08T09:58:54Z</time></trkpt><trkpt lat="40.89649" lon="17.347229"><ele>27.423</ele><time>2025-09-08T09:58:57Z</time></trkpt><trkpt lat="40.896604" lon="17.347243"><ele>27.238</ele><time>2025-09-08T09:59:01Z</time></trkpt><trkpt lat="40.896701" lon="17.347203"><ele>27.014</ele><time>2025-09-08T09:59:03Z</time></trkpt><trkpt lat="40.896765" lon="17.347112"><ele>26.879</ele><time>2025-09-08T09:59:06Z</time></trkpt><trkpt lat="40.89704" lon="17.346747"><ele>26.005</ele><time>2025-09-08T09:59:17Z</time></trkpt><trkpt lat="40.897087" lon="17.346748"><ele>25.925</ele><time>2025-09-08T09:59:19Z</time></trkpt><trkpt lat="40.897274" lon="17.346903"><ele>25.509</ele><time>2025-09-08T09:59:25Z</time></trkpt><trkpt lat="40.89859" lon="17.348128"><ele>22.549</ele><time>2025-09-08T10:00:10Z</time></trkpt><trkpt lat="40.898828" lon="17.348415"><ele>21.330</ele><time>2025-09-08T10:00:18Z</time></trkpt><trkpt lat="40.899059" lon="17.348769"><ele>20.077</ele><time>2025-09-08T10:00:27Z</time></trkpt><trkpt lat="40.899195" lon="17.349247"><ele>18.694</ele><time>2025-09-08T10:00:37Z</time></trkpt><trkpt lat="40.899229" lon="17.349601"><ele>17.693</ele><time>2025-09-08T10:00:44Z</time></trkpt><trkpt lat="40.899345" lon="17.349821"><ele>16.937</ele><time>2025-09-08T10:00:49Z</time></trkpt><trkpt lat="40.89959" lon="17.350277"><ele>15.299</ele><time>2025-09-08T10:00:59Z</time></trkpt><trkpt lat="40.899855" lon="17.351228"><ele>12.034</ele><time>2025-09-08T10:01:17Z</time></trkpt><trkpt lat="40.900183" lon="17.351928"><ele>9.420</ele><time>2025-09-08T10:01:33Z</time></trkpt><trkpt lat="40.900194" lon="17.351973"><ele>9.239</ele><time>2025-09-08T10:01:34Z</time></trkpt><trkpt lat="40.900209" lon="17.35204"><ele>9.001</ele><time>2025-09-08T10:01:35Z</time></trkpt><trkpt lat="40.900246" lon="17.352689"><ele>7.921</ele><time>2025-09-08T10:01:48Z</time></trkpt><trkpt lat="40.900234" lon="17.353008"><ele>7.509</ele><time>2025-09-08T10:01:55Z</time></trkpt><trkpt lat="40.900672" lon="17.35301"><ele>6.765</ele><time>2025-09-08T10:02:02Z</time></trkpt><trkpt lat="40.901086" lon="17.352919"><ele>6.046</ele><time>2025-09-08T10:02:10Z</time></trkpt><trkpt lat="40.90125" lon="17.352839"><ele>5.733</ele><time>2025-09-08T10:02:13Z</time></trkpt><trkpt lat="40.901465" lon="17.352668"><ele>5.420</ele><time>2025-09-08T10:02:18Z</time></trkpt><trkpt lat="40.90254" lon="17.351494"><ele>4.919</ele><time>2025-09-08T10:02:45Z</time></trkpt><trkpt lat="40.902672" lon="17.35135"><ele>4.883</ele><time>2025-09-08T10:02:48Z</time></trkpt><trkpt lat="40.902882" lon="17.351144"><ele>4.735</ele><time>2025-09-08T10:02:53Z</time></trkpt><trkpt lat="40.903179" lon="17.350816"><ele>4.530</ele><time>2025-09-08T10:03:00Z</time></trkpt><trkpt lat="40.903522" lon="17.350439"><ele>4.216</ele><time>2025-09-08T10:03:09Z</time></trkpt><trkpt lat="40.903704" lon="17.350285"><ele>4.192</ele><time>2025-09-08T10:03:13Z</time></trkpt><trkpt lat="40.904071" lon="17.349975"><ele>3.973</ele><time>2025-09-08T10:03:21Z</time></trkpt><trkpt lat="40.904235" lon="17.349931"><ele>3.820</ele><time>2025-09-08T10:03:24Z</time></trkpt><trkpt lat="40.90439" lon="17.349989"><ele>3.809</ele><time>2025-09-08T10:03:26Z</time></trkpt><trkpt lat="40.904553" lon="17.350113"><ele>3.871</ele><time>2025-09-08T10:03:30Z</time></trkpt><trkpt lat="40.904609" lon="17.350221"><ele>3.852</ele><time>2025-09-08T10:03:31Z</time></trkpt><trkpt lat="40.904654" lon="17.350451"><ele>3.819</ele><time>2025-09-08T10:03:35Z</time></trkpt><trkpt lat="40.904818" lon="17.350559"><ele>3.896</ele><time>2025-09-08T10:03:38Z</time></trkpt><trkpt lat="40.904839" lon="17.350529"><ele>3.855</ele><time>2025-09-08T10:03:39Z</time></trkpt><trkpt lat="40.904999" lon="17.350155"><ele>3.879</ele><time>2025-09-08T10:03:45Z</time></trkpt><trkpt lat="40.905045" lon="17.350061"><ele>3.871</ele><time>2025-09-08T10:03:47Z</time></trkpt><trkpt lat="40.90547" lon="17.349201"><ele>4.076</ele><time>2025-09-08T10:04:05Z</time></trkpt><trkpt lat="40.905671" lon="17.348954"><ele>4.292</ele><time>2025-09-08T10:04:12Z</time></trkpt><trkpt lat="40.905998" lon="17.348693"><ele>4.452</ele><time>2025-09-08T10:04:21Z</time></trkpt><trkpt lat="40.90637" lon="17.348412"><ele>4.653</ele><time>2025-09-08T10:04:31Z</time></trkpt><trkpt lat="40.906434" lon="17.348365"><ele>4.608</ele><time>2025-09-08T10:04:33Z</time></trkpt><trkpt lat="40.906703" lon="17.348154"><ele>4.809</ele><time>2025-09-08T10:04:39Z</time></trkpt><trkpt lat="40.906781" lon="17.348091"><ele>4.997</ele><time>2025-09-08T10:04:41Z</time></trkpt><trkpt lat="40.907193" lon="17.347757"><ele>4.768</ele><time>2025-09-08T10:04:49Z</time></trkpt><trkpt lat="40.907452" lon="17.347558"><ele>4.695</ele><time>2025-09-08T10:04:55Z</time></trkpt><trkpt lat="40.907946" lon="17.347085"><ele>4.432</ele><time>2025-09-08T10:05:05Z</time></trkpt><trkpt lat="40.908478" lon="17.346764"><ele>4.651</ele><time>2025-09-08T10:05:16Z</time></trkpt><trkpt lat="40.908609" lon="17.346631"><ele>5.045</ele><time>2025-09-08T10:05:19Z</time></trkpt><trkpt lat="40.908777" lon="17.346388"><ele>5.637</ele><time>2025-09-08T10:05:26Z</time></trkpt><trkpt lat="40.908823" lon="17.346331"><ele>5.732</ele><time>2025-09-08T10:05:28Z</time></trkpt><trkpt lat="40.909199" lon="17.34606"><ele>6.718</ele><time>2025-09-08T10:05:42Z</time></trkpt><trkpt lat="40.909306" lon="17.345928"><ele>7.049</ele><time>2025-09-08T10:05:47Z</time></trkpt><trkpt lat="40.909357" lon="17.345807"><ele>7.202</ele><time>2025-09-08T10:05:51Z</time></trkpt><trkpt lat="40.909374" lon="17.345767"><ele>7.322</ele><time>2025-09-08T10:05:52Z</time></trkpt><trkpt lat="40.909492" lon="17.345249"><ele>8.209</ele><time>2025-09-08T10:06:06Z</time></trkpt><trkpt lat="40.909602" lon="17.345067"><ele>8.836</ele><time>2025-09-08T10:06:13Z</time></trkpt><trkpt lat="40.909772" lon="17.344892"><ele>9.637</ele><time>2025-09-08T10:06:22Z</time></trkpt><trkpt lat="40.910084" lon="17.344555"><ele>11.254</ele><time>2025-09-08T10:06:38Z</time></trkpt><trkpt lat="40.909954" lon="17.344244"><ele>12.261</ele><time>2025-09-08T10:06:49Z</time></trkpt><trkpt lat="40.909804" lon="17.343375"><ele>14.830</ele><time>2025-09-08T10:07:15Z</time></trkpt><trkpt lat="40.909686" lon="17.342941"><ele>15.984</ele><time>2025-09-08T10:07:30Z</time></trkpt><trkpt lat="40.90941" lon="17.342168"><ele>17.726</ele><time>2025-09-08T10:07:54Z</time></trkpt><trkpt lat="40.909261" lon="17.341927"><ele>18.331</ele><time>2025-09-08T10:08:01Z</time></trkpt><trkpt lat="40.909115" lon="17.341814"><ele>18.877</ele><time>2025-09-08T10:08:06Z</time></trkpt><trkpt lat="40.908969" lon="17.341573"><ele>19.429</ele><time>2025-09-08T10:08:13Z</time></trkpt><trkpt lat="40.908912" lon="17.341278"><ele>20.000</ele><time>2025-09-08T10:08:20Z</time></trkpt><trkpt lat="40.908918" lon="17.341126"><ele>20.220</ele><time>2025-09-08T10:08:24Z</time></trkpt><trkpt lat="40.90892" lon="17.341079"><ele>20.209</ele><time>2025-09-08T10:08:25Z</time></trkpt><trkpt lat="40.909074" lon="17.34094"><ele>20.474</ele><time>2025-09-08T10:08:31Z</time></trkpt><trkpt lat="40.90941" lon="17.340537"><ele>20.955</ele><time>2025-09-08T10:08:44Z</time></trkpt><trkpt lat="40.90954" lon="17.340253"><ele>21.222</ele><time>2025-09-08T10:08:52Z</time></trkpt><trkpt lat="40.90956" lon="17.340146"><ele>21.379</ele><time>2025-09-08T10:08:54Z</time></trkpt><trkpt lat="40.90948" lon="17.33987"><ele>21.568</ele><time>2025-09-08T10:09:01Z</time></trkpt><trkpt lat="40.909179" lon="17.338848"><ele>22.642</ele><time>2025-09-08T10:09:25Z</time></trkpt><trkpt lat="40.90911" lon="17.338676"><ele>22.824</ele><time>2025-09-08T10:09:30Z</time></trkpt><trkpt lat="40.90905" lon="17.338585"><ele>22.919</ele><time>2025-09-08T10:09:32Z</time></trkpt><trkpt lat="40.908896" lon="17.338537"><ele>23.215</ele><time>2025-09-08T10:09:37Z</time></trkpt><trkpt lat="40.908648" lon="17.337619"><ele>24.441</ele><time>2025-09-08T10:10:03Z</time></trkpt><trkpt lat="40.908606" lon="17.337529"><ele>24.581</ele><time>2025-09-08T10:10:06Z</time></trkpt><trkpt lat="40.908552" lon="17.337328"><ele>24.809</ele><time>2025-09-08T10:10:13Z</time></trkpt><trkpt lat="40.908479" lon="17.336596"><ele>25.609</ele><time>2025-09-08T10:10:37Z</time></trkpt><trkpt lat="40.908432" lon="17.336413"><ele>25.866</ele><time>2025-09-08T10:10:43Z</time></trkpt><trkpt lat="40.908417" lon="17.336075"><ele>26.247</ele><time>2025-09-08T10:10:54Z</time></trkpt><trkpt lat="40.908436" lon="17.335571"><ele>26.814</ele><time>2025-09-08T10:11:09Z</time></trkpt><trkpt lat="40.908417" lon="17.33546"><ele>26.951</ele><time>2025-09-08T10:11:12Z</time></trkpt><trkpt lat="40.908764" lon="17.33533"><ele>27.470</ele><time>2025-09-08T10:11:25Z</time></trkpt><trkpt lat="40.908968" lon="17.335203"><ele>27.524</ele><time>2025-09-08T10:11:33Z</time></trkpt><trkpt lat="40.909289" lon="17.334948"><ele>27.316</ele><time>2025-09-08T10:11:44Z</time></trkpt><trkpt lat="40.909695" lon="17.334767"><ele>27.111</ele><time>2025-09-08T10:11:57Z</time></trkpt><trkpt lat="40.909792" lon="17.334739"><ele>27.117</ele><time>2025-09-08T10:12:00Z</time></trkpt><trkpt lat="40.909936" lon="17.334824"><ele>27.033</ele><time>2025-09-08T10:12:05Z</time></trkpt><trkpt lat="40.910243" lon="17.335172"><ele>26.823</ele><time>2025-09-08T10:12:17Z</time></trkpt><trkpt lat="40.910289" lon="17.335178"><ele>26.815</ele><time>2025-09-08T10:12:18Z</time></trkpt><trkpt lat="40.910375" lon="17.335135"><ele>26.809</ele><time>2025-09-08T10:12:21Z</time></trkpt><trkpt lat="40.910407" lon="17.335071"><ele>26.825</ele><time>2025-09-08T10:12:23Z</time></trkpt><trkpt lat="40.910467" lon="17.335021"><ele>26.786</ele><time>2025-09-08T10:12:25Z</time></trkpt><trkpt lat="40.910543" lon="17.335008"><ele>26.643</ele><time>2025-09-08T10:12:27Z</time></trkpt><trkpt lat="40.910612" lon="17.334972"><ele>26.530</ele><time>2025-09-08T10:12:29Z</time></trkpt><trkpt lat="40.910672" lon="17.334899"><ele>26.499</ele><time>2025-09-08T10:12:32Z</time></trkpt><trkpt lat="40.91075" lon="17.334739"><ele>26.373</ele><time>2025-09-08T10:12:36Z</time></trkpt><trkpt lat="40.9108" lon="17.334535"><ele>26.215</ele><time>2025-09-08T10:12:41Z</time></trkpt><trkpt lat="40.910802" lon="17.334231"><ele>26.020</ele><time>2025-09-08T10:12:48Z</time></trkpt><trkpt lat="40.910837" lon="17.333983"><ele>25.826</ele><time>2025-09-08T10:12:54Z</time></trkpt><trkpt lat="40.91097" lon="17.333534"><ele>25.567</ele><time>2025-09-08T10:13:04Z</time></trkpt><trkpt lat="40.911023" lon="17.333442"><ele>25.481</ele><time>2025-09-08T10:13:07Z</time></trkpt><trkpt lat="40.911176" lon="17.333379"><ele>25.319</ele><time>2025-09-08T10:13:12Z</time></trkpt><trkpt lat="40.911407" lon="17.333371"><ele>25.109</ele><time>2025-09-08T10:13:18Z</time></trkpt><trkpt lat="40.911402" lon="17.333696"><ele>24.898</ele><time>2025-09-08T10:13:26Z</time></trkpt><trkpt lat="40.911469" lon="17.333902"><ele>24.659</ele><time>2025-09-08T10:13:31Z</time></trkpt><trkpt lat="40.911443" lon="17.334084"><ele>24.496</ele><time>2025-09-08T10:13:35Z</time></trkpt><trkpt lat="40.911541" lon="17.334343"><ele>24.143</ele><time>2025-09-08T10:13:41Z</time></trkpt><trkpt lat="40.911516" lon="17.334492"><ele>24.062</ele><time>2025-09-08T10:13:44Z</time></trkpt><trkpt lat="40.91158" lon="17.334583"><ele>23.936</ele><time>2025-09-08T10:13:47Z</time></trkpt><trkpt lat="40.911627" lon="17.334766"><ele>23.728</ele><time>2025-09-08T10:13:51Z</time></trkpt><trkpt lat="40.911698" lon="17.334906"><ele>23.583</ele><time>2025-09-08T10:13:55Z</time></trkpt><trkpt lat="40.911698" lon="17.334907"><ele>23.599</ele><time>2025-09-08T10:13:55Z</time></trkpt><trkpt lat="40.91165" lon="17.335326"><ele>23.142</ele><time>2025-09-08T10:14:04Z</time></trkpt><trkpt lat="40.912091" lon="17.336064"><ele>22.022</ele><time>2025-09-08T10:14:24Z</time></trkpt><trkpt lat="40.912083" lon="17.33628"><ele>21.714</ele><time>2025-09-08T10:14:28Z</time></trkpt><trkpt lat="40.912143" lon="17.336329"><ele>21.609</ele><time>2025-09-08T10:14:30Z</time></trkpt><trkpt lat="40.91225" lon="17.336347"><ele>21.486</ele><time>2025-09-08T10:14:33Z</time></trkpt><trkpt lat="40.9124" lon="17.336284"><ele>21.157</ele><time>2025-09-08T10:14:38Z</time></trkpt><trkpt lat="40.912915" lon="17.336628"><ele>20.154</ele><time>2025-09-08T10:14:54Z</time></trkpt><trkpt lat="40.913064" lon="17.336841"><ele>19.841</ele><time>2025-09-08T10:15:00Z</time></trkpt><trkpt lat="40.913174" lon="17.337082"><ele>19.670</ele><time>2025-09-08T10:15:06Z</time></trkpt><trkpt lat="40.913228" lon="17.337367"><ele>19.494</ele><time>2025-09-08T10:15:13Z</time></trkpt><trkpt lat="40.913215" lon="17.33764"><ele>19.216</ele><time>2025-09-08T10:15:19Z</time></trkpt><trkpt lat="40.913123" lon="17.338102"><ele>18.981</ele><time>2025-09-08T10:15:29Z</time></trkpt><trkpt lat="40.91309" lon="17.338155"><ele>18.917</ele><time>2025-09-08T10:15:31Z</time></trkpt><trkpt lat="40.913025" lon="17.338191"><ele>18.875</ele><time>2025-09-08T10:15:33Z</time></trkpt><trkpt lat="40.912948" lon="17.338314"><ele>18.728</ele><time>2025-09-08T10:15:37Z</time></trkpt><trkpt lat="40.912917" lon="17.338411"><ele>18.620</ele><time>2025-09-08T10:15:39Z</time></trkpt><trkpt lat="40.91292" lon="17.338513"><ele>18.509</ele><time>2025-09-08T10:15:42Z</time></trkpt><trkpt lat="40.912947" lon="17.338595"><ele>18.469</ele><time>2025-09-08T10:15:44Z</time></trkpt><trkpt lat="40.913223" lon="17.338934"><ele>17.920</ele><time>2025-09-08T10:15:55Z</time></trkpt><trkpt lat="40.913295" lon="17.339207"><ele>17.477</ele><time>2025-09-08T10:16:02Z</time></trkpt><trkpt lat="40.913307" lon="17.339328"><ele>17.234</ele><time>2025-09-08T10:16:04Z</time></trkpt><trkpt lat="40.913287" lon="17.339431"><ele>17.063</ele><time>2025-09-08T10:16:07Z</time></trkpt><trkpt lat="40.913138" lon="17.339625"><ele>16.557</ele><time>2025-09-08T10:16:12Z</time></trkpt><trkpt lat="40.913129" lon="17.339728"><ele>16.339</ele><time>2025-09-08T10:16:15Z</time></trkpt><trkpt lat="40.913165" lon="17.339844"><ele>16.174</ele><time>2025-09-08T10:16:17Z</time></trkpt><trkpt lat="40.913237" lon="17.339968"><ele>15.840</ele><time>2025-09-08T10:16:20Z</time></trkpt><trkpt lat="40.913371" lon="17.340032"><ele>15.541</ele><time>2025-09-08T10:16:24Z</time></trkpt><trkpt lat="40.913626" lon="17.340068"><ele>14.981</ele><time>2025-09-08T10:16:31Z</time></trkpt><trkpt lat="40.913853" lon="17.340229"><ele>14.309</ele><time>2025-09-08T10:16:37Z</time></trkpt><trkpt lat="40.913993" lon="17.340382"><ele>13.809</ele><time>2025-09-08T10:16:42Z</time></trkpt><trkpt lat="40.914163" lon="17.340766"><ele>12.656</ele><time>2025-09-08T10:16:50Z</time></trkpt><trkpt lat="40.914232" lon="17.341174"><ele>11.487</ele><time>2025-09-08T10:16:58Z</time></trkpt><trkpt lat="40.914232" lon="17.341174"><ele>11.484</ele><time>2025-09-08T10:16:58Z</time></trkpt><trkpt lat="40.914228" lon="17.341461"><ele>10.651</ele><time>2025-09-08T10:17:07Z</time></trkpt><trkpt lat="40.914309" lon="17.341574"><ele>10.260</ele><time>2025-09-08T10:17:12Z</time></trkpt><trkpt lat="40.914369" lon="17.34185"><ele>9.424</ele><time>2025-09-08T10:17:21Z</time></trkpt><trkpt lat="40.914444" lon="17.342153"><ele>8.516</ele><time>2025-09-08T10:17:32Z</time></trkpt><trkpt lat="40.914523" lon="17.342489"><ele>7.561</ele><time>2025-09-08T10:17:43Z</time></trkpt><trkpt lat="40.914698" lon="17.342805"><ele>7.117</ele><time>2025-09-08T10:17:56Z</time></trkpt><trkpt lat="40.914821" lon="17.342869"><ele>7.019</ele><time>2025-09-08T10:18:01Z</time></trkpt><trkpt lat="40.914798" lon="17.342929"><ele>7.009</ele><time>2025-09-08T10:18:04Z</time></trkpt><trkpt lat="40.915168" lon="17.342513"><ele>6.619</ele><time>2025-09-08T10:18:11Z</time></trkpt><trkpt lat="40.915391" lon="17.342115"><ele>6.309</ele><time>2025-09-08T10:18:18Z</time></trkpt><trkpt lat="40.915391" lon="17.342053"><ele>6.313</ele><time>2025-09-08T10:18:19Z</time></trkpt><trkpt lat="40.915301" lon="17.341811"><ele>6.194</ele><time>2025-09-08T10:18:23Z</time></trkpt><trkpt lat="40.915224" lon="17.341638"><ele>6.031</ele><time>2025-09-08T10:18:27Z</time></trkpt><trkpt lat="40.915259" lon="17.341508"><ele>5.938</ele><time>2025-09-08T10:18:30Z</time></trkpt><trkpt lat="40.915364" lon="17.341353"><ele>6.227</ele><time>2025-09-08T10:18:35Z</time></trkpt><trkpt lat="40.915658" lon="17.341044"><ele>7.011</ele><time>2025-09-08T10:18:46Z</time></trkpt><trkpt lat="40.916021" lon="17.340324"><ele>8.453</ele><time>2025-09-08T10:19:08Z</time></trkpt><trkpt lat="40.916243" lon="17.339982"><ele>9.168</ele><time>2025-09-08T10:19:19Z</time></trkpt><trkpt lat="40.916475" lon="17.339736"><ele>9.794</ele><time>2025-09-08T10:19:28Z</time></trkpt><trkpt lat="40.916545" lon="17.339616"><ele>9.672</ele><time>2025-09-08T10:19:31Z</time></trkpt><trkpt lat="40.916552" lon="17.339482"><ele>9.513</ele><time>2025-09-08T10:19:34Z</time></trkpt><trkpt lat="40.916601" lon="17.339407"><ele>9.514</ele><time>2025-09-08T10:19:36Z</time></trkpt><trkpt lat="40.917078" lon="17.338936"><ele>9.209</ele><time>2025-09-08T10:19:49Z</time></trkpt><trkpt lat="40.91713" lon="17.338932"><ele>9.239</ele><time>2025-09-08T10:19:50Z</time></trkpt><trkpt lat="40.917176" lon="17.338777"><ele>9.130</ele><time>2025-09-08T10:19:52Z</time></trkpt><trkpt lat="40.917201" lon="17.338663"><ele>9.067</ele><time>2025-09-08T10:19:53Z</time></trkpt><trkpt lat="40.91724" lon="17.338473"><ele>8.924</ele><time>2025-09-08T10:19:56Z</time></trkpt><trkpt lat="40.917407" lon="17.338666"><ele>8.813</ele><time>2025-09-08T10:20:00Z</time></trkpt><trkpt lat="40.917608" lon="17.338982"><ele>8.577</ele><time>2025-09-08T10:20:07Z</time></trkpt><trkpt lat="40.917846" lon="17.339244"><ele>7.599</ele><time>2025-09-08T10:20:13Z</time></trkpt><trkpt lat="40.918142" lon="17.339515"><ele>6.354</ele><time>2025-09-08T10:20:19Z</time></trkpt><trkpt lat="40.918749" lon="17.339941"><ele>4.070</ele><time>2025-09-08T10:20:33Z</time></trkpt><trkpt lat="40.918829" lon="17.34003"><ele>3.763</ele><time>2025-09-08T10:20:35Z</time></trkpt><trkpt lat="40.918866" lon="17.339821"><ele>3.244</ele><time>2025-09-08T10:20:39Z</time></trkpt><trkpt lat="40.918919" lon="17.339701"><ele>2.918</ele><time>2025-09-08T10:20:42Z</time></trkpt><trkpt lat="40.91904" lon="17.339567"><ele>2.809</ele><time>2025-09-08T10:20:46Z</time></trkpt><trkpt lat="40.919078" lon="17.339484"><ele>2.878</ele><time>2025-09-08T10:20:48Z</time></trkpt><trkpt lat="40.919207" lon="17.339494"><ele>2.779</ele><time>2025-09-08T10:20:51Z</time></trkpt><trkpt lat="40.919435" lon="17.339438"><ele>2.636</ele><time>2025-09-08T10:20:58Z</time></trkpt><trkpt lat="40.919588" lon="17.339445"><ele>2.513</ele><time>2025-09-08T10:21:03Z</time></trkpt><trkpt lat="40.919723" lon="17.339446"><ele>2.482</ele><time>2025-09-08T10:21:07Z</time></trkpt><trkpt lat="40.919968" lon="17.339449"><ele>2.346</ele><time>2025-09-08T10:21:15Z</time></trkpt><trkpt lat="40.920065" lon="17.339363"><ele>2.268</ele><time>2025-09-08T10:21:19Z</time></trkpt><trkpt lat="40.920179" lon="17.339132"><ele>2.183</ele><time>2025-09-08T10:21:25Z</time></trkpt><trkpt lat="40.920503" lon="17.338694"><ele>2.129</ele><time>2025-09-08T10:21:42Z</time></trkpt><trkpt lat="40.920882" lon="17.338549"><ele>2.622</ele><time>2025-09-08T10:21:59Z</time></trkpt><trkpt lat="40.920966" lon="17.338424"><ele>2.862</ele><time>2025-09-08T10:22:04Z</time></trkpt><trkpt lat="40.921051" lon="17.338358"><ele>2.908</ele><time>2025-09-08T10:22:08Z</time></trkpt><trkpt lat="40.921084" lon="17.338267"><ele>3.009</ele><time>2025-09-08T10:22:11Z</time></trkpt><trkpt lat="40.921059" lon="17.338067"><ele>3.234</ele><time>2025-09-08T10:22:17Z</time></trkpt><trkpt lat="40.921024" lon="17.338032"><ele>3.355</ele><time>2025-09-08T10:22:19Z</time></trkpt><trkpt lat="40.921128" lon="17.337731"><ele>3.642</ele><time>2025-09-08T10:22:27Z</time></trkpt><trkpt lat="40.921109" lon="17.337551"><ele>3.849</ele><time>2025-09-08T10:22:32Z</time></trkpt><trkpt lat="40.921099" lon="17.337478"><ele>3.918</ele><time>2025-09-08T10:22:34Z</time></trkpt><trkpt lat="40.921035" lon="17.337402"><ele>4.032</ele><time>2025-09-08T10:22:37Z</time></trkpt><trkpt lat="40.921064" lon="17.337302"><ele>4.174</ele><time>2025-09-08T10:22:39Z</time></trkpt><trkpt lat="40.921197" lon="17.337342"><ele>4.349</ele><time>2025-09-08T10:22:45Z</time></trkpt><trkpt lat="40.921246" lon="17.337303"><ele>4.435</ele><time>2025-09-08T10:22:47Z</time></trkpt><trkpt lat="40.921611" lon="17.33725"><ele>5.172</ele><time>2025-09-08T10:23:02Z</time></trkpt><trkpt lat="40.921673" lon="17.337292"><ele>5.213</ele><time>2025-09-08T10:23:05Z</time></trkpt><trkpt lat="40.92181" lon="17.337312"><ele>5.414</ele><time>2025-09-08T10:23:10Z</time></trkpt><trkpt lat="40.921838" lon="17.337261"><ele>5.509</ele><time>2025-09-08T10:23:12Z</time></trkpt><trkpt lat="40.921681" lon="17.33675"><ele>6.239</ele><time>2025-09-08T10:23:27Z</time></trkpt><trkpt lat="40.921722" lon="17.336437"><ele>6.630</ele><time>2025-09-08T10:23:37Z</time></trkpt><trkpt lat="40.92176" lon="17.336159"><ele>7.027</ele><time>2025-09-08T10:23:46Z</time></trkpt><trkpt lat="40.921715" lon="17.335596"><ele>7.734</ele><time>2025-09-08T10:24:08Z</time></trkpt><trkpt lat="40.921775" lon="17.335302"><ele>8.073</ele><time>2025-09-08T10:24:18Z</time></trkpt><trkpt lat="40.921775" lon="17.335112"><ele>8.277</ele><time>2025-09-08T10:24:25Z</time></trkpt><trkpt lat="40.92194" lon="17.334529"><ele>8.999</ele><time>2025-09-08T10:24:43Z</time></trkpt><trkpt lat="40.921925" lon="17.334443"><ele>9.064</ele><time>2025-09-08T10:24:46Z</time></trkpt><trkpt lat="40.923272" lon="17.332365"><ele>10.280</ele><time>2025-09-08T10:25:55Z</time></trkpt><trkpt lat="40.92335" lon="17.332286"><ele>10.219</ele><time>2025-09-08T10:25:58Z</time></trkpt><trkpt lat="40.923628" lon="17.33212"><ele>10.209</ele><time>2025-09-08T10:26:07Z</time></trkpt><trkpt lat="40.923902" lon="17.332043"><ele>10.119</ele><time>2025-09-08T10:26:15Z</time></trkpt><trkpt lat="40.924535" lon="17.332051"><ele>9.809</ele><time>2025-09-08T10:26:35Z</time></trkpt><trkpt lat="40.924685" lon="17.332144"><ele>9.783</ele><time>2025-09-08T10:26:40Z</time></trkpt><trkpt lat="40.924779" lon="17.332153"><ele>9.724</ele><time>2025-09-08T10:26:42Z</time></trkpt><trkpt lat="40.925228" lon="17.332137"><ele>9.541</ele><time>2025-09-08T10:26:56Z</time></trkpt><trkpt lat="40.926192" lon="17.331588"><ele>8.528</ele><time>2025-09-08T10:27:29Z</time></trkpt><trkpt lat="40.926237" lon="17.331592"><ele>8.417</ele><time>2025-09-08T10:27:30Z</time></trkpt><trkpt lat="40.926261" lon="17.331594"><ele>8.481</ele><time>2025-09-08T10:27:31Z</time></trkpt><trkpt lat="40.926396" lon="17.331808"><ele>8.253</ele><time>2025-09-08T10:27:37Z</time></trkpt><trkpt lat="40.92645" lon="17.331799"><ele>8.198</ele><time>2025-09-08T10:27:38Z</time></trkpt><trkpt lat="40.926942" lon="17.331298"><ele>7.494</ele><time>2025-09-08T10:27:48Z</time></trkpt><trkpt lat="40.927235" lon="17.330968"><ele>7.186</ele><time>2025-09-08T10:27:54Z</time></trkpt><trkpt lat="40.92778" lon="17.330272"><ele>6.660</ele><time>2025-09-08T10:28:08Z</time></trkpt><trkpt lat="40.928445" lon="17.329619"><ele>6.226</ele><time>2025-09-08T10:28:26Z</time></trkpt><trkpt lat="40.928581" lon="17.329545"><ele>6.309</ele><time>2025-09-08T10:28:31Z</time></trkpt><trkpt lat="40.928639" lon="17.329459"><ele>6.470</ele><time>2025-09-08T10:28:33Z</time></trkpt><trkpt lat="40.928622" lon="17.329334"><ele>6.521</ele><time>2025-09-08T10:28:36Z</time></trkpt><trkpt lat="40.928451" lon="17.328396"><ele>7.228</ele><time>2025-09-08T10:28:56Z</time></trkpt><trkpt lat="40.929388" lon="17.328169"><ele>8.095</ele><time>2025-09-08T10:30:02Z</time></trkpt><trkpt lat="40.929568" lon="17.32807"><ele>8.124</ele><time>2025-09-08T10:30:16Z</time></trkpt><trkpt lat="40.929666" lon="17.327896"><ele>8.248</ele><time>2025-09-08T10:30:27Z</time></trkpt><trkpt lat="40.92994" lon="17.327276"><ele>8.580</ele><time>2025-09-08T10:31:05Z</time></trkpt><trkpt lat="40.930201" lon="17.326805"><ele>8.845</ele><time>2025-09-08T10:31:35Z</time></trkpt><trkpt lat="40.930445" lon="17.326366"><ele>9.081</ele><time>2025-09-08T10:32:04Z</time></trkpt><trkpt lat="40.9307" lon="17.326005"><ele>9.295</ele><time>2025-09-08T10:32:30Z</time></trkpt><trkpt lat="40.931053" lon="17.325461"><ele>9.549</ele><time>2025-09-08T10:33:08Z</time></trkpt><trkpt lat="40.9314" lon="17.324861"><ele>9.823</ele><time>2025-09-08T10:33:47Z</time></trkpt><trkpt lat="40.931409" lon="17.324848"><ele>9.809</ele><time>2025-09-08T10:33:48Z</time></trkpt><trkpt lat="40.931647" lon="17.324519"><ele>10.021</ele><time>2025-09-08T10:34:12Z</time></trkpt><trkpt lat="40.932724" lon="17.323222"><ele>11.022</ele><time>2025-09-08T10:35:53Z</time></trkpt><trkpt lat="40.932896" lon="17.323015"><ele>10.959</ele><time>2025-09-08T10:36:09Z</time></trkpt><trkpt lat="40.933157" lon="17.3227"><ele>10.786</ele><time>2025-09-08T10:36:34Z</time></trkpt><trkpt lat="40.933225" lon="17.322611"><ele>10.665</ele><time>2025-09-08T10:36:41Z</time></trkpt><trkpt lat="40.933612" lon="17.322108"><ele>10.379</ele><time>2025-09-08T10:37:18Z</time></trkpt><trkpt lat="40.933785" lon="17.32188"><ele>10.231</ele><time>2025-09-08T10:37:35Z</time></trkpt><trkpt lat="40.933894" lon="17.321794"><ele>10.116</ele><time>2025-09-08T10:37:44Z</time></trkpt><trkpt lat="40.934133" lon="17.321688"><ele>10.032</ele><time>2025-09-08T10:38:02Z</time></trkpt><trkpt lat="40.934309" lon="17.321571"><ele>9.954</ele><time>2025-09-08T10:38:15Z</time></trkpt><trkpt lat="40.934369" lon="17.321531"><ele>9.956</ele><time>2025-09-08T10:38:20Z</time></trkpt><trkpt lat="40.934478" lon="17.321313"><ele>9.811</ele><time>2025-09-08T10:38:34Z</time></trkpt><trkpt lat="40.935058" lon="17.321674"><ele>9.509</ele><time>2025-09-08T10:38:53Z</time></trkpt><trkpt lat="40.935248" lon="17.321869"><ele>9.497</ele><time>2025-09-08T10:39:01Z</time></trkpt><trkpt lat="40.935216" lon="17.321761"><ele>9.428</ele><time>2025-09-08T10:39:03Z</time></trkpt><trkpt lat="40.935227" lon="17.321291"><ele>9.265</ele><time>2025-09-08T10:39:16Z</time></trkpt><trkpt lat="40.93519" lon="17.32109"><ele>9.362</ele><time>2025-09-08T10:39:21Z</time></trkpt><trkpt lat="40.934993" lon="17.320375"><ele>9.591</ele><time>2025-09-08T10:39:42Z</time></trkpt><trkpt lat="40.935189" lon="17.320188"><ele>9.685</ele><time>2025-09-08T10:39:59Z</time></trkpt><trkpt lat="40.935454" lon="17.320018"><ele>9.737</ele><time>2025-09-08T10:40:19Z</time></trkpt><trkpt lat="40.935647" lon="17.319935"><ele>9.842</ele><time>2025-09-08T10:40:33Z</time></trkpt><trkpt lat="40.935783" lon="17.319876"><ele>9.988</ele><time>2025-09-08T10:40:43Z</time></trkpt><trkpt lat="40.936124" lon="17.319817"><ele>9.916</ele><time>2025-09-08T10:41:07Z</time></trkpt><trkpt lat="40.936295" lon="17.319756"><ele>9.976</ele><time>2025-09-08T10:41:19Z</time></trkpt><trkpt lat="40.936754" lon="17.319522"><ele>9.813</ele><time>2025-09-08T10:41:53Z</time></trkpt><trkpt lat="40.936754" lon="17.319522"><ele>9.809</ele><time>2025-09-08T10:41:53Z</time></trkpt><trkpt lat="40.936768" lon="17.319571"><ele>9.823</ele><time>2025-09-08T10:41:55Z</time></trkpt><trkpt lat="40.937019" lon="17.319472"><ele>9.814</ele><time>2025-09-08T10:42:06Z</time></trkpt><trkpt lat="40.93727" lon="17.319306"><ele>9.851</ele><time>2025-09-08T10:42:18Z</time></trkpt><trkpt lat="40.937463" lon="17.31911"><ele>9.838</ele><time>2025-09-08T10:42:29Z</time></trkpt><trkpt lat="40.937587" lon="17.319081"><ele>9.877</ele><time>2025-09-08T10:42:34Z</time></trkpt><trkpt lat="40.937686" lon="17.318928"><ele>9.951</ele><time>2025-09-08T10:42:41Z</time></trkpt><trkpt lat="40.937815" lon="17.318697"><ele>10.053</ele><time>2025-09-08T10:42:50Z</time></trkpt><trkpt lat="40.93784" lon="17.31856"><ele>10.048</ele><time>2025-09-08T10:42:55Z</time></trkpt><trkpt lat="40.93787" lon="17.318257"><ele>10.144</ele><time>2025-09-08T10:43:04Z</time></trkpt><trkpt lat="40.937852" lon="17.318242"><ele>10.195</ele><time>2025-09-08T10:43:05Z</time></trkpt><trkpt lat="40.937908" lon="17.318122"><ele>10.149</ele><time>2025-09-08T10:43:08Z</time></trkpt><trkpt lat="40.938013" lon="17.317887"><ele>10.223</ele><time>2025-09-08T10:43:12Z</time></trkpt><trkpt lat="40.937948" lon="17.31782"><ele>10.209</ele><time>2025-09-08T10:43:14Z</time></trkpt><trkpt lat="40.937943" lon="17.317784"><ele>10.241</ele><time>2025-09-08T10:43:14Z</time></trkpt><trkpt lat="40.93844" lon="17.316761"><ele>10.682</ele><time>2025-09-08T10:43:35Z</time></trkpt><trkpt lat="40.938612" lon="17.316423"><ele>10.799</ele><time>2025-09-08T10:43:43Z</time></trkpt><trkpt lat="40.938739" lon="17.31624"><ele>10.816</ele><time>2025-09-08T10:43:47Z</time></trkpt><trkpt lat="40.939414" lon="17.315544"><ele>11.285</ele><time>2025-09-08T10:44:05Z</time></trkpt><trkpt lat="40.939487" lon="17.315547"><ele>11.279</ele><time>2025-09-08T10:44:06Z</time></trkpt><trkpt lat="40.939623" lon="17.315486"><ele>11.381</ele><time>2025-09-08T10:44:09Z</time></trkpt><trkpt lat="40.939817" lon="17.315371"><ele>11.336</ele><time>2025-09-08T10:44:13Z</time></trkpt><trkpt lat="40.940107" lon="17.315146"><ele>11.352</ele><time>2025-09-08T10:44:20Z</time></trkpt><trkpt lat="40.940618" lon="17.3146"><ele>11.374</ele><time>2025-09-08T10:44:31Z</time></trkpt><trkpt lat="40.940708" lon="17.3145"><ele>11.356</ele><time>2025-09-08T10:44:33Z</time></trkpt><trkpt lat="40.940747" lon="17.314416"><ele>11.321</ele><time>2025-09-08T10:44:35Z</time></trkpt><trkpt lat="40.940787" lon="17.314323"><ele>11.309</ele><time>2025-09-08T10:44:36Z</time></trkpt></trkseg></trk></gpx>